,Postal Code,Place Name,State,State Abbreviation,County,Latitude,Longitude,Unnamed: 7
1991,6006.0,Windsor,Connecticut,CT,Hartford,41.8796,-72.7343,-1.0
1994,6013.0,Burlington,Connecticut,CT,Hartford,41.7573,-72.9444,-1.0
1995,6016.0,Broad Brook,Connecticut,CT,Hartford,41.9042,-72.5444,-1.0
1996,6018.0,Canaan,Connecticut,CT,Litchfield,42.0248,-73.3232,-1.0
1997,6019.0,Canton,Connecticut,CT,Hartford,41.8384,-72.8987,-1.0
1998,6020.0,Canton Center,Connecticut,CT,Hartford,41.8539,-72.9028,-1.0
1999,6021.0,Colebrook,Connecticut,CT,Litchfield,42.0282,-73.1041,-1.0
2000,6022.0,Collinsville,Connecticut,CT,Hartford,41.8513,-72.9283,-1.0
2001,6023.0,East Berlin,Connecticut,CT,Hartford,41.6128,-72.719,-1.0
2002,6024.0,East Canaan,Connecticut,CT,Litchfield,42.0158,-73.2913,-1.0
2003,6025.0,East Glastonbury,Connecticut,CT,Hartford,41.6889,-72.5345,-1.0
2004,6026.0,East Granby,Connecticut,CT,Hartford,41.9322,-72.7459,-1.0
2005,6027.0,East Hartland,Connecticut,CT,Hartford,42.0016,-72.9242,-1.0
2006,6028.0,East Windsor Hill,Connecticut,CT,Hartford,41.8592,-72.603,-1.0
2007,6029.0,Ellington,Connecticut,CT,Tolland,41.9114,-72.4626,-1.0
2008,6030.0,Farmington,Connecticut,CT,Hartford,41.7918,-72.7188,-1.0
2009,6031.0,Falls Village,Connecticut,CT,Litchfield,41.9578,-73.3517,-1.0
2010,6032.0,Farmington,Connecticut,CT,Hartford,41.7284,-72.8415,-1.0
2011,6033.0,Glastonbury,Connecticut,CT,Hartford,41.7073,-72.5727,-1.0
2012,6034.0,Farmington,Connecticut,CT,Hartford,41.7918,-72.7188,-1.0
2013,6035.0,Granby,Connecticut,CT,Hartford,41.9602,-72.7994,-1.0
2014,6037.0,Kensington,Connecticut,CT,Hartford,41.6029,-72.77,-1.0
2015,6039.0,Lakeville,Connecticut,CT,Litchfield,41.9516,-73.4377,-1.0
2019,6043.0,Bolton,Connecticut,CT,Tolland,41.7689,-72.4396,-1.0
2021,6049.0,Melrose,Connecticut,CT,Hartford,41.7918,-72.7188,-1.0
2026,6057.0,New Hartford,Connecticut,CT,Litchfield,41.8468,-73.0104,-1.0
2027,6058.0,Norfolk,Connecticut,CT,Litchfield,41.9854,-73.1992,-1.0
2028,6059.0,North Canton,Connecticut,CT,Hartford,41.8997,-72.8907,-1.0
2029,6060.0,North Granby,Connecticut,CT,Hartford,42.0219,-72.8409,-1.0
2030,6061.0,Pine Meadow,Connecticut,CT,Litchfield,41.8744,-72.968,-1.0
2031,6062.0,Plainville,Connecticut,CT,Hartford,41.6727,-72.8644,-1.0
2032,6063.0,Pleasant Valley,Connecticut,CT,Litchfield,41.9249,-72.9827,-1.0
2033,6064.0,Poquonock,Connecticut,CT,Hartford,41.7918,-72.7188,-1.0
2034,6065.0,Riverton,Connecticut,CT,Litchfield,41.9686,-73.0145,-1.0
2035,6066.0,Vernon Rockville,Connecticut,CT,Tolland,41.8501,-72.4649,-1.0
2036,6067.0,Rocky Hill,Connecticut,CT,Hartford,41.6583,-72.6632,-1.0
2037,6068.0,Salisbury,Connecticut,CT,Litchfield,42.0015,-73.4215,-1.0
2038,6069.0,Sharon,Connecticut,CT,Litchfield,41.8714,-73.4578,-1.0
2039,6070.0,Simsbury,Connecticut,CT,Hartford,41.8737,-72.8213,-1.0
2040,6071.0,Somers,Connecticut,CT,Tolland,41.9978,-72.4583,-1.0
2041,6072.0,Somersville,Connecticut,CT,Tolland,41.9765,-72.4906,-1.0
2042,6073.0,South Glastonbury,Connecticut,CT,Hartford,41.6571,-72.5722,-1.0
2043,6074.0,South Windsor,Connecticut,CT,Hartford,41.8341,-72.5576,-1.0
2044,6075.0,Stafford,Connecticut,CT,Tolland,41.8115,-72.3088,-1.0
2045,6076.0,Stafford Springs,Connecticut,CT,Tolland,41.9661,-72.2899,-1.0
2046,6077.0,Staffordville,Connecticut,CT,Tolland,41.9916,-72.2577,-1.0
2047,6078.0,Suffield,Connecticut,CT,Hartford,41.99,-72.642,-1.0
2048,6079.0,Taconic,Connecticut,CT,Litchfield,42.032,-73.4038,-1.0
2049,6080.0,Suffield,Connecticut,CT,Hartford,41.9486,-72.6288,-1.0
2050,6081.0,Tariffville,Connecticut,CT,Hartford,41.9077,-72.7678,-1.0
2053,6084.0,Tolland,Connecticut,CT,Tolland,41.8696,-72.3718,-1.0
2054,6085.0,Unionville,Connecticut,CT,Hartford,41.7477,-72.8874,-1.0
2055,6087.0,Unionville,Connecticut,CT,Hartford,41.7576,-72.885,-1.0
2056,6088.0,East Windsor,Connecticut,CT,Hartford,41.9099,-72.6029,-1.0
2057,6089.0,Weatogue,Connecticut,CT,Hartford,41.8372,-72.8253,-1.0
2058,6090.0,West Granby,Connecticut,CT,Hartford,41.9556,-72.862,-1.0
2059,6091.0,West Hartland,Connecticut,CT,Hartford,42.0034,-72.9921,-1.0
2060,6092.0,West Simsbury,Connecticut,CT,Hartford,41.8718,-72.8577,-1.0
2061,6093.0,West Suffield,Connecticut,CT,Hartford,42.0115,-72.7362,-1.0
2062,6094.0,Winchester Center,Connecticut,CT,Litchfield,41.8963,-73.1463,-1.0
2063,6095.0,Windsor,Connecticut,CT,Hartford,41.8561,-72.6639,-1.0
2064,6096.0,Windsor Locks,Connecticut,CT,Hartford,41.9261,-72.6458,-1.0
2065,6098.0,Winsted,Connecticut,CT,Litchfield,41.9252,-73.0663,-1.0
2072,6107.0,W Hartford,Connecticut,CT,Hartford,41.7556,-72.7532,-1.0
2075,6110.0,W Hartford,Connecticut,CT,Hartford,41.7326,-72.7337,-1.0
2076,6111.0,Newington,Connecticut,CT,Hartford,41.686,-72.7296,-1.0
2080,6117.0,W Hartford,Connecticut,CT,Hartford,41.79,-72.7457,-1.0
2082,6119.0,W Hartford,Connecticut,CT,Hartford,41.7628,-72.7268,-1.0
2086,6127.0,W Hartford,Connecticut,CT,Hartford,41.7918,-72.7188,-1.0
2089,6131.0,Newington,Connecticut,CT,Hartford,41.7918,-72.7188,-1.0
2091,6133.0,W Hartford,Connecticut,CT,Hartford,41.7918,-72.7188,-1.0
2093,6137.0,W Hartford,Connecticut,CT,Hartford,41.7918,-72.7188,-1.0
2117,6226.0,Willimantic,Connecticut,CT,Windham,41.7149,-72.2134,-1.0
2118,6230.0,Abington,Connecticut,CT,Windham,41.8473,-72.0253,-1.0
2119,6231.0,Amston,Connecticut,CT,Tolland,41.629,-72.3646,-1.0
2120,6232.0,Andover,Connecticut,CT,Tolland,41.7332,-72.3767,-1.0
2121,6233.0,Ballouville,Connecticut,CT,Windham,41.8316,-72.0201,-1.0
2122,6234.0,Brooklyn,Connecticut,CT,Windham,41.7807,-71.9541,-1.0
2123,6235.0,Chaplin,Connecticut,CT,Windham,41.8026,-72.1372,-1.0
2124,6237.0,Columbia,Connecticut,CT,Tolland,41.6973,-72.3072,-1.0
2125,6238.0,Coventry,Connecticut,CT,Tolland,41.7822,-72.3332,-1.0
2126,6239.0,Danielson,Connecticut,CT,Windham,41.7982,-71.8807,-1.0
2127,6241.0,Dayville,Connecticut,CT,Windham,41.854,-71.8683,-1.0
2128,6242.0,Eastford,Connecticut,CT,Windham,41.8771,-72.0895,-1.0
2129,6243.0,East Killingly,Connecticut,CT,Windham,41.8452,-71.8026,-1.0
2130,6244.0,East Woodstock,Connecticut,CT,Windham,41.9843,-71.981,-1.0
2131,6245.0,Fabyan,Connecticut,CT,Windham,42.0198,-71.9417,-1.0
2132,6246.0,Grosvenor Dale,Connecticut,CT,Windham,41.9711,-71.8917,-1.0
2133,6247.0,Hampton,Connecticut,CT,Windham,41.7671,-72.0662,-1.0
2134,6248.0,Hebron,Connecticut,CT,Tolland,41.6842,-72.3986,-1.0
2135,6249.0,Lebanon,Connecticut,CT,New London,41.633,-72.244,-1.0
2136,6250.0,Mansfield Center,Connecticut,CT,Tolland,41.7698,-72.2011,-1.0
2137,6251.0,Mansfield Depot,Connecticut,CT,Tolland,41.7993,-72.3065,-1.0
2138,6254.0,North Franklin,Connecticut,CT,New London,41.6161,-72.1425,-1.0
2139,6255.0,North Grosvenordale,Connecticut,CT,Windham,41.9784,-71.8997,-1.0
2140,6256.0,North Windham,Connecticut,CT,Windham,41.7451,-72.1601,-1.0
2141,6258.0,Pomfret,Connecticut,CT,Windham,41.889,-71.9682,-1.0
2142,6259.0,Pomfret Center,Connecticut,CT,Windham,41.8697,-71.982,-1.0
2144,6262.0,Quinebaug,Connecticut,CT,Windham,42.0217,-71.9391,-1.0
2145,6263.0,Rogers,Connecticut,CT,Windham,41.8391,-71.9063,-1.0
2146,6264.0,Scotland,Connecticut,CT,Windham,41.6958,-72.087,-1.0
2147,6265.0,South Willington,Connecticut,CT,Tolland,41.8115,-72.3088,-1.0
2148,6266.0,South Windham,Connecticut,CT,Windham,41.6677,-72.1681,-1.0
2149,6267.0,South Woodstock,Connecticut,CT,Windham,41.9439,-71.9453,-1.0
2150,6268.0,Storrs Mansfield,Connecticut,CT,Tolland,41.7997,-72.2478,-1.0
2151,6269.0,Storrs Mansfield,Connecticut,CT,Tolland,41.808,-72.251,-1.0
2152,6277.0,Thompson,Connecticut,CT,Windham,41.9803,-71.8376,-1.0
2153,6278.0,Ashford,Connecticut,CT,Windham,41.889,-72.1476,-1.0
2154,6279.0,Willington,Connecticut,CT,Tolland,41.8966,-72.2622,-1.0
2155,6280.0,Windham,Connecticut,CT,Windham,41.7027,-72.1526,-1.0
2156,6281.0,Woodstock,Connecticut,CT,Windham,41.9602,-72.004,-1.0
2157,6282.0,Woodstock Valley,Connecticut,CT,Windham,41.9153,-72.0937,-1.0
2159,6330.0,Baltic,Connecticut,CT,New London,41.6263,-72.0775,-1.0
2160,6331.0,Canterbury,Connecticut,CT,Windham,41.6844,-72.001,-1.0
2161,6332.0,Central Village,Connecticut,CT,Windham,41.7257,-71.909,-1.0
2162,6333.0,East Lyme,Connecticut,CT,New London,41.3668,-72.233,-1.0
2163,6334.0,Bozrah,Connecticut,CT,New London,41.5465,-72.1711,-1.0
2164,6335.0,Gales Ferry,Connecticut,CT,New London,41.4285,-72.0672,-1.0
2165,6336.0,Gilman,Connecticut,CT,New London,41.5795,-72.1963,-1.0
2166,6337.0,Glasgo,Connecticut,CT,New London,41.5599,-71.8892,-1.0
2167,6338.0,Mashantucket,Connecticut,CT,-1,41.4757,-71.9574,-1.0
2168,6339.0,Ledyard,Connecticut,CT,New London,41.4401,-71.9956,-1.0
2169,6340.0,Groton,Connecticut,CT,New London,41.3572,-72.0579,-1.0
2170,6349.0,Groton,Connecticut,CT,New London,41.3997,-72.0904,-1.0
2171,6350.0,Hanover,Connecticut,CT,New London,41.6445,-72.0677,-1.0
2172,6351.0,Jewett City,Connecticut,CT,New London,41.6052,-71.9808,-1.0
2173,6353.0,Montville,Connecticut,CT,New London,41.4525,-72.1375,-1.0
2174,6354.0,Moosup,Connecticut,CT,Windham,41.721,-71.885,-1.0
2175,6355.0,Mystic,Connecticut,CT,New London,41.3616,-71.9774,-1.0
2176,6357.0,Niantic,Connecticut,CT,New London,41.3253,-72.2108,-1.0
2177,6359.0,North Stonington,Connecticut,CT,New London,41.4531,-71.8727,-1.0
2178,6360.0,Norwich,Connecticut,CT,New London,41.5371,-72.0849,-1.0
2179,6365.0,Preston,Connecticut,CT,New London,41.5224,-71.9934,-1.0
2180,6370.0,Oakdale,Connecticut,CT,New London,41.4706,-72.1904,-1.0
2181,6371.0,Old Lyme,Connecticut,CT,New London,41.3347,-72.3086,-1.0
2182,6372.0,Old Mystic,Connecticut,CT,New London,41.3882,-71.9495,-1.0
2183,6373.0,Oneco,Connecticut,CT,Windham,41.6785,-71.8178,-1.0
2185,6375.0,Quaker Hill,Connecticut,CT,New London,41.4032,-72.1172,-1.0
2186,6376.0,South Lyme,Connecticut,CT,New London,41.2967,-72.2633,-1.0
2187,6377.0,Sterling,Connecticut,CT,Windham,41.7156,-71.8196,-1.0
2188,6378.0,Stonington,Connecticut,CT,New London,41.3664,-71.9155,-1.0
2189,6379.0,Pawcatuck,Connecticut,CT,New London,41.3735,-71.8478,-1.0
2190,6380.0,Taftville,Connecticut,CT,New London,41.5653,-72.0529,-1.0
2191,6382.0,Uncasville,Connecticut,CT,New London,41.4622,-72.1126,-1.0
2192,6383.0,Versailles,Connecticut,CT,New London,41.6016,-72.0404,-1.0
2193,6384.0,Voluntown,Connecticut,CT,New London,41.5831,-71.855,-1.0
2194,6385.0,Waterford,Connecticut,CT,New London,41.3469,-72.1458,-1.0
2195,6386.0,Waterford,Connecticut,CT,New London,41.4648,-72.1273,-1.0
2196,6387.0,Wauregan,Connecticut,CT,Windham,41.7445,-71.9133,-1.0
2197,6388.0,West Mystic,Connecticut,CT,New London,41.3441,-71.9765,-1.0
2198,6389.0,Yantic,Connecticut,CT,New London,41.5596,-72.1227,-1.0
2200,6401.0,Ansonia,Connecticut,CT,New Haven,41.3427,-73.0742,-1.0
2201,6403.0,Beacon Falls,Connecticut,CT,New Haven,41.4369,-73.0597,-1.0
2202,6404.0,Botsford,Connecticut,CT,Fairfield,41.1651,-73.1292,-1.0
2204,6408.0,Cheshire,Connecticut,CT,New Haven,41.3657,-72.9275,-1.0
2205,6409.0,Centerbrook,Connecticut,CT,Middlesex,41.3474,-72.4173,-1.0
2206,6410.0,Cheshire,Connecticut,CT,New Haven,41.5055,-72.9081,-1.0
2207,6411.0,Cheshire,Connecticut,CT,New Haven,41.5501,-72.9222,-1.0
2208,6412.0,Chester,Connecticut,CT,Middlesex,41.4049,-72.4643,-1.0
2209,6413.0,Clinton,Connecticut,CT,Middlesex,41.2912,-72.528,-1.0
2210,6414.0,Cobalt,Connecticut,CT,Middlesex,41.5667,-72.5581,-1.0
2211,6415.0,Colchester,Connecticut,CT,New London,41.5662,-72.3441,-1.0
2213,6417.0,Deep River,Connecticut,CT,Middlesex,41.3765,-72.4486,-1.0
2214,6418.0,Derby,Connecticut,CT,New Haven,41.3229,-73.08,-1.0
2215,6419.0,Killingworth,Connecticut,CT,Middlesex,41.3696,-72.5712,-1.0
2216,6420.0,Salem,Connecticut,CT,New London,41.4966,-72.2725,-1.0
2217,6422.0,Durham,Connecticut,CT,Middlesex,41.465,-72.6875,-1.0
2218,6423.0,East Haddam,Connecticut,CT,Middlesex,41.4696,-72.4059,-1.0
2219,6424.0,East Hampton,Connecticut,CT,Middlesex,41.5761,-72.5093,-1.0
2220,6426.0,Essex,Connecticut,CT,Middlesex,41.3549,-72.3965,-1.0
2224,6436.0,Greens Farms,Connecticut,CT,Fairfield,41.3089,-73.3637,-1.0
2225,6437.0,Guilford,Connecticut,CT,New Haven,41.3154,-72.6968,-1.0
2226,6438.0,Haddam,Connecticut,CT,Middlesex,41.4627,-72.505,-1.0
2227,6439.0,Hadlyme,Connecticut,CT,New London,41.4212,-72.4141,-1.0
2228,6440.0,Hawleyville,Connecticut,CT,Fairfield,41.3089,-73.3637,-1.0
2229,6441.0,Higganum,Connecticut,CT,Middlesex,41.4682,-72.5751,-1.0
2230,6442.0,Ivoryton,Connecticut,CT,Middlesex,41.3421,-72.4404,-1.0
2231,6443.0,Madison,Connecticut,CT,New Haven,41.309,-72.6153,-1.0
2232,6444.0,Marion,Connecticut,CT,Hartford,41.7918,-72.7188,-1.0
2233,6447.0,Marlborough,Connecticut,CT,Hartford,41.6412,-72.4609,-1.0
2237,6455.0,Middlefield,Connecticut,CT,Middlesex,41.5168,-72.7186,-1.0
2238,6456.0,Middle Haddam,Connecticut,CT,Middlesex,41.538,-72.5252,-1.0
2244,6467.0,Milldale,Connecticut,CT,Hartford,41.5657,-72.9037,-1.0
2245,6468.0,Monroe,Connecticut,CT,Fairfield,41.3312,-73.2243,-1.0
2246,6469.0,Moodus,Connecticut,CT,Middlesex,41.5078,-72.4419,-1.0
2247,6470.0,Newtown,Connecticut,CT,Fairfield,41.3931,-73.3167,-1.0
2248,6471.0,North Branford,Connecticut,CT,New Haven,41.3323,-72.7809,-1.0
2249,6472.0,Northford,Connecticut,CT,New Haven,41.3962,-72.7809,-1.0
2250,6473.0,North Haven,Connecticut,CT,New Haven,41.3822,-72.8585,-1.0
2251,6474.0,North Westchester,Connecticut,CT,New London,41.4648,-72.1273,-1.0
2252,6475.0,Old Saybrook,Connecticut,CT,Middlesex,41.2913,-72.385,-1.0
2253,6477.0,Orange,Connecticut,CT,New Haven,41.2815,-73.0287,-1.0
2254,6478.0,Oxford,Connecticut,CT,New Haven,41.4202,-73.1296,-1.0
2255,6479.0,Plantsville,Connecticut,CT,Hartford,41.5797,-72.899,-1.0
2256,6480.0,Portland,Connecticut,CT,Middlesex,41.5852,-72.6128,-1.0
2257,6481.0,Rockfall,Connecticut,CT,Middlesex,41.5341,-72.6997,-1.0
2258,6482.0,Sandy Hook,Connecticut,CT,Fairfield,41.4087,-73.2485,-1.0
2259,6483.0,Seymour,Connecticut,CT,New Haven,41.3862,-73.0817,-1.0
2261,6487.0,South Britain,Connecticut,CT,New Haven,41.3657,-72.9275,-1.0
2262,6488.0,Southbury,Connecticut,CT,New Haven,41.4767,-73.2241,-1.0
2263,6489.0,Southington,Connecticut,CT,Hartford,41.6052,-72.8727,-1.0
2264,6490.0,Southport,Connecticut,CT,Fairfield,41.1453,-73.2902,-1.0
2265,6491.0,Stevenson,Connecticut,CT,Fairfield,41.3866,-73.1872,-1.0
2271,6498.0,Westbrook,Connecticut,CT,Middlesex,41.2927,-72.4563,-1.0
2272,6501.0,New Haven,Connecticut,CT,New Haven,41.3657,-72.9275,-1.0
2273,6502.0,New Haven,Connecticut,CT,New Haven,41.3657,-72.9275,-1.0
2274,6503.0,New Haven,Connecticut,CT,New Haven,41.3657,-72.9275,-1.0
2275,6504.0,New Haven,Connecticut,CT,New Haven,41.3657,-72.9275,-1.0
2276,6505.0,New Haven,Connecticut,CT,New Haven,41.3057,-72.7799,-1.0
2277,6506.0,New Haven,Connecticut,CT,New Haven,41.3657,-72.9275,-1.0
2278,6507.0,New Haven,Connecticut,CT,New Haven,41.3657,-72.9275,-1.0
2279,6508.0,New Haven,Connecticut,CT,New Haven,41.3657,-72.9275,-1.0
2280,6509.0,New Haven,Connecticut,CT,New Haven,41.3657,-72.9275,-1.0
2281,6510.0,New Haven,Connecticut,CT,New Haven,41.3087,-72.9271,-1.0
2282,6511.0,New Haven,Connecticut,CT,New Haven,41.3184,-72.9318,-1.0
2283,6512.0,East Haven,Connecticut,CT,New Haven,41.2805,-72.8741,-1.0
2284,6513.0,New Haven,Connecticut,CT,New Haven,41.3072,-72.8654,-1.0
2286,6515.0,New Haven,Connecticut,CT,New Haven,41.3293,-72.9664,-1.0
2290,6519.0,New Haven,Connecticut,CT,New Haven,41.2963,-72.9373,-1.0
2291,6520.0,New Haven,Connecticut,CT,New Haven,41.3657,-72.9275,-1.0
2292,6521.0,New Haven,Connecticut,CT,New Haven,41.3657,-72.9275,-1.0
2293,6524.0,Bethany,Connecticut,CT,New Haven,41.4262,-73.0007,-1.0
2294,6525.0,Woodbridge,Connecticut,CT,New Haven,41.3517,-73.0139,-1.0
2295,6530.0,New Haven,Connecticut,CT,New Haven,41.3657,-72.9275,-1.0
2296,6531.0,New Haven,Connecticut,CT,New Haven,41.3657,-72.9275,-1.0
2297,6532.0,New Haven,Connecticut,CT,New Haven,41.3657,-72.9275,-1.0
2298,6533.0,New Haven,Connecticut,CT,New Haven,41.3657,-72.9275,-1.0
2299,6534.0,New Haven,Connecticut,CT,New Haven,41.3657,-72.9275,-1.0
2300,6535.0,New Haven,Connecticut,CT,New Haven,41.3657,-72.9275,-1.0
2301,6536.0,New Haven,Connecticut,CT,New Haven,41.3657,-72.9275,-1.0
2302,6537.0,New Haven,Connecticut,CT,New Haven,41.3657,-72.9275,-1.0
2303,6538.0,New Haven,Connecticut,CT,New Haven,41.3657,-72.9275,-1.0
2304,6540.0,New Haven,Connecticut,CT,New Haven,41.2996,-72.9188,-1.0
2328,6712.0,Prospect,Connecticut,CT,New Haven,41.5022,-72.9788,-1.0
2338,6750.0,Bantam,Connecticut,CT,Litchfield,41.7215,-73.252,-1.0
2339,6751.0,Bethlehem,Connecticut,CT,Litchfield,41.6387,-73.2091,-1.0
2340,6752.0,Bridgewater,Connecticut,CT,Litchfield,41.5287,-73.3609,-1.0
2341,6753.0,Cornwall,Connecticut,CT,Litchfield,41.8281,-73.3323,-1.0
2342,6754.0,Cornwall Bridge,Connecticut,CT,Litchfield,41.7444,-73.3019,-1.0
2343,6755.0,Gaylordsville,Connecticut,CT,Litchfield,41.6486,-73.4835,-1.0
2344,6756.0,Goshen,Connecticut,CT,Litchfield,41.8335,-73.2429,-1.0
2345,6757.0,Kent,Connecticut,CT,Litchfield,41.7316,-73.4583,-1.0
2346,6758.0,Lakeside,Connecticut,CT,Litchfield,41.6754,-73.242,-1.0
2347,6759.0,Litchfield,Connecticut,CT,Litchfield,41.7541,-73.2,-1.0
2348,6762.0,Middlebury,Connecticut,CT,New Haven,41.5343,-73.1131,-1.0
2349,6763.0,Morris,Connecticut,CT,Litchfield,41.6881,-73.1765,-1.0
2350,6770.0,Naugatuck,Connecticut,CT,New Haven,41.492,-73.0493,-1.0
2352,6777.0,New Preston Marble Dale,Connecticut,CT,Litchfield,41.6903,-73.3103,-1.0
2353,6778.0,Northfield,Connecticut,CT,Litchfield,41.7077,-73.109,-1.0
2354,6779.0,Oakville,Connecticut,CT,Litchfield,41.5909,-73.0873,-1.0
2355,6781.0,Pequabuck,Connecticut,CT,Litchfield,41.6699,-72.9914,-1.0
2356,6782.0,Plymouth,Connecticut,CT,Litchfield,41.6611,-73.0449,-1.0
2357,6783.0,Roxbury,Connecticut,CT,Litchfield,41.5509,-73.2993,-1.0
2358,6784.0,Sherman,Connecticut,CT,Fairfield,41.5714,-73.4947,-1.0
2359,6785.0,South Kent,Connecticut,CT,Litchfield,41.6951,-73.469,-1.0
2360,6786.0,Terryville,Connecticut,CT,Litchfield,41.6762,-73.0092,-1.0
2361,6787.0,Thomaston,Connecticut,CT,Litchfield,41.6786,-73.0886,-1.0
2363,6791.0,Harwinton,Connecticut,CT,Litchfield,41.7701,-73.0728,-1.0
2365,6793.0,Washington,Connecticut,CT,Litchfield,41.6296,-73.2884,-1.0
2366,6794.0,Washington Depot,Connecticut,CT,Litchfield,41.6559,-73.3274,-1.0
2367,6795.0,Watertown,Connecticut,CT,Litchfield,41.6057,-73.1221,-1.0
2368,6796.0,West Cornwall,Connecticut,CT,Litchfield,41.8689,-73.3313,-1.0
2369,6798.0,Woodbury,Connecticut,CT,Litchfield,41.5521,-73.2083,-1.0
2370,6801.0,Bethel,Connecticut,CT,Fairfield,41.3813,-73.4008,-1.0
2371,6804.0,Brookfield,Connecticut,CT,Fairfield,41.465,-73.398,-1.0
2372,6807.0,Cos Cob,Connecticut,CT,Fairfield,41.053,-73.5935,-1.0
2375,6812.0,New Fairfield,Connecticut,CT,Fairfield,41.473,-73.4978,-1.0
2384,6829.0,Georgetown,Connecticut,CT,Fairfield,41.2555,-73.4279,-1.0
2389,6838.0,Greens Farms,Connecticut,CT,-1,41.1238,-73.3195,-1.0
2390,6840.0,New Canaan,Connecticut,CT,Fairfield,41.151,-73.4944,-1.0
2391,6842.0,New Canaan,Connecticut,CT,Fairfield,41.1471,-73.4954,-1.0
2403,6870.0,Old Greenwich,Connecticut,CT,Fairfield,41.0354,-73.5673,-1.0
2404,6875.0,Redding Center,Connecticut,CT,Fairfield,41.3089,-73.3637,-1.0
2405,6876.0,Redding Ridge,Connecticut,CT,Fairfield,41.0326,-73.5836,-1.0
2406,6877.0,Ridgefield,Connecticut,CT,Fairfield,41.2977,-73.4973,-1.0
2407,6878.0,Riverside,Connecticut,CT,Fairfield,41.038,-73.5811,-1.0
2408,6879.0,Ridgefield,Connecticut,CT,Fairfield,41.3089,-73.3637,-1.0
2411,6883.0,Weston,Connecticut,CT,Fairfield,41.2195,-73.3715,-1.0
2414,6890.0,Southport,Connecticut,CT,Fairfield,41.1428,-73.2884,-1.0
2415,6896.0,Redding,Connecticut,CT,Fairfield,41.2711,-73.3863,-1.0
11142,27006.0,Advance,North Carolina,NC,Davie,36.0065,-80.4463,-1.0
11143,27007.0,Ararat,North Carolina,NC,Surry,36.3859,-80.5895,-1.0
11144,27008.0,Barber,North Carolina,NC,-1,35.726,-80.6418,-1.0
11145,27009.0,Belews Creek,North Carolina,NC,Forsyth,36.2269,-80.093,-1.0
11146,27010.0,Bethania,North Carolina,NC,Forsyth,36.183,-80.3387,-1.0
11147,27011.0,Boonville,North Carolina,NC,Yadkin,36.234,-80.6357,-1.0
11148,27012.0,Clemmons,North Carolina,NC,Forsyth,36.0341,-80.3962,-1.0
11149,27013.0,Cleveland,North Carolina,NC,Rowan,35.7374,-80.7113,-1.0
11150,27014.0,Cooleemee,North Carolina,NC,Davie,35.8192,-80.5483,-1.0
11151,27016.0,Danbury,North Carolina,NC,Stokes,36.4559,-80.2194,-1.0
11152,27017.0,Dobson,North Carolina,NC,Surry,36.3698,-80.7101,-1.0
11153,27018.0,East Bend,North Carolina,NC,Yadkin,36.2032,-80.5284,-1.0
11154,27019.0,Germanton,North Carolina,NC,Stokes,36.2725,-80.2254,-1.0
11155,27020.0,Hamptonville,North Carolina,NC,Yadkin,36.1242,-80.8137,-1.0
11156,27021.0,King,North Carolina,NC,Stokes,36.295,-80.356,-1.0
11157,27022.0,Lawsonville,North Carolina,NC,Stokes,36.5132,-80.2103,-1.0
11158,27023.0,Lewisville,North Carolina,NC,Forsyth,36.0967,-80.4206,-1.0
11159,27024.0,Lowgap,North Carolina,NC,Surry,36.503,-80.7889,-1.0
11160,27025.0,Madison,North Carolina,NC,Rockingham,36.3695,-79.9654,-1.0
11161,27027.0,Mayodan,North Carolina,NC,Rockingham,36.4277,-79.9567,-1.0
11162,27028.0,Mocksville,North Carolina,NC,Davie,35.922,-80.537,-1.0
11163,27030.0,Mount Airy,North Carolina,NC,Surry,36.5007,-80.6119,-1.0
11164,27031.0,White Plains,North Carolina,NC,Surry,36.3994,-80.7081,-1.0
11165,27040.0,Pfafftown,North Carolina,NC,Forsyth,36.1669,-80.3798,-1.0
11167,27042.0,Pine Hall,North Carolina,NC,Stokes,36.3482,-80.0495,-1.0
11168,27043.0,Pinnacle,North Carolina,NC,Stokes,36.3339,-80.4391,-1.0
11169,27045.0,Rural Hall,North Carolina,NC,Forsyth,36.2293,-80.2936,-1.0
11170,27046.0,Sandy Ridge,North Carolina,NC,Stokes,36.49,-80.0859,-1.0
11171,27047.0,Siloam,North Carolina,NC,Surry,36.3002,-80.5772,-1.0
11172,27048.0,Stoneville,North Carolina,NC,Rockingham,36.4705,-79.9013,-1.0
11173,27049.0,Toast,North Carolina,NC,Surry,36.5513,-80.6558,-1.0
11174,27050.0,Tobaccoville,North Carolina,NC,Forsyth,36.2336,-80.3915,-1.0
11175,27051.0,Walkertown,North Carolina,NC,Forsyth,36.18,-80.1629,-1.0
11176,27052.0,Walnut Cove,North Carolina,NC,Stokes,36.3189,-80.1484,-1.0
11177,27053.0,Westfield,North Carolina,NC,Surry,36.4674,-80.3677,-1.0
11178,27054.0,Woodleaf,North Carolina,NC,Rowan,35.7901,-80.6051,-1.0
11179,27055.0,Yadkinville,North Carolina,NC,Yadkin,36.1277,-80.653,-1.0
11180,27094.0,Rural Hall,North Carolina,NC,Forsyth,36.0275,-80.2073,-1.0
11181,27098.0,Rural Hall,North Carolina,NC,Forsyth,36.0275,-80.2073,-1.0
11182,27099.0,Rural Hall,North Carolina,NC,Forsyth,36.0275,-80.2073,-1.0
11210,27201.0,Alamance,North Carolina,NC,Alamance,36.0318,-79.4856,-1.0
11211,27202.0,Altamahaw,North Carolina,NC,Alamance,36.1855,-79.5055,-1.0
11215,27207.0,Bear Creek,North Carolina,NC,Chatham,35.6129,-79.3726,-1.0
11216,27208.0,Bennett,North Carolina,NC,Chatham,35.5673,-79.5225,-1.0
11218,27212.0,Blanch,North Carolina,NC,Caswell,36.4664,-79.2755,-1.0
11219,27213.0,Bonlee,North Carolina,NC,Chatham,35.6482,-79.4149,-1.0
11220,27214.0,Browns Summit,North Carolina,NC,Guilford,36.2019,-79.7101,-1.0
11225,27228.0,Bynum,North Carolina,NC,Chatham,35.7835,-79.1298,-1.0
11226,27229.0,Candor,North Carolina,NC,Montgomery,35.2234,-79.7876,-1.0
11227,27230.0,Cedar Falls,North Carolina,NC,Randolph,35.8028,-79.8797,-1.0
11228,27231.0,Cedar Grove,North Carolina,NC,Orange,36.202,-79.1666,-1.0
11229,27233.0,Climax,North Carolina,NC,Guilford,35.9345,-79.7019,-1.0
11230,27235.0,Colfax,North Carolina,NC,Guilford,36.1003,-80.0103,-1.0
11231,27237.0,Cumnock,North Carolina,NC,Lee,35.4676,-79.1653,-1.0
11232,27239.0,Denton,North Carolina,NC,Davidson,35.6196,-80.0959,-1.0
11233,27242.0,Eagle Springs,North Carolina,NC,Moore,35.336,-79.631,-1.0
11234,27243.0,Efland,North Carolina,NC,Orange,36.0912,-79.1884,-1.0
11235,27244.0,Elon College,North Carolina,NC,Alamance,36.1466,-79.5023,-1.0
11236,27247.0,Ether,North Carolina,NC,Montgomery,35.4514,-79.7834,-1.0
11237,27248.0,Franklinville,North Carolina,NC,Randolph,35.7917,-79.7132,-1.0
11238,27249.0,Gibsonville,North Carolina,NC,Guilford,36.1183,-79.5685,-1.0
11239,27251.0,Glendon,North Carolina,NC,-1,35.4821,-79.4171,-1.0
11240,27252.0,Goldston,North Carolina,NC,Chatham,35.5643,-79.3385,-1.0
11242,27256.0,Gulf,North Carolina,NC,Chatham,35.5627,-79.3386,-1.0
11243,27258.0,Haw River,North Carolina,NC,Alamance,36.0424,-79.3242,-1.0
11244,27259.0,Highfalls,North Carolina,NC,Moore,35.4921,-79.479,-1.0
11252,27281.0,Jackson Springs,North Carolina,NC,Moore,35.2259,-79.6685,-1.0
11253,27282.0,Jamestown,North Carolina,NC,Guilford,35.999,-79.9293,-1.0
11254,27283.0,Julian,North Carolina,NC,Guilford,35.9543,-79.6386,-1.0
11255,27284.0,Kernersville,North Carolina,NC,Forsyth,36.1165,-80.0831,-1.0
11256,27285.0,Kernersville,North Carolina,NC,Forsyth,36.0275,-80.2073,-1.0
11257,27288.0,Eden,North Carolina,NC,Rockingham,36.5,-79.759,-1.0
11258,27289.0,Eden,North Carolina,NC,Rockingham,36.3921,-79.7731,-1.0
11259,27291.0,Leasburg,North Carolina,NC,Caswell,36.4151,-79.1942,-1.0
11264,27298.0,Liberty,North Carolina,NC,Randolph,35.8729,-79.5821,-1.0
11265,27299.0,Linwood,North Carolina,NC,Davidson,35.7562,-80.3749,-1.0
11266,27301.0,Mc Leansville,North Carolina,NC,Guilford,36.1163,-79.6684,-1.0
11267,27302.0,Mebane,North Carolina,NC,Alamance,36.0979,-79.2719,-1.0
11268,27305.0,Milton,North Carolina,NC,Caswell,36.5158,-79.2087,-1.0
11269,27306.0,Mount Gilead,North Carolina,NC,Montgomery,35.2274,-79.9871,-1.0
11270,27310.0,Oak Ridge,North Carolina,NC,Guilford,36.1673,-79.9804,-1.0
11271,27311.0,Pelham,North Carolina,NC,Caswell,36.4899,-79.4736,-1.0
11273,27313.0,Pleasant Garden,North Carolina,NC,Guilford,35.9522,-79.7549,-1.0
11274,27314.0,Prospect Hill,North Carolina,NC,Caswell,36.2932,-79.2156,-1.0
11275,27315.0,Providence,North Carolina,NC,Caswell,36.4873,-79.4041,-1.0
11276,27316.0,Ramseur,North Carolina,NC,Randolph,35.7143,-79.6469,-1.0
11278,27320.0,Reidsville,North Carolina,NC,Rockingham,36.3432,-79.6642,-1.0
11279,27321.0,Reidsville,North Carolina,NC,Rockingham,36.3476,-79.6803,-1.0
11280,27322.0,Reidsville,North Carolina,NC,Rockingham,36.3921,-79.7731,-1.0
11281,27323.0,Reidsville,North Carolina,NC,Rockingham,36.3921,-79.7731,-1.0
11282,27325.0,Robbins,North Carolina,NC,Moore,35.4528,-79.582,-1.0
11283,27326.0,Ruffin,North Carolina,NC,Rockingham,36.4428,-79.5606,-1.0
11284,27330.0,Sanford,North Carolina,NC,Lee,35.4698,-79.1717,-1.0
11285,27331.0,Sanford,North Carolina,NC,Lee,35.3726,-79.2766,-1.0
11286,27332.0,Sanford,North Carolina,NC,Lee,35.4469,-79.138,-1.0
11287,27340.0,Saxapahaw,North Carolina,NC,Alamance,35.9488,-79.3297,-1.0
11288,27341.0,Seagrove,North Carolina,NC,Randolph,35.5283,-79.6979,-1.0
11289,27342.0,Sedalia,North Carolina,NC,Guilford,36.0756,-79.6206,-1.0
11290,27343.0,Semora,North Carolina,NC,Person,36.5114,-79.0942,-1.0
11292,27349.0,Snow Camp,North Carolina,NC,Alamance,35.9066,-79.4279,-1.0
11293,27350.0,Sophia,North Carolina,NC,Randolph,35.8298,-79.8986,-1.0
11294,27351.0,Southmont,North Carolina,NC,Davidson,35.6605,-80.2836,-1.0
11295,27355.0,Staley,North Carolina,NC,Randolph,35.8015,-79.5844,-1.0
11296,27356.0,Star,North Carolina,NC,Montgomery,35.4211,-79.7826,-1.0
11297,27357.0,Stokesdale,North Carolina,NC,Guilford,36.2552,-79.9705,-1.0
11298,27358.0,Summerfield,North Carolina,NC,Guilford,36.2245,-79.8901,-1.0
11299,27359.0,Swepsonville,North Carolina,NC,Alamance,36.0214,-79.3574,-1.0
11300,27360.0,Thomasville,North Carolina,NC,Davidson,35.8713,-80.0913,-1.0
11301,27361.0,Thomasville,North Carolina,NC,Davidson,35.8829,-80.276,-1.0
11302,27370.0,Trinity,North Carolina,NC,Randolph,35.8429,-79.9902,-1.0
11303,27371.0,Troy,North Carolina,NC,Montgomery,35.3777,-79.9093,-1.0
11304,27373.0,Wallburg,North Carolina,NC,Davidson,35.8829,-80.276,-1.0
11305,27374.0,Welcome,North Carolina,NC,Davidson,35.7818,-80.2035,-1.0
11306,27375.0,Wentworth,North Carolina,NC,Rockingham,36.3921,-79.7731,-1.0
11307,27376.0,West End,North Carolina,NC,Moore,35.2512,-79.536,-1.0
11308,27377.0,Whitsett,North Carolina,NC,Guilford,36.033,-79.5972,-1.0
11309,27379.0,Yanceyville,North Carolina,NC,Caswell,36.3907,-79.3465,-1.0
11340,27501.0,Angier,North Carolina,NC,Harnett,35.4897,-78.7249,-1.0
11341,27502.0,Apex,North Carolina,NC,Wake,35.7225,-78.8408,-1.0
11342,27503.0,Bahama,North Carolina,NC,Durham,36.1566,-78.8903,-1.0
11343,27504.0,Benson,North Carolina,NC,Johnston,35.4037,-78.5421,-1.0
11344,27505.0,Broadway,North Carolina,NC,Lee,35.4181,-79.0435,-1.0
11345,27506.0,Buies Creek,North Carolina,NC,Harnett,35.4205,-78.7137,-1.0
11346,27507.0,Bullock,North Carolina,NC,Granville,36.5076,-78.5646,-1.0
11347,27508.0,Bunn,North Carolina,NC,Franklin,35.9577,-78.2498,-1.0
11348,27509.0,Butner,North Carolina,NC,Granville,36.1359,-78.7636,-1.0
11349,27510.0,Carrboro,North Carolina,NC,Orange,35.9055,-79.0901,-1.0
11359,27520.0,Clayton,North Carolina,NC,Johnston,35.6348,-78.451,-1.0
11360,27521.0,Coats,North Carolina,NC,Harnett,35.4082,-78.6627,-1.0
11362,27523.0,Eagle Rock,North Carolina,NC,Wake,35.7725,-78.9604,-1.0
11364,27525.0,Franklinton,North Carolina,NC,Franklin,36.0955,-78.4486,-1.0
11365,27526.0,Fuquay Varina,North Carolina,NC,Wake,35.58,-78.7908,-1.0
11366,27527.0,Clayton,North Carolina,NC,Johnston,35.6577,-78.3837,-1.0
11367,27528.0,Clayton,North Carolina,NC,-1,35.6555,-78.4611,-1.0
11368,27529.0,Garner,North Carolina,NC,Wake,35.6813,-78.5975,-1.0
11374,27536.0,Henderson,North Carolina,NC,Vance,36.3301,-78.3981,-1.0
11375,27537.0,Henderson,North Carolina,NC,Vance,36.36,-78.3906,-1.0
11376,27539.0,Apex,North Carolina,NC,Wake,35.7127,-78.821,-1.0
11378,27541.0,Hurdle Mills,North Carolina,NC,Person,36.2518,-79.0827,-1.0
11380,27543.0,Kipling,North Carolina,NC,Harnett,35.4298,-78.8824,-1.0
11381,27544.0,Kittrell,North Carolina,NC,Vance,36.2042,-78.4241,-1.0
11382,27545.0,Knightdale,North Carolina,NC,Wake,35.7789,-78.4898,-1.0
11383,27546.0,Lillington,North Carolina,NC,Harnett,35.332,-78.9212,-1.0
11384,27549.0,Louisburg,North Carolina,NC,Franklin,36.0578,-78.2586,-1.0
11385,27551.0,Macon,North Carolina,NC,Warren,36.507,-77.9975,-1.0
11386,27552.0,Mamers,North Carolina,NC,Harnett,35.4136,-78.98,-1.0
11387,27553.0,Manson,North Carolina,NC,Vance,36.4603,-78.2952,-1.0
11388,27555.0,Micro,North Carolina,NC,Johnston,35.6295,-78.205,-1.0
11389,27556.0,Middleburg,North Carolina,NC,Vance,36.4135,-78.3275,-1.0
11390,27557.0,Middlesex,North Carolina,NC,Johnston,35.7665,-78.2062,-1.0
11391,27559.0,Moncure,North Carolina,NC,Chatham,35.6306,-79.0839,-1.0
11393,27562.0,New Hill,North Carolina,NC,Wake,35.6809,-78.9365,-1.0
11394,27563.0,Norlina,North Carolina,NC,Warren,36.4754,-78.1895,-1.0
11396,27565.0,Oxford,North Carolina,NC,Granville,36.3313,-78.6134,-1.0
11397,27568.0,Pine Level,North Carolina,NC,Johnston,35.4883,-78.2179,-1.0
11398,27569.0,Princeton,North Carolina,NC,Johnston,35.4558,-78.1674,-1.0
11399,27570.0,Ridgeway,North Carolina,NC,Warren,36.3737,-78.1109,-1.0
11400,27571.0,Rolesville,North Carolina,NC,Wake,35.9156,-78.4658,-1.0
11401,27572.0,Rougemont,North Carolina,NC,Durham,36.2393,-78.9019,-1.0
11402,27573.0,Roxboro,North Carolina,NC,Person,36.4059,-78.9737,-1.0
11403,27574.0,Roxboro,North Carolina,NC,Person,36.3942,-78.9863,-1.0
11404,27576.0,Selma,North Carolina,NC,Johnston,35.5565,-78.264,-1.0
11405,27577.0,Smithfield,North Carolina,NC,Johnston,35.5068,-78.3479,-1.0
11406,27581.0,Stem,North Carolina,NC,Granville,36.21,-78.7001,-1.0
11407,27582.0,Stovall,North Carolina,NC,Granville,36.4424,-78.5571,-1.0
11408,27583.0,Timberlake,North Carolina,NC,Person,36.2918,-78.9353,-1.0
11409,27584.0,Townsville,North Carolina,NC,Vance,36.5181,-78.4009,-1.0
11410,27586.0,Vaughan,North Carolina,NC,Warren,36.3737,-78.1109,-1.0
11414,27591.0,Wendell,North Carolina,NC,Wake,35.798,-78.3926,-1.0
11415,27592.0,Willow Spring,North Carolina,NC,Wake,35.547,-78.6717,-1.0
11416,27593.0,Wilsons Mills,North Carolina,NC,Johnston,35.5907,-78.3607,-1.0
11417,27594.0,Wise,North Carolina,NC,Warren,36.3737,-78.1109,-1.0
11418,27596.0,Youngsville,North Carolina,NC,Franklin,36.0078,-78.4412,-1.0
11419,27597.0,Zebulon,North Carolina,NC,Wake,35.8321,-78.3174,-1.0
11485,27805.0,Aulander,North Carolina,NC,Bertie,36.1475,-77.1141,-1.0
11486,27806.0,Aurora,North Carolina,NC,Beaufort,35.3023,-76.7994,-1.0
11487,27807.0,Bailey,North Carolina,NC,Nash,35.8072,-78.0892,-1.0
11488,27808.0,Bath,North Carolina,NC,Beaufort,35.4702,-76.7715,-1.0
11489,27809.0,Battleboro,North Carolina,NC,Edgecombe,36.0067,-77.7074,-1.0
11490,27810.0,Belhaven,North Carolina,NC,Beaufort,35.4458,-76.6391,-1.0
11491,27811.0,Bellarthur,North Carolina,NC,Pitt,35.5847,-77.5134,-1.0
11492,27812.0,Bethel,North Carolina,NC,Pitt,35.7909,-77.3748,-1.0
11493,27813.0,Black Creek,North Carolina,NC,Wilson,35.6165,-77.9352,-1.0
11494,27814.0,Blounts Creek,North Carolina,NC,Beaufort,35.382,-76.925,-1.0
11496,27816.0,Castalia,North Carolina,NC,Nash,36.0901,-78.0705,-1.0
11497,27817.0,Chocowinity,North Carolina,NC,Beaufort,35.4814,-77.0868,-1.0
11498,27818.0,Como,North Carolina,NC,Hertford,36.4978,-77.0515,-1.0
11499,27819.0,Conetoe,North Carolina,NC,Edgecombe,35.8178,-77.4533,-1.0
11500,27820.0,Conway,North Carolina,NC,Northampton,36.4164,-77.2502,-1.0
11501,27821.0,Edward,North Carolina,NC,Beaufort,35.3236,-76.8794,-1.0
11502,27822.0,Elm City,North Carolina,NC,Wilson,35.811,-77.856,-1.0
11503,27823.0,Enfield,North Carolina,NC,Halifax,36.1973,-77.7129,-1.0
11504,27824.0,Engelhard,North Carolina,NC,Hyde,35.5149,-76.0303,-1.0
11505,27825.0,Everetts,North Carolina,NC,Martin,35.8667,-77.085,-1.0
11506,27826.0,Fairfield,North Carolina,NC,Hyde,35.5659,-76.2318,-1.0
11507,27827.0,Falkland,North Carolina,NC,Pitt,35.6966,-77.5132,-1.0
11508,27828.0,Farmville,North Carolina,NC,Pitt,35.5806,-77.5793,-1.0
11509,27829.0,Fountain,North Carolina,NC,Pitt,35.6694,-77.6214,-1.0
11510,27830.0,Fremont,North Carolina,NC,Wayne,35.5553,-77.958,-1.0
11511,27831.0,Garysburg,North Carolina,NC,Northampton,36.4761,-77.5719,-1.0
11512,27832.0,Gaston,North Carolina,NC,Northampton,36.5115,-77.6824,-1.0
11517,27837.0,Grimesland,North Carolina,NC,Pitt,35.558,-77.2566,-1.0
11518,27838.0,Gumberry,North Carolina,NC,Northampton,36.3561,-77.4831,-1.0
11520,27840.0,Hamilton,North Carolina,NC,Martin,35.9632,-77.2236,-1.0
11521,27841.0,Hassell,North Carolina,NC,Martin,35.9086,-77.2763,-1.0
11522,27842.0,Henrico,North Carolina,NC,Northampton,36.5274,-77.8546,-1.0
11523,27843.0,Hobgood,North Carolina,NC,Halifax,36.0594,-77.4061,-1.0
11524,27844.0,Hollister,North Carolina,NC,Halifax,36.259,-77.9319,-1.0
11525,27845.0,Jackson,North Carolina,NC,Northampton,36.387,-77.4681,-1.0
11526,27846.0,Jamesville,North Carolina,NC,Martin,35.7838,-76.8983,-1.0
11527,27847.0,Kelford,North Carolina,NC,Bertie,36.1871,-77.1898,-1.0
11528,27848.0,Lasker,North Carolina,NC,-1,36.3739,-77.3471,-1.0
11529,27849.0,Lewiston Woodville,North Carolina,NC,Bertie,36.0933,-77.1439,-1.0
11530,27850.0,Littleton,North Carolina,NC,Halifax,36.4169,-77.8528,-1.0
11531,27851.0,Lucama,North Carolina,NC,Wilson,35.6415,-78.0197,-1.0
11532,27852.0,Macclesfield,North Carolina,NC,Edgecombe,35.751,-77.6706,-1.0
11533,27853.0,Margarettsville,North Carolina,NC,Northampton,36.5245,-77.326,-1.0
11534,27854.0,Milwaukee,North Carolina,NC,Northampton,36.3631,-77.3867,-1.0
11535,27855.0,Murfreesboro,North Carolina,NC,Hertford,36.4319,-77.1027,-1.0
11536,27856.0,Nashville,North Carolina,NC,Nash,35.9843,-77.9595,-1.0
11537,27857.0,Oak City,North Carolina,NC,Martin,35.9597,-77.3004,-1.0
11539,27859.0,Palmyra,North Carolina,NC,Halifax,36.0649,-77.3645,-1.0
11540,27860.0,Pantego,North Carolina,NC,Beaufort,35.6201,-76.6988,-1.0
11541,27861.0,Parmele,North Carolina,NC,Martin,35.819,-77.3143,-1.0
11542,27862.0,Pendleton,North Carolina,NC,Northampton,36.4937,-77.1911,-1.0
11543,27863.0,Pikeville,North Carolina,NC,Wayne,35.4929,-77.9578,-1.0
11544,27864.0,Pinetops,North Carolina,NC,Edgecombe,35.8196,-77.692,-1.0
11545,27865.0,Pinetown,North Carolina,NC,Beaufort,35.5758,-76.8076,-1.0
11546,27866.0,Pleasant Hill,North Carolina,NC,Northampton,36.5212,-77.5192,-1.0
11547,27867.0,Potecasi,North Carolina,NC,Northampton,36.3561,-77.4831,-1.0
11548,27868.0,Red Oak,North Carolina,NC,Nash,36.0548,-77.9116,-1.0
11549,27869.0,Rich Square,North Carolina,NC,Northampton,36.2773,-77.2969,-1.0
11550,27870.0,Roanoke Rapids,North Carolina,NC,Halifax,36.4461,-77.6731,-1.0
11551,27871.0,Robersonville,North Carolina,NC,Martin,35.8218,-77.26,-1.0
11552,27872.0,Roxobel,North Carolina,NC,Bertie,36.195,-77.2602,-1.0
11553,27873.0,Saratoga,North Carolina,NC,Wilson,35.6495,-77.7918,-1.0
11554,27874.0,Scotland Neck,North Carolina,NC,Halifax,36.1301,-77.4273,-1.0
11555,27875.0,Scranton,North Carolina,NC,Hyde,35.4717,-76.4951,-1.0
11556,27876.0,Seaboard,North Carolina,NC,Northampton,36.4886,-77.4113,-1.0
11557,27877.0,Severn,North Carolina,NC,Northampton,36.3561,-77.4831,-1.0
11558,27878.0,Sharpsburg,North Carolina,NC,Nash,35.8654,-77.8389,-1.0
11559,27879.0,Simpson,North Carolina,NC,Pitt,35.5675,-77.2802,-1.0
11560,27880.0,Sims,North Carolina,NC,Wilson,35.7435,-78.0859,-1.0
11561,27881.0,Speed,North Carolina,NC,Edgecombe,35.9159,-77.5855,-1.0
11562,27882.0,Spring Hope,North Carolina,NC,Nash,35.9302,-78.1085,-1.0
11563,27883.0,Stantonsburg,North Carolina,NC,Wilson,35.594,-77.8378,-1.0
11564,27884.0,Stokes,North Carolina,NC,Pitt,35.7104,-77.2722,-1.0
11565,27885.0,Swanquarter,North Carolina,NC,Hyde,35.4222,-76.2875,-1.0
11567,27887.0,Tillery,North Carolina,NC,Halifax,36.2352,-77.5026,-1.0
11568,27888.0,Walstonburg,North Carolina,NC,Greene,35.5882,-77.6983,-1.0
11570,27890.0,Weldon,North Carolina,NC,Halifax,36.4206,-77.6035,-1.0
11571,27891.0,Whitakers,North Carolina,NC,Nash,36.0758,-77.7167,-1.0
11572,27892.0,Williamston,North Carolina,NC,Martin,35.8212,-77.1022,-1.0
11577,27897.0,Woodland,North Carolina,NC,Northampton,36.325,-77.2107,-1.0
11578,27906.0,Elizabeth City,North Carolina,NC,Pasquotank,36.2854,-76.2133,-1.0
11579,27907.0,Elizabeth City,North Carolina,NC,Pasquotank,36.285,-76.2553,-1.0
11580,27909.0,Elizabeth City,North Carolina,NC,Pasquotank,36.2951,-76.2445,-1.0
11581,27910.0,Ahoskie,North Carolina,NC,Hertford,36.2957,-76.9966,-1.0
11582,27915.0,Avon,North Carolina,NC,Dare,35.7765,-75.6358,-1.0
11583,27916.0,Aydlett,North Carolina,NC,Currituck,36.3045,-75.9029,-1.0
11584,27917.0,Barco,North Carolina,NC,Currituck,36.3588,-75.9793,-1.0
11585,27919.0,Belvidere,North Carolina,NC,Perquimans,36.3096,-76.5436,-1.0
11586,27920.0,Buxton,North Carolina,NC,Dare,35.2525,-75.5722,-1.0
11588,27922.0,Cofield,North Carolina,NC,Hertford,36.3333,-76.8746,-1.0
11589,27923.0,Coinjock,North Carolina,NC,Currituck,36.3751,-75.934,-1.0
11590,27924.0,Colerain,North Carolina,NC,Bertie,36.1901,-76.8548,-1.0
11591,27925.0,Columbia,North Carolina,NC,Tyrrell,35.9057,-76.2345,-1.0
11592,27926.0,Corapeake,North Carolina,NC,Gates,36.5179,-76.5979,-1.0
11593,27927.0,Corolla,North Carolina,NC,Currituck,36.3206,-75.8132,-1.0
11594,27928.0,Creswell,North Carolina,NC,Washington,35.8653,-76.4196,-1.0
11596,27930.0,Durants Neck,North Carolina,NC,Perquimans,36.1985,-76.3739,-1.0
11598,27935.0,Eure,North Carolina,NC,Gates,36.4341,-76.8463,-1.0
11599,27936.0,Frisco,North Carolina,NC,Dare,35.2338,-75.6145,-1.0
11600,27937.0,Gates,North Carolina,NC,Gates,36.5036,-76.7646,-1.0
11601,27938.0,Gatesville,North Carolina,NC,Gates,36.4072,-76.7325,-1.0
11602,27939.0,Grandy,North Carolina,NC,Currituck,36.2339,-75.8768,-1.0
11603,27941.0,Harbinger,North Carolina,NC,Currituck,36.1025,-75.8169,-1.0
11604,27942.0,Harrellsville,North Carolina,NC,Hertford,36.2866,-76.7767,-1.0
11605,27943.0,Hatteras,North Carolina,NC,Dare,35.6928,-75.7138,-1.0
11606,27944.0,Hertford,North Carolina,NC,Perquimans,36.1685,-76.3731,-1.0
11607,27946.0,Hobbsville,North Carolina,NC,Gates,36.3543,-76.6178,-1.0
11608,27947.0,Jarvisburg,North Carolina,NC,Currituck,36.1714,-75.8621,-1.0
11609,27948.0,Kill Devil Hills,North Carolina,NC,Dare,36.0088,-75.6757,-1.0
11610,27949.0,Kitty Hawk,North Carolina,NC,Dare,36.0837,-75.6966,-1.0
11611,27950.0,Knotts Island,North Carolina,NC,Currituck,36.5232,-75.9702,-1.0
11612,27953.0,Manns Harbor,North Carolina,NC,Dare,35.8238,-75.8467,-1.0
11613,27954.0,Manteo,North Carolina,NC,Dare,35.8948,-75.6714,-1.0
11614,27956.0,Maple,North Carolina,NC,Currituck,36.3987,-76.0039,-1.0
11615,27957.0,Merry Hill,North Carolina,NC,Bertie,36.0871,-76.7776,-1.0
11616,27958.0,Moyock,North Carolina,NC,Currituck,36.4871,-76.1146,-1.0
11617,27959.0,Nags Head,North Carolina,NC,Dare,35.8865,-75.6038,-1.0
11618,27960.0,Ocracoke,North Carolina,NC,Hyde,35.1397,-75.8931,-1.0
11620,27964.0,Point Harbor,North Carolina,NC,Currituck,36.0781,-75.7983,-1.0
11621,27965.0,Poplar Branch,North Carolina,NC,Currituck,36.2737,-75.9097,-1.0
11622,27966.0,Powells Point,North Carolina,NC,Currituck,36.1207,-75.8273,-1.0
11623,27967.0,Powellsville,North Carolina,NC,Bertie,36.1647,-76.9672,-1.0
11624,27968.0,Rodanthe,North Carolina,NC,Dare,35.6928,-75.7138,-1.0
11625,27969.0,Roduco,North Carolina,NC,Gates,36.4242,-76.7021,-1.0
11626,27970.0,Roper,North Carolina,NC,Washington,35.8994,-76.5809,-1.0
11627,27972.0,Salvo,North Carolina,NC,Dare,35.5546,-75.4693,-1.0
11628,27973.0,Shawboro,North Carolina,NC,Currituck,36.3779,-76.0945,-1.0
11629,27974.0,Shiloh,North Carolina,NC,Camden,36.2584,-76.0432,-1.0
11630,27976.0,South Mills,North Carolina,NC,Camden,36.4536,-76.3033,-1.0
11631,27978.0,Stumpy Point,North Carolina,NC,Dare,35.6985,-75.7728,-1.0
11632,27979.0,Sunbury,North Carolina,NC,Gates,36.4316,-76.6096,-1.0
11633,27980.0,Tyner,North Carolina,NC,Chowan,36.2502,-76.6428,-1.0
11634,27981.0,Wanchese,North Carolina,NC,Dare,35.8622,-75.6437,-1.0
11635,27982.0,Waves,North Carolina,NC,Dare,35.565,-75.4663,-1.0
11637,27985.0,Winfall,North Carolina,NC,Perquimans,36.2193,-76.4667,-1.0
11641,28006.0,Alexis,North Carolina,NC,Gaston,35.4069,-81.0947,-1.0
11642,28007.0,Ansonville,North Carolina,NC,Anson,35.0219,-80.0852,-1.0
11643,28009.0,Badin,North Carolina,NC,Stanly,35.4157,-80.1594,-1.0
11644,28010.0,Barium Springs,North Carolina,NC,Iredell,35.7192,-80.8991,-1.0
11645,28012.0,Belmont,North Carolina,NC,Gaston,35.244,-81.044,-1.0
11646,28016.0,Bessemer City,North Carolina,NC,Gaston,35.2849,-81.2864,-1.0
11647,28017.0,Boiling Springs,North Carolina,NC,Cleveland,35.2549,-81.6914,-1.0
11648,28018.0,Bostic,North Carolina,NC,Rutherford,35.4533,-81.8118,-1.0
11649,28019.0,Caroleen,North Carolina,NC,Rutherford,35.3168,-81.8319,-1.0
11650,28020.0,Casar,North Carolina,NC,Cleveland,35.5145,-81.6357,-1.0
11651,28021.0,Cherryville,North Carolina,NC,Gaston,35.3747,-81.3509,-1.0
11652,28023.0,China Grove,North Carolina,NC,Rowan,35.5669,-80.59,-1.0
11653,28024.0,Cliffside,North Carolina,NC,Rutherford,35.2416,-81.7755,-1.0
11659,28033.0,Crouse,North Carolina,NC,Lincoln,35.4359,-81.3385,-1.0
11660,28034.0,Dallas,North Carolina,NC,Gaston,35.3349,-81.1862,-1.0
11661,28035.0,Davidson,North Carolina,NC,-1,35.4993,-80.8486,-1.0
11662,28036.0,Davidson,North Carolina,NC,Mecklenburg,35.4858,-80.794,-1.0
11663,28037.0,Denver,North Carolina,NC,Lincoln,35.4837,-80.9898,-1.0
11664,28038.0,Earl,North Carolina,NC,Cleveland,35.197,-81.5386,-1.0
11665,28039.0,East Spencer,North Carolina,NC,Rowan,35.6805,-80.4354,-1.0
11666,28040.0,Ellenboro,North Carolina,NC,Rutherford,35.3344,-81.7707,-1.0
11667,28041.0,Faith,North Carolina,NC,Rowan,35.5817,-80.4581,-1.0
11668,28042.0,Fallston,North Carolina,NC,Cleveland,35.3739,-81.5437,-1.0
11677,28071.0,Gold Hill,North Carolina,NC,Rowan,35.5498,-80.3346,-1.0
11678,28072.0,Granite Quarry,North Carolina,NC,Rowan,35.6109,-80.4361,-1.0
11679,28073.0,Grover,North Carolina,NC,Cleveland,35.1836,-81.4552,-1.0
11680,28074.0,Harris,North Carolina,NC,Rutherford,35.2247,-81.8851,-1.0
11681,28075.0,Harrisburg,North Carolina,NC,Cabarrus,35.3247,-80.6594,-1.0
11682,28076.0,Henrietta,North Carolina,NC,Rutherford,35.2266,-81.795,-1.0
11683,28077.0,High Shoals,North Carolina,NC,Gaston,35.4041,-81.2029,-1.0
11685,28079.0,Indian Trail,North Carolina,NC,Union,35.0831,-80.6597,-1.0
11686,28080.0,Iron Station,North Carolina,NC,Lincoln,35.4657,-81.107,-1.0
11691,28088.0,Landis,North Carolina,NC,Rowan,35.5435,-80.6129,-1.0
11692,28089.0,Lattimore,North Carolina,NC,Cleveland,35.3087,-81.6617,-1.0
11693,28090.0,Lawndale,North Carolina,NC,Cleveland,35.4449,-81.5336,-1.0
11694,28091.0,Lilesville,North Carolina,NC,Anson,34.9689,-79.9721,-1.0
11695,28092.0,Lincolnton,North Carolina,NC,Lincoln,35.4851,-81.1818,-1.0
11696,28093.0,Lincolnton,North Carolina,NC,Lincoln,35.4848,-81.2395,-1.0
11697,28097.0,Locust,North Carolina,NC,Stanly,35.2704,-80.4211,-1.0
11698,28098.0,Lowell,North Carolina,NC,Gaston,35.2655,-81.096,-1.0
11699,28101.0,Mc Adenville,North Carolina,NC,Gaston,35.2578,-81.0788,-1.0
11700,28102.0,Mc Farlan,North Carolina,NC,Anson,34.8136,-79.9776,-1.0
11701,28103.0,Marshville,North Carolina,NC,Union,35.0167,-80.3781,-1.0
11702,28104.0,Matthews,North Carolina,NC,Mecklenburg,35.0604,-80.6958,-1.0
11703,28105.0,Matthews,North Carolina,NC,Mecklenburg,35.1149,-80.705,-1.0
11704,28106.0,Matthews,North Carolina,NC,Mecklenburg,35.26,-80.8042,-1.0
11705,28107.0,Midland,North Carolina,NC,Cabarrus,35.2477,-80.5319,-1.0
11706,28108.0,Mineral Springs,North Carolina,NC,Union,34.9163,-80.6404,-1.0
11707,28109.0,Misenheimer,North Carolina,NC,Stanly,35.4801,-80.2704,-1.0
11711,28114.0,Mooresboro,North Carolina,NC,Cleveland,35.2295,-81.7492,-1.0
11712,28115.0,Mooresville,North Carolina,NC,Iredell,35.5774,-80.8226,-1.0
11713,28117.0,Mooresville,North Carolina,NC,Iredell,35.584,-80.8685,-1.0
11716,28123.0,Mount Mourne,North Carolina,NC,Iredell,35.5298,-80.947,-1.0
11717,28124.0,Mount Pleasant,North Carolina,NC,Cabarrus,35.4146,-80.4171,-1.0
11718,28125.0,Mount Ulla,North Carolina,NC,Rowan,35.6389,-80.7239,-1.0
11719,28126.0,Newell,North Carolina,NC,Mecklenburg,35.2768,-80.7165,-1.0
11720,28127.0,New London,North Carolina,NC,Stanly,35.4285,-80.2057,-1.0
11721,28128.0,Norwood,North Carolina,NC,Stanly,35.2275,-80.1433,-1.0
11722,28129.0,Oakboro,North Carolina,NC,Stanly,35.246,-80.3413,-1.0
11723,28130.0,Paw Creek,North Carolina,NC,Mecklenburg,35.26,-80.8042,-1.0
11724,28133.0,Peachland,North Carolina,NC,Anson,35.0054,-80.2829,-1.0
11726,28135.0,Polkton,North Carolina,NC,Anson,34.9823,-80.1538,-1.0
11727,28136.0,Polkville,North Carolina,NC,Cleveland,35.3961,-81.6303,-1.0
11728,28137.0,Richfield,North Carolina,NC,Stanly,35.4541,-80.2838,-1.0
11729,28138.0,Rockwell,North Carolina,NC,Rowan,35.5494,-80.4226,-1.0
11730,28139.0,Rutherfordton,North Carolina,NC,Rutherford,35.3706,-81.9781,-1.0
11739,28160.0,Spindale,North Carolina,NC,Rutherford,35.3601,-81.9251,-1.0
11740,28163.0,Stanfield,North Carolina,NC,Stanly,35.2106,-80.4407,-1.0
11741,28164.0,Stanley,North Carolina,NC,Gaston,35.3516,-81.0959,-1.0
11743,28167.0,Union Mills,North Carolina,NC,Rutherford,35.4732,-81.9685,-1.0
11744,28168.0,Vale,North Carolina,NC,Lincoln,35.5188,-81.4589,-1.0
11745,28169.0,Waco,North Carolina,NC,Cleveland,35.3529,-81.4251,-1.0
11746,28170.0,Wadesboro,North Carolina,NC,Anson,34.9809,-80.0696,-1.0
11747,28173.0,Waxhaw,North Carolina,NC,Union,34.9251,-80.7278,-1.0
11748,28174.0,Wingate,North Carolina,NC,Union,34.9847,-80.4476,-1.0
11836,28307.0,Fort Bragg,North Carolina,NC,Cumberland,35.1416,-79.0025,-1.0
11837,28308.0,Pope A F B,North Carolina,NC,Cumberland,35.1734,-79.0138,-1.0
11839,28310.0,Fort Bragg,North Carolina,NC,Cumberland,35.0506,-78.8038,-1.0
11843,28315.0,Aberdeen,North Carolina,NC,Moore,35.1216,-79.445,-1.0
11844,28318.0,Autryville,North Carolina,NC,Sampson,35.0997,-78.6021,-1.0
11845,28319.0,Barnesville,North Carolina,NC,Robeson,34.5954,-79.1971,-1.0
11847,28323.0,Bunnlevel,North Carolina,NC,Harnett,35.3119,-78.8405,-1.0
11848,28324.0,Butters,North Carolina,NC,-1,34.5601,-78.8485,-1.0
11849,28325.0,Calypso,North Carolina,NC,Duplin,35.1419,-78.0992,-1.0
11850,28326.0,Cameron,North Carolina,NC,Moore,35.3106,-79.3472,-1.0
11852,28328.0,Clinton,North Carolina,NC,Sampson,35.0151,-78.326,-1.0
11853,28329.0,Clinton,North Carolina,NC,Sampson,34.994,-78.2777,-1.0
11854,28330.0,Cordova,North Carolina,NC,Richmond,34.9744,-79.7985,-1.0
11855,28331.0,Cumberland,North Carolina,NC,Cumberland,35.1509,-78.9158,-1.0
11856,28332.0,Dublin,North Carolina,NC,Bladen,34.6437,-78.7374,-1.0
11857,28333.0,Dudley,North Carolina,NC,Wayne,35.2926,-78.0273,-1.0
11858,28334.0,Dunn,North Carolina,NC,Harnett,35.3165,-78.6151,-1.0
11859,28335.0,Dunn,North Carolina,NC,Harnett,35.3508,-78.6254,-1.0
11860,28337.0,Elizabethtown,North Carolina,NC,Bladen,34.6471,-78.5747,-1.0
11861,28338.0,Ellerbe,North Carolina,NC,Richmond,35.0914,-79.7524,-1.0
11862,28339.0,Erwin,North Carolina,NC,Harnett,35.3287,-78.6859,-1.0
11863,28340.0,Fairmont,North Carolina,NC,Robeson,34.472,-79.1407,-1.0
11864,28341.0,Faison,North Carolina,NC,Duplin,35.1199,-78.118,-1.0
11865,28342.0,Falcon,North Carolina,NC,Cumberland,35.2106,-78.6496,-1.0
11866,28343.0,Gibson,North Carolina,NC,Scotland,34.7549,-79.5839,-1.0
11867,28344.0,Godwin,North Carolina,NC,Cumberland,35.1969,-78.6625,-1.0
11869,28347.0,Hoffman,North Carolina,NC,Richmond,35.0326,-79.56,-1.0
11872,28350.0,Lakeview,North Carolina,NC,Moore,35.2306,-79.3157,-1.0
11873,28351.0,Laurel Hill,North Carolina,NC,Scotland,34.8238,-79.5491,-1.0
11876,28355.0,Lemon Springs,North Carolina,NC,Lee,35.4676,-79.1653,-1.0
11877,28356.0,Linden,North Carolina,NC,Cumberland,35.2276,-78.8004,-1.0
11878,28357.0,Lumber Bridge,North Carolina,NC,Robeson,34.8762,-79.0664,-1.0
11882,28361.0,Mccain,North Carolina,NC,Hoke,35.0236,-79.2468,-1.0
11883,28362.0,Marietta,North Carolina,NC,Robeson,34.3791,-79.1279,-1.0
11884,28363.0,Marston,North Carolina,NC,Richmond,34.9728,-79.6127,-1.0
11885,28364.0,Maxton,North Carolina,NC,Robeson,34.7334,-79.3097,-1.0
11886,28365.0,Mount Olive,North Carolina,NC,Wayne,35.2109,-78.0983,-1.0
11887,28366.0,Newton Grove,North Carolina,NC,Sampson,35.2301,-78.3594,-1.0
11888,28367.0,Norman,North Carolina,NC,Richmond,35.1627,-79.7379,-1.0
11889,28368.0,Olivia,North Carolina,NC,Harnett,35.3229,-79.1074,-1.0
11890,28369.0,Orrum,North Carolina,NC,Robeson,34.4473,-79.031,-1.0
11891,28370.0,Pinehurst,North Carolina,NC,Moore,35.2162,-79.4524,-1.0
11892,28371.0,Parkton,North Carolina,NC,Robeson,34.9006,-78.9969,-1.0
11893,28372.0,Pembroke,North Carolina,NC,Robeson,34.6902,-79.1834,-1.0
11894,28373.0,Pinebluff,North Carolina,NC,Moore,35.1007,-79.4663,-1.0
11895,28374.0,Pinehurst,North Carolina,NC,Moore,35.1884,-79.4732,-1.0
11896,28375.0,Proctorville,North Carolina,NC,Robeson,34.4713,-79.0414,-1.0
11897,28376.0,Raeford,North Carolina,NC,Hoke,34.989,-79.2228,-1.0
11898,28377.0,Red Springs,North Carolina,NC,Robeson,34.8083,-79.1636,-1.0
11899,28378.0,Rex,North Carolina,NC,Robeson,34.8543,-79.0642,-1.0
11902,28382.0,Roseboro,North Carolina,NC,Sampson,34.9639,-78.5133,-1.0
11903,28383.0,Rowland,North Carolina,NC,Robeson,34.5887,-79.2618,-1.0
11904,28384.0,Saint Pauls,North Carolina,NC,Robeson,34.801,-78.9731,-1.0
11905,28385.0,Salemburg,North Carolina,NC,Sampson,35.0515,-78.4714,-1.0
11906,28386.0,Shannon,North Carolina,NC,Robeson,34.8988,-79.1806,-1.0
11907,28387.0,Southern Pines,North Carolina,NC,Moore,35.1697,-79.3957,-1.0
11908,28388.0,Southern Pines,North Carolina,NC,Moore,35.2803,-79.4327,-1.0
11909,28390.0,Spring Lake,North Carolina,NC,Cumberland,35.183,-78.9786,-1.0
11910,28391.0,Stedman,North Carolina,NC,Cumberland,35.0347,-78.6949,-1.0
11911,28392.0,Tar Heel,North Carolina,NC,Bladen,34.7465,-78.8134,-1.0
11912,28393.0,Turkey,North Carolina,NC,Sampson,34.9857,-78.2121,-1.0
11913,28394.0,Vass,North Carolina,NC,Moore,35.2171,-79.2562,-1.0
11914,28395.0,Wade,North Carolina,NC,Cumberland,35.1606,-78.7249,-1.0
11916,28397.0,Wakulla,North Carolina,NC,-1,34.7925,-79.2553,-1.0
11917,28398.0,Warsaw,North Carolina,NC,Duplin,35.018,-78.031,-1.0
11918,28399.0,White Oak,North Carolina,NC,Bladen,34.7662,-78.7301,-1.0
11931,28420.0,Ash,North Carolina,NC,Brunswick,34.0659,-78.5056,-1.0
11932,28421.0,Atkinson,North Carolina,NC,Pender,34.5304,-78.1671,-1.0
11934,28423.0,Bolton,North Carolina,NC,Columbus,34.3091,-78.3372,-1.0
11935,28424.0,Brunswick,North Carolina,NC,Columbus,34.2907,-78.6994,-1.0
11937,28428.0,Carolina Beach,North Carolina,NC,New Hanover,34.0366,-77.8963,-1.0
11938,28429.0,Castle Hayne,North Carolina,NC,New Hanover,34.3236,-77.9108,-1.0
11939,28430.0,Cerro Gordo,North Carolina,NC,Columbus,34.3025,-78.9216,-1.0
11940,28431.0,Chadbourn,North Carolina,NC,Columbus,34.3223,-78.8267,-1.0
11941,28432.0,Clarendon,North Carolina,NC,Columbus,34.1761,-78.7637,-1.0
11942,28433.0,Clarkton,North Carolina,NC,Bladen,34.503,-78.6313,-1.0
11943,28434.0,Council,North Carolina,NC,Bladen,34.429,-78.4115,-1.0
11944,28435.0,Currie,North Carolina,NC,Pender,34.4497,-78.0925,-1.0
11945,28436.0,Delco,North Carolina,NC,Columbus,34.2838,-78.2607,-1.0
11946,28438.0,Evergreen,North Carolina,NC,Columbus,34.4204,-78.8947,-1.0
11947,28439.0,Fair Bluff,North Carolina,NC,Columbus,34.3023,-79.0175,-1.0
11948,28441.0,Garland,North Carolina,NC,Sampson,34.7897,-78.4309,-1.0
11949,28442.0,Hallsboro,North Carolina,NC,Columbus,34.3181,-78.6043,-1.0
11950,28443.0,Hampstead,North Carolina,NC,Pender,34.3879,-77.6628,-1.0
11951,28444.0,Harrells,North Carolina,NC,Sampson,34.6769,-78.243,-1.0
11952,28445.0,Holly Ridge,North Carolina,NC,Onslow,34.528,-77.5147,-1.0
11953,28446.0,Ingold,North Carolina,NC,Sampson,34.8366,-78.3481,-1.0
11954,28447.0,Ivanhoe,North Carolina,NC,Sampson,34.6233,-78.2342,-1.0
11955,28448.0,Kelly,North Carolina,NC,Bladen,34.4591,-78.2942,-1.0
11957,28450.0,Lake Waccamaw,North Carolina,NC,Columbus,34.3394,-78.5102,-1.0
11958,28451.0,Leland,North Carolina,NC,Brunswick,34.268,-78.0578,-1.0
11959,28452.0,Longwood,North Carolina,NC,Brunswick,33.9973,-78.5541,-1.0
11960,28453.0,Magnolia,North Carolina,NC,Duplin,34.8957,-78.0432,-1.0
11961,28454.0,Maple Hill,North Carolina,NC,Pender,34.6594,-77.7117,-1.0
11962,28455.0,Nakina,North Carolina,NC,Columbus,34.1153,-78.657,-1.0
11963,28456.0,Riegelwood,North Carolina,NC,Columbus,34.3471,-78.2575,-1.0
11964,28457.0,Rocky Point,North Carolina,NC,Pender,34.4344,-77.9234,-1.0
11965,28458.0,Rose Hill,North Carolina,NC,Duplin,34.8235,-78.0166,-1.0
11966,28459.0,Shallotte,North Carolina,NC,Brunswick,33.9334,-78.4129,-1.0
11967,28460.0,Sneads Ferry,North Carolina,NC,Onslow,34.5426,-77.4038,-1.0
11968,28461.0,Southport,North Carolina,NC,Brunswick,33.9654,-78.0359,-1.0
11969,28462.0,Supply,North Carolina,NC,Brunswick,34.0231,-78.2884,-1.0
11970,28463.0,Tabor City,North Carolina,NC,Columbus,34.1233,-78.8232,-1.0
11971,28464.0,Teachey,North Carolina,NC,Duplin,34.77,-78.0221,-1.0
11972,28465.0,Oak Island,North Carolina,NC,Brunswick,33.9161,-78.1255,-1.0
11973,28466.0,Wallace,North Carolina,NC,Duplin,34.7542,-77.9429,-1.0
11974,28467.0,Calabash,North Carolina,NC,Brunswick,33.9047,-78.5744,-1.0
11975,28468.0,Sunset Beach,North Carolina,NC,Brunswick,33.8836,-78.52,-1.0
11977,28470.0,Shallotte,North Carolina,NC,Brunswick,33.9637,-78.4064,-1.0
11978,28471.0,Watha,North Carolina,NC,Pender,34.6207,-78.0074,-1.0
11979,28472.0,Whiteville,North Carolina,NC,Columbus,34.3241,-78.716,-1.0
11980,28478.0,Willard,North Carolina,NC,Pender,34.6845,-78.0234,-1.0
11981,28479.0,Winnabow,North Carolina,NC,Brunswick,34.1553,-78.0558,-1.0
11982,28480.0,Wrightsville Beach,North Carolina,NC,New Hanover,34.2228,-77.7932,-1.0
11987,28508.0,Albertson,North Carolina,NC,Duplin,35.1176,-77.8515,-1.0
11988,28509.0,Alliance,North Carolina,NC,Pamlico,35.1561,-76.6323,-1.0
11989,28510.0,Arapahoe,North Carolina,NC,Pamlico,35.0055,-76.8149,-1.0
11990,28511.0,Atlantic,North Carolina,NC,Carteret,34.8888,-76.3521,-1.0
11991,28512.0,Atlantic Beach,North Carolina,NC,Carteret,34.7417,-76.7555,-1.0
11992,28513.0,Ayden,North Carolina,NC,Pitt,35.4565,-77.4051,-1.0
11993,28515.0,Bayboro,North Carolina,NC,Pamlico,35.1526,-76.7518,-1.0
11995,28518.0,Beulaville,North Carolina,NC,Duplin,34.934,-77.7697,-1.0
11997,28520.0,Cedar Island,North Carolina,NC,Carteret,34.8739,-76.5871,-1.0
11998,28521.0,Chinquapin,North Carolina,NC,Duplin,34.8276,-77.7636,-1.0
11999,28522.0,Comfort,North Carolina,NC,Jones,35.0051,-77.5231,-1.0
12000,28523.0,Cove City,North Carolina,NC,Craven,35.2023,-77.2963,-1.0
12001,28524.0,Davis,North Carolina,NC,Carteret,34.8739,-76.5871,-1.0
12002,28525.0,Deep Run,North Carolina,NC,Lenoir,35.163,-77.6928,-1.0
12003,28526.0,Dover,North Carolina,NC,Craven,35.2554,-77.3646,-1.0
12004,28527.0,Ernul,North Carolina,NC,Craven,35.2547,-77.0502,-1.0
12005,28528.0,Gloucester,North Carolina,NC,Carteret,34.7344,-76.5394,-1.0
12006,28529.0,Grantsboro,North Carolina,NC,Pamlico,35.0668,-76.871,-1.0
12007,28530.0,Grifton,North Carolina,NC,Pitt,35.3757,-77.4193,-1.0
12008,28531.0,Harkers Island,North Carolina,NC,Carteret,34.6966,-76.5583,-1.0
12010,28533.0,Cherry Point,North Carolina,NC,Craven,34.9038,-76.9,-1.0
12011,28537.0,Hobucken,North Carolina,NC,Pamlico,35.2518,-76.5696,-1.0
12012,28538.0,Hookerton,North Carolina,NC,Greene,35.438,-77.5656,-1.0
12013,28539.0,Hubert,North Carolina,NC,Onslow,34.6993,-77.2079,-1.0
12016,28542.0,Camp Lejeune,North Carolina,NC,Onslow,34.664,-77.4637,-1.0
12017,28543.0,Tarawa Terrace,North Carolina,NC,Onslow,34.7354,-77.3831,-1.0
12018,28544.0,Midway Park,North Carolina,NC,Onslow,34.727,-77.32,-1.0
12019,28545.0,Mccutcheon Field,North Carolina,NC,Onslow,34.6921,-77.3912,-1.0
12021,28547.0,Camp Lejeune,North Carolina,NC,Onslow,34.6909,-77.3614,-1.0
12023,28552.0,Lowland,North Carolina,NC,Pamlico,35.306,-76.5777,-1.0
12024,28553.0,Marshallberg,North Carolina,NC,Carteret,34.7265,-76.5173,-1.0
12025,28554.0,Maury,North Carolina,NC,Greene,35.4999,-77.651,-1.0
12026,28555.0,Maysville,North Carolina,NC,Jones,34.8691,-77.2315,-1.0
12027,28556.0,Merritt,North Carolina,NC,Pamlico,35.1224,-76.6719,-1.0
12028,28557.0,Morehead City,North Carolina,NC,Carteret,34.7253,-76.7531,-1.0
12029,28560.0,New Bern,North Carolina,NC,Craven,35.1204,-76.9842,-1.0
12030,28561.0,New Bern,North Carolina,NC,Craven,35.1037,-77.0758,-1.0
12031,28562.0,New Bern,North Carolina,NC,Craven,35.1004,-77.1029,-1.0
12032,28563.0,New Bern,North Carolina,NC,Craven,35.1109,-77.0634,-1.0
12033,28564.0,New Bern,North Carolina,NC,Craven,35.1109,-77.0634,-1.0
12034,28570.0,Newport,North Carolina,NC,Carteret,34.7551,-76.9069,-1.0
12035,28571.0,Oriental,North Carolina,NC,Pamlico,35.0364,-76.7015,-1.0
12036,28572.0,Pink Hill,North Carolina,NC,Lenoir,35.0573,-77.6943,-1.0
12037,28573.0,Pollocksville,North Carolina,NC,Jones,35.0151,-77.2287,-1.0
12038,28574.0,Richlands,North Carolina,NC,Onslow,34.8624,-77.5863,-1.0
12039,28575.0,Salter Path,North Carolina,NC,Carteret,34.8739,-76.5871,-1.0
12040,28577.0,Sealevel,North Carolina,NC,Carteret,34.8769,-76.3898,-1.0
12041,28578.0,Seven Springs,North Carolina,NC,Wayne,35.2105,-77.9146,-1.0
12042,28579.0,Smyrna,North Carolina,NC,Carteret,34.8739,-76.5871,-1.0
12043,28580.0,Snow Hill,North Carolina,NC,Greene,35.4438,-77.6956,-1.0
12044,28581.0,Stacy,North Carolina,NC,Carteret,34.8412,-76.4289,-1.0
12045,28582.0,Stella,North Carolina,NC,Carteret,34.7777,-77.1308,-1.0
12046,28583.0,Stonewall,North Carolina,NC,Pamlico,35.1371,-76.7406,-1.0
12047,28584.0,Swansboro,North Carolina,NC,Onslow,34.6991,-77.135,-1.0
12048,28585.0,Trenton,North Carolina,NC,Jones,35.0745,-77.4595,-1.0
12049,28586.0,Vanceboro,North Carolina,NC,Craven,35.3063,-77.1716,-1.0
12050,28587.0,Vandemere,North Carolina,NC,Pamlico,35.1913,-76.6604,-1.0
12051,28589.0,Williston,North Carolina,NC,Carteret,34.8739,-76.5871,-1.0
12052,28590.0,Winterville,North Carolina,NC,Pitt,35.5336,-77.391,-1.0
12053,28594.0,Emerald Isle,North Carolina,NC,Carteret,34.6662,-77.026,-1.0
12057,28604.0,Banner Elk,North Carolina,NC,Avery,36.1705,-81.8412,-1.0
12058,28605.0,Blowing Rock,North Carolina,NC,Watauga,36.1355,-81.6996,-1.0
12059,28606.0,Boomer,North Carolina,NC,Wilkes,36.0552,-81.3137,-1.0
12060,28607.0,Boone,North Carolina,NC,Watauga,36.2142,-81.666,-1.0
12061,28608.0,Boone,North Carolina,NC,Watauga,36.2213,-81.7134,-1.0
12062,28609.0,Catawba,North Carolina,NC,Catawba,35.6757,-81.0503,-1.0
12064,28611.0,Collettsville,North Carolina,NC,Caldwell,35.9946,-81.7266,-1.0
12065,28612.0,Connellys Springs,North Carolina,NC,Burke,35.6895,-81.5387,-1.0
12067,28614.0,Cranberry,North Carolina,NC,-1,36.1429,-81.9671,-1.0
12068,28615.0,Creston,North Carolina,NC,Ashe,36.45,-81.6506,-1.0
12069,28616.0,Crossnore,North Carolina,NC,Avery,36.0591,-81.8892,-1.0
12070,28617.0,Crumpler,North Carolina,NC,Ashe,36.4641,-81.4039,-1.0
12071,28618.0,Deep Gap,North Carolina,NC,Watauga,36.2136,-81.5163,-1.0
12072,28619.0,Drexel,North Carolina,NC,Burke,35.7179,-81.6406,-1.0
12073,28621.0,Elkin,North Carolina,NC,Surry,36.2872,-80.8554,-1.0
12074,28622.0,Elk Park,North Carolina,NC,Avery,36.1646,-81.9639,-1.0
12075,28623.0,Ennice,North Carolina,NC,Alleghany,36.5253,-80.9771,-1.0
12076,28624.0,Ferguson,North Carolina,NC,Wilkes,36.1283,-81.3864,-1.0
12078,28626.0,Fleetwood,North Carolina,NC,Ashe,36.2814,-81.514,-1.0
12079,28627.0,Glade Valley,North Carolina,NC,Alleghany,36.4429,-81.0168,-1.0
12080,28628.0,Glen Alpine,North Carolina,NC,Burke,35.7212,-81.818,-1.0
12081,28629.0,Glendale Springs,North Carolina,NC,Ashe,36.3405,-81.3653,-1.0
12082,28630.0,Granite Falls,North Carolina,NC,Caldwell,35.8197,-81.4571,-1.0
12083,28631.0,Grassy Creek,North Carolina,NC,Ashe,36.5415,-81.4468,-1.0
12084,28633.0,Lenoir,North Carolina,NC,Caldwell,35.9376,-81.5398,-1.0
12085,28634.0,Harmony,North Carolina,NC,Iredell,35.958,-80.7585,-1.0
12086,28635.0,Hays,North Carolina,NC,Wilkes,36.31,-81.1161,-1.0
12087,28636.0,Hiddenite,North Carolina,NC,Alexander,35.9504,-81.0487,-1.0
12088,28637.0,Hildebran,North Carolina,NC,Burke,35.718,-81.4194,-1.0
12089,28638.0,Hudson,North Carolina,NC,Caldwell,35.8403,-81.4897,-1.0
12090,28640.0,Jefferson,North Carolina,NC,Ashe,36.409,-81.4396,-1.0
12091,28641.0,Jonas Ridge,North Carolina,NC,Burke,35.9384,-81.8845,-1.0
12093,28643.0,Lansing,North Carolina,NC,Ashe,36.5176,-81.5269,-1.0
12094,28644.0,Laurel Springs,North Carolina,NC,Ashe,36.4449,-81.2606,-1.0
12095,28645.0,Lenoir,North Carolina,NC,Caldwell,35.9149,-81.5398,-1.0
12096,28646.0,Linville,North Carolina,NC,Avery,36.041,-81.9177,-1.0
12097,28647.0,Linville Falls,North Carolina,NC,Burke,35.7792,-81.6755,-1.0
12098,28648.0,Longisland,North Carolina,NC,-1,35.6658,-80.9904,-1.0
12099,28649.0,Mc Grady,North Carolina,NC,Wilkes,36.3103,-81.1912,-1.0
12101,28651.0,Millers Creek,North Carolina,NC,Wilkes,36.2119,-81.2485,-1.0
12102,28652.0,Minneapolis,North Carolina,NC,Avery,36.0865,-81.9343,-1.0
12103,28653.0,Montezuma,North Carolina,NC,Avery,36.0651,-81.9017,-1.0
12104,28654.0,Moravian Falls,North Carolina,NC,Wilkes,36.0788,-81.1781,-1.0
12105,28655.0,Morganton,North Carolina,NC,Burke,35.7346,-81.7042,-1.0
12106,28656.0,North Wilkesboro,North Carolina,NC,Wilkes,36.2384,-81.046,-1.0
12107,28657.0,Newland,North Carolina,NC,Avery,36.059,-81.9303,-1.0
12109,28659.0,North Wilkesboro,North Carolina,NC,Wilkes,36.2017,-81.1286,-1.0
12110,28660.0,Olin,North Carolina,NC,Iredell,35.9593,-80.8511,-1.0
12111,28661.0,Patterson,North Carolina,NC,Caldwell,35.9973,-81.5626,-1.0
12112,28662.0,Pineola,North Carolina,NC,Avery,36.0856,-81.876,-1.0
12113,28663.0,Piney Creek,North Carolina,NC,Alleghany,36.5276,-81.3019,-1.0
12114,28664.0,Plumtree,North Carolina,NC,Avery,36.0441,-82.0037,-1.0
12115,28665.0,Purlear,North Carolina,NC,Wilkes,36.1964,-81.3528,-1.0
12116,28666.0,Icard,North Carolina,NC,Burke,35.73,-81.4954,-1.0
12117,28667.0,Rhodhiss,North Carolina,NC,Caldwell,35.7772,-81.4302,-1.0
12118,28668.0,Roaring Gap,North Carolina,NC,Alleghany,36.3836,-81.0188,-1.0
12119,28669.0,Roaring River,North Carolina,NC,Wilkes,36.1916,-81.0004,-1.0
12120,28670.0,Ronda,North Carolina,NC,Wilkes,36.2059,-80.927,-1.0
12121,28671.0,Rutherford College,North Carolina,NC,Burke,35.7486,-81.5637,-1.0
12122,28672.0,Scottville,North Carolina,NC,Ashe,36.4833,-81.3276,-1.0
12123,28673.0,Sherrills Ford,North Carolina,NC,Catawba,35.5962,-81.0339,-1.0
12124,28674.0,North Wilkesboro,North Carolina,NC,Wilkes,36.2162,-81.2072,-1.0
12125,28675.0,Sparta,North Carolina,NC,Alleghany,36.5089,-81.1384,-1.0
12126,28676.0,State Road,North Carolina,NC,Surry,36.3422,-80.8653,-1.0
12128,28678.0,Stony Point,North Carolina,NC,Alexander,35.8661,-81.0641,-1.0
12129,28679.0,Sugar Grove,North Carolina,NC,Watauga,36.2627,-81.8441,-1.0
12130,28680.0,Morganton,North Carolina,NC,Burke,35.7507,-81.6953,-1.0
12131,28681.0,Taylorsville,North Carolina,NC,Alexander,35.901,-81.2124,-1.0
12132,28682.0,Terrell,North Carolina,NC,Catawba,35.5836,-80.9631,-1.0
12133,28683.0,Thurmond,North Carolina,NC,Wilkes,36.3562,-80.9317,-1.0
12134,28684.0,Todd,North Carolina,NC,Ashe,36.3245,-81.5874,-1.0
12135,28685.0,Traphill,North Carolina,NC,Wilkes,36.3301,-81.0151,-1.0
12136,28686.0,Triplett,North Carolina,NC,-1,36.1833,-81.4895,-1.0
12138,28688.0,Turnersburg,North Carolina,NC,Iredell,35.5298,-80.947,-1.0
12139,28689.0,Union Grove,North Carolina,NC,Iredell,36.0369,-80.8967,-1.0
12140,28690.0,Valdese,North Carolina,NC,Burke,35.7447,-81.567,-1.0
12141,28691.0,Valle Crucis,North Carolina,NC,Watauga,36.2092,-81.7789,-1.0
12142,28692.0,Vilas,North Carolina,NC,Watauga,36.2574,-81.7652,-1.0
12143,28693.0,Warrensville,North Carolina,NC,Ashe,36.4572,-81.5465,-1.0
12144,28694.0,West Jefferson,North Carolina,NC,Ashe,36.3776,-81.4872,-1.0
12145,28695.0,Whitehead,North Carolina,NC,-1,36.4671,-81.1529,-1.0
12146,28696.0,Millers Creek,North Carolina,NC,-1,36.2443,-81.2982,-1.0
12147,28697.0,Wilkesboro,North Carolina,NC,Wilkes,36.1359,-81.1573,-1.0
12148,28698.0,Zionville,North Carolina,NC,Watauga,36.3194,-81.7476,-1.0
12149,28699.0,Scotts,North Carolina,NC,Iredell,35.831,-81.0076,-1.0
12150,28701.0,Alexander,North Carolina,NC,Buncombe,35.7064,-82.6311,-1.0
12151,28702.0,Almond,North Carolina,NC,Swain,35.4099,-83.4794,-1.0
12152,28703.0,Aquone,North Carolina,NC,-1,35.2354,-83.5749,-1.0
12153,28704.0,Arden,North Carolina,NC,Buncombe,35.4637,-82.5354,-1.0
12154,28705.0,Bakersville,North Carolina,NC,Mitchell,36.0286,-82.1711,-1.0
12155,28707.0,Balsam,North Carolina,NC,Jackson,35.4301,-83.0928,-1.0
12156,28708.0,Balsam Grove,North Carolina,NC,Transylvania,35.2298,-82.878,-1.0
12157,28709.0,Barnardsville,North Carolina,NC,Buncombe,35.7748,-82.4567,-1.0
12158,28710.0,Bat Cave,North Carolina,NC,Henderson,35.4319,-82.5448,-1.0
12159,28711.0,Black Mountain,North Carolina,NC,Buncombe,35.5986,-82.2902,-1.0
12160,28712.0,Brevard,North Carolina,NC,Transylvania,35.2208,-82.7404,-1.0
12161,28713.0,Bryson City,North Carolina,NC,Swain,35.4241,-83.4392,-1.0
12162,28714.0,Burnsville,North Carolina,NC,Yancey,35.903,-82.2876,-1.0
12163,28715.0,Candler,North Carolina,NC,Buncombe,35.5376,-82.7001,-1.0
12164,28716.0,Canton,North Carolina,NC,Haywood,35.5127,-82.8413,-1.0
12165,28717.0,Cashiers,North Carolina,NC,Jackson,35.0971,-83.0871,-1.0
12166,28718.0,Cedar Mountain,North Carolina,NC,Transylvania,35.1508,-82.6374,-1.0
12167,28719.0,Cherokee,North Carolina,NC,Swain,35.5094,-83.3144,-1.0
12168,28720.0,Chimney Rock,North Carolina,NC,Rutherford,35.4369,-82.2417,-1.0
12169,28721.0,Clyde,North Carolina,NC,Haywood,35.5597,-82.9216,-1.0
12170,28722.0,Columbus,North Carolina,NC,Polk,35.241,-82.1206,-1.0
12171,28723.0,Cullowhee,North Carolina,NC,Jackson,35.2409,-83.1475,-1.0
12172,28724.0,Dana,North Carolina,NC,Henderson,35.2954,-82.3883,-1.0
12173,28725.0,Dillsboro,North Carolina,NC,Jackson,35.3735,-83.2592,-1.0
12174,28726.0,East Flat Rock,North Carolina,NC,Henderson,35.2799,-82.4204,-1.0
12175,28727.0,Edneyville,North Carolina,NC,Henderson,35.3223,-82.5032,-1.0
12176,28728.0,Enka,North Carolina,NC,Buncombe,35.4988,-82.708,-1.0
12177,28729.0,Etowah,North Carolina,NC,Henderson,35.3172,-82.5977,-1.0
12178,28730.0,Fairview,North Carolina,NC,Buncombe,35.5258,-82.3985,-1.0
12179,28731.0,Flat Rock,North Carolina,NC,Henderson,35.289,-82.3916,-1.0
12180,28732.0,Fletcher,North Carolina,NC,Henderson,35.4499,-82.4966,-1.0
12181,28733.0,Fontana Dam,North Carolina,NC,Graham,35.4231,-83.7795,-1.0
12182,28734.0,Franklin,North Carolina,NC,Macon,35.181,-83.3885,-1.0
12183,28735.0,Gerton,North Carolina,NC,Henderson,35.4759,-82.3505,-1.0
12184,28736.0,Glenville,North Carolina,NC,Jackson,35.1882,-83.09,-1.0
12185,28737.0,Glenwood,North Carolina,NC,McDowell,35.7387,-82.0595,-1.0
12186,28738.0,Hazelwood,North Carolina,NC,Haywood,35.4683,-83.0028,-1.0
12188,28740.0,Green Mountain,North Carolina,NC,Yancey,35.9956,-82.2879,-1.0
12189,28741.0,Highlands,North Carolina,NC,Macon,35.0705,-83.216,-1.0
12190,28742.0,Horse Shoe,North Carolina,NC,Henderson,35.3703,-82.5981,-1.0
12191,28743.0,Hot Springs,North Carolina,NC,Madison,35.8082,-82.9005,-1.0
12192,28744.0,Franklin,North Carolina,NC,Macon,35.1173,-83.2952,-1.0
12193,28745.0,Lake Junaluska,North Carolina,NC,Haywood,35.5258,-82.9704,-1.0
12195,28747.0,Lake Toxaway,North Carolina,NC,Transylvania,35.1451,-82.9191,-1.0
12196,28748.0,Leicester,North Carolina,NC,Buncombe,35.6498,-82.7106,-1.0
12197,28749.0,Little Switzerland,North Carolina,NC,McDowell,35.7387,-82.0595,-1.0
12198,28750.0,Lynn,North Carolina,NC,Polk,35.2362,-82.2362,-1.0
12199,28751.0,Maggie Valley,North Carolina,NC,Haywood,35.5201,-83.0929,-1.0
12200,28752.0,Marion,North Carolina,NC,McDowell,35.6819,-82.018,-1.0
12201,28753.0,Marshall,North Carolina,NC,Madison,35.8597,-82.7105,-1.0
12202,28754.0,Mars Hill,North Carolina,NC,Madison,35.8528,-82.5254,-1.0
12203,28755.0,Micaville,North Carolina,NC,Yancey,35.8392,-82.1962,-1.0
12204,28756.0,Mill Spring,North Carolina,NC,Polk,35.3338,-82.1557,-1.0
12205,28757.0,Montreat,North Carolina,NC,Buncombe,35.6415,-82.3156,-1.0
12206,28758.0,Mountain Home,North Carolina,NC,Henderson,35.3711,-82.4938,-1.0
12207,28759.0,Mills River,North Carolina,NC,-1,35.3906,-82.568,-1.0
12208,28760.0,Naples,North Carolina,NC,Henderson,35.3817,-82.4813,-1.0
12209,28761.0,Nebo,North Carolina,NC,McDowell,35.6732,-81.9056,-1.0
12210,28762.0,Old Fort,North Carolina,NC,McDowell,35.6169,-82.1686,-1.0
12211,28763.0,Otto,North Carolina,NC,Macon,35.0515,-83.3854,-1.0
12212,28765.0,Penland,North Carolina,NC,Mitchell,35.9219,-82.1107,-1.0
12213,28766.0,Penrose,North Carolina,NC,Transylvania,35.2524,-82.6222,-1.0
12214,28768.0,Pisgah Forest,North Carolina,NC,Transylvania,35.2599,-82.6695,-1.0
12215,28770.0,Ridgecrest,North Carolina,NC,Buncombe,35.6186,-82.3005,-1.0
12217,28772.0,Rosman,North Carolina,NC,Transylvania,35.1592,-82.8383,-1.0
12218,28773.0,Saluda,North Carolina,NC,Polk,35.2383,-82.3306,-1.0
12219,28774.0,Sapphire,North Carolina,NC,Transylvania,35.0666,-83.0019,-1.0
12220,28775.0,Scaly Mountain,North Carolina,NC,Macon,35.0311,-83.3274,-1.0
12221,28776.0,Skyland,North Carolina,NC,Buncombe,35.4835,-82.5207,-1.0
12222,28777.0,Spruce Pine,North Carolina,NC,Mitchell,35.906,-82.0705,-1.0
12223,28778.0,Swannanoa,North Carolina,NC,Buncombe,35.6172,-82.407,-1.0
12224,28779.0,Sylva,North Carolina,NC,Jackson,35.3481,-83.2031,-1.0
12225,28780.0,Tapoco,North Carolina,NC,-1,35.4425,-83.8996,-1.0
12226,28781.0,Topton,North Carolina,NC,Cherokee,35.2151,-83.6461,-1.0
12227,28782.0,Tryon,North Carolina,NC,Polk,35.2157,-82.2394,-1.0
12228,28783.0,Tuckasegee,North Carolina,NC,Jackson,35.2599,-83.0749,-1.0
12229,28784.0,Tuxedo,North Carolina,NC,Henderson,35.2174,-82.4178,-1.0
12230,28785.0,Waynesville,North Carolina,NC,Haywood,35.533,-82.9719,-1.0
12231,28786.0,Waynesville,North Carolina,NC,Haywood,35.5018,-82.9913,-1.0
12232,28787.0,Weaverville,North Carolina,NC,Buncombe,35.7126,-82.5491,-1.0
12233,28788.0,Webster,North Carolina,NC,Jackson,35.3285,-83.2333,-1.0
12234,28789.0,Whittier,North Carolina,NC,Jackson,35.4469,-83.2872,-1.0
12235,28790.0,Zirconia,North Carolina,NC,Henderson,35.2153,-82.4574,-1.0
12250,28901.0,Andrews,North Carolina,NC,Cherokee,35.1959,-83.8228,-1.0
12251,28902.0,Brasstown,North Carolina,NC,Clay,35.0261,-83.9567,-1.0
12252,28903.0,Culberson,North Carolina,NC,Cherokee,35.0944,-84.0359,-1.0
12253,28904.0,Hayesville,North Carolina,NC,Clay,35.0417,-83.7867,-1.0
12254,28905.0,Marble,North Carolina,NC,Cherokee,35.1475,-83.9381,-1.0
12256,28909.0,Warne,North Carolina,NC,Clay,35.0024,-83.9045,-1.0
26957,60001.0,Alden,Illinois,IL,McHenry,42.3248,-88.4525,-1.0
26958,60002.0,Antioch,Illinois,IL,Lake,42.4648,-88.1178,-1.0
26962,60007.0,Elk Grove Village,Illinois,IL,Cook,42.0076,-87.9931,-1.0
26963,60008.0,Rolling Meadows,Illinois,IL,Cook,42.073,-88.0191,-1.0
26964,60009.0,Elk Grove Village,Illinois,IL,Cook,41.8119,-87.6873,-1.0
26965,60010.0,Barrington,Illinois,IL,Lake,42.1614,-88.1383,-1.0
26966,60011.0,Barrington,Illinois,IL,Lake,42.3228,-87.6101,-1.0
26968,60013.0,Cary,Illinois,IL,McHenry,42.2196,-88.2426,-1.0
26970,60015.0,Deerfield,Illinois,IL,Lake,42.1705,-87.859,-1.0
26971,60016.0,Des Plaines,Illinois,IL,Cook,42.0467,-87.8859,-1.0
26972,60017.0,Des Plaines,Illinois,IL,Cook,42.0288,-87.8944,-1.0
26973,60018.0,Des Plaines,Illinois,IL,Cook,42.0155,-87.8687,-1.0
26974,60019.0,Des Plaines,Illinois,IL,Cook,42.0243,-87.9071,-1.0
26975,60020.0,Fox Lake,Illinois,IL,Lake,42.3937,-88.1648,-1.0
26976,60021.0,Fox River Grove,Illinois,IL,McHenry,42.1936,-88.2205,-1.0
26977,60022.0,Glencoe,Illinois,IL,Cook,42.1333,-87.7615,-1.0
26978,60025.0,Glenview,Illinois,IL,Cook,42.0758,-87.8223,-1.0
26979,60026.0,Glenview Nas,Illinois,IL,Cook,42.0922,-87.8374,-1.0
26980,60029.0,Golf,Illinois,IL,Cook,42.058,-87.7916,-1.0
26981,60030.0,Grayslake,Illinois,IL,Lake,42.3524,-88.0545,-1.0
26982,60031.0,Gurnee,Illinois,IL,Lake,42.3669,-87.9452,-1.0
26983,60033.0,Harvard,Illinois,IL,McHenry,42.4227,-88.6048,-1.0
26984,60034.0,Hebron,Illinois,IL,McHenry,42.4642,-88.4176,-1.0
26985,60035.0,Highland Park,Illinois,IL,Lake,42.1794,-87.8059,-1.0
26986,60037.0,Fort Sheridan,Illinois,IL,Lake,42.2097,-87.8056,-1.0
26989,60040.0,Highwood,Illinois,IL,Lake,42.2035,-87.8141,-1.0
26990,60041.0,Ingleside,Illinois,IL,Lake,42.3631,-88.1587,-1.0
26991,60042.0,Island Lake,Illinois,IL,Lake,42.2742,-88.1926,-1.0
26995,60046.0,Lake Villa,Illinois,IL,Lake,42.3813,-87.9991,-1.0
26996,60047.0,Lake Zurich,Illinois,IL,Lake,42.2165,-88.0769,-1.0
26997,60048.0,Libertyville,Illinois,IL,Lake,42.281,-87.95,-1.0
26998,60049.0,Long Grove,Illinois,IL,Lake,42.1987,-88.0419,-1.0
26999,60050.0,Mchenry,Illinois,IL,McHenry,42.3311,-88.2955,-1.0
27000,60051.0,Mchenry,Illinois,IL,McHenry,42.3542,-88.2294,-1.0
27001,60053.0,Morton Grove,Illinois,IL,Cook,42.0431,-87.7899,-1.0
27004,60060.0,Mundelein,Illinois,IL,Lake,42.2636,-88.0048,-1.0
27007,60063.0,Deerfield,Illinois,IL,-1,42.1647,-87.8456,-1.0
27011,60068.0,Park Ridge,Illinois,IL,Cook,42.0122,-87.8417,-1.0
27012,60069.0,Lincolnshire,Illinois,IL,Lake,42.1976,-87.9261,-1.0
27013,60070.0,Prospect Heights,Illinois,IL,Cook,42.1058,-87.9395,-1.0
27015,60072.0,Ringwood,Illinois,IL,McHenry,42.4048,-88.3054,-1.0
27018,60075.0,Russell,Illinois,IL,Lake,42.3228,-87.6101,-1.0
27023,60080.0,Solon Mills,Illinois,IL,McHenry,42.4425,-88.276,-1.0
27024,60081.0,Spring Grove,Illinois,IL,McHenry,42.4413,-88.2237,-1.0
27025,60082.0,Techny,Illinois,IL,Cook,42.1164,-87.8121,-1.0
27026,60083.0,Wadsworth,Illinois,IL,Lake,42.446,-87.904,-1.0
27027,60084.0,Wauconda,Illinois,IL,Lake,42.2636,-88.1333,-1.0
27031,60088.0,Great Lakes,Illinois,IL,Lake,42.3032,-87.8642,-1.0
27032,60089.0,Buffalo Grove,Illinois,IL,Lake,42.1598,-87.9644,-1.0
27034,60091.0,Wilmette,Illinois,IL,Cook,42.0765,-87.7246,-1.0
27035,60092.0,Libertyville,Illinois,IL,Lake,42.3228,-87.6101,-1.0
27036,60093.0,Winnetka,Illinois,IL,Cook,42.1054,-87.7535,-1.0
27039,60096.0,Winthrop Harbor,Illinois,IL,Lake,42.4793,-87.8318,-1.0
27040,60097.0,Wonder Lake,Illinois,IL,McHenry,42.3849,-88.3534,-1.0
27042,60099.0,Zion,Illinois,IL,Lake,42.4442,-87.8389,-1.0
27044,60102.0,Algonquin,Illinois,IL,McHenry,42.1641,-88.3064,-1.0
27045,60103.0,Bartlett,Illinois,IL,Cook,41.9794,-88.2063,-1.0
27046,60104.0,Bellwood,Illinois,IL,Cook,41.8825,-87.8786,-1.0
27047,60105.0,Bensenville,Illinois,IL,DuPage,41.8397,-88.0887,-1.0
27048,60106.0,Bensenville,Illinois,IL,DuPage,41.9501,-87.945,-1.0
27049,60107.0,Streamwood,Illinois,IL,Cook,42.0225,-88.169,-1.0
27050,60108.0,Bloomingdale,Illinois,IL,DuPage,41.9483,-88.0782,-1.0
27051,60109.0,Burlington,Illinois,IL,Kane,42.0458,-88.539,-1.0
27053,60111.0,Clare,Illinois,IL,DeKalb,42.0086,-88.8306,-1.0
27054,60112.0,Cortland,Illinois,IL,DeKalb,41.9262,-88.684,-1.0
27055,60113.0,Creston,Illinois,IL,Ogle,41.9312,-88.9566,-1.0
27059,60117.0,Bloomingdale,Illinois,IL,DuPage,41.8397,-88.0887,-1.0
27060,60118.0,Dundee,Illinois,IL,Kane,42.0962,-88.2902,-1.0
27061,60119.0,Elburn,Illinois,IL,Kane,41.8824,-88.4611,-1.0
27070,60129.0,Esmond,Illinois,IL,DeKalb,42.0225,-88.9439,-1.0
27071,60130.0,Forest Park,Illinois,IL,Cook,41.8744,-87.8106,-1.0
27072,60131.0,Franklin Park,Illinois,IL,Cook,41.9339,-87.8734,-1.0
27074,60133.0,Hanover Park,Illinois,IL,DuPage,41.9394,-88.1212,-1.0
27076,60135.0,Genoa,Illinois,IL,DeKalb,42.0981,-88.6908,-1.0
27077,60136.0,Gilberts,Illinois,IL,Kane,42.0984,-88.3691,-1.0
27078,60137.0,Glen Ellyn,Illinois,IL,DuPage,41.8661,-88.0648,-1.0
27079,60138.0,Glen Ellyn,Illinois,IL,DuPage,41.8397,-88.0887,-1.0
27080,60139.0,Glendale Heights,Illinois,IL,DuPage,41.9205,-88.0793,-1.0
27081,60140.0,Hampshire,Illinois,IL,Kane,42.0807,-88.517,-1.0
27082,60141.0,Hines,Illinois,IL,Cook,41.8623,-87.8355,-1.0
27083,60142.0,Huntley,Illinois,IL,McHenry,42.1756,-88.4268,-1.0
27084,60143.0,Itasca,Illinois,IL,DuPage,41.972,-88.0202,-1.0
27085,60144.0,Kaneville,Illinois,IL,Kane,41.937,-88.4202,-1.0
27086,60145.0,Kingston,Illinois,IL,DeKalb,42.1057,-88.7695,-1.0
27087,60146.0,Kirkland,Illinois,IL,DeKalb,42.1014,-88.8685,-1.0
27088,60147.0,Lafox,Illinois,IL,Kane,41.937,-88.4202,-1.0
27089,60148.0,Lombard,Illinois,IL,DuPage,41.8721,-88.016,-1.0
27090,60150.0,Malta,Illinois,IL,DeKalb,41.9183,-88.8688,-1.0
27091,60151.0,Maple Park,Illinois,IL,Kane,41.9232,-88.5998,-1.0
27093,60153.0,Maywood,Illinois,IL,Cook,41.8793,-87.8433,-1.0
27095,60155.0,Broadview,Illinois,IL,Cook,41.8577,-87.8562,-1.0
27096,60156.0,Lake In The Hills,Illinois,IL,McHenry,42.1947,-88.3665,-1.0
27097,60157.0,Medinah,Illinois,IL,DuPage,41.9705,-88.0575,-1.0
27100,60160.0,Melrose Park,Illinois,IL,Cook,41.9003,-87.8581,-1.0
27101,60161.0,Melrose Park,Illinois,IL,Cook,41.8119,-87.6873,-1.0
27102,60162.0,Hillside,Illinois,IL,Cook,41.8725,-87.9016,-1.0
27104,60164.0,Melrose Park,Illinois,IL,Cook,41.9214,-87.8924,-1.0
27107,60169.0,Hoffman Estates,Illinois,IL,-1,42.0493,-88.1065,-1.0
27108,60170.0,Plato Center,Illinois,IL,Kane,42.0258,-88.4259,-1.0
27109,60171.0,River Grove,Illinois,IL,Cook,41.9279,-87.8387,-1.0
27110,60172.0,Roselle,Illinois,IL,DuPage,41.9798,-88.0857,-1.0
27112,60174.0,Saint Charles,Illinois,IL,Kane,41.9194,-88.307,-1.0
27113,60175.0,Saint Charles,Illinois,IL,Kane,41.9478,-88.3918,-1.0
27114,60176.0,Schiller Park,Illinois,IL,Cook,41.9563,-87.8692,-1.0
27115,60177.0,South Elgin,Illinois,IL,Kane,41.9969,-88.2986,-1.0
27116,60178.0,Sycamore,Illinois,IL,DeKalb,41.9911,-88.6928,-1.0
27117,60179.0,Hoffman Estates,Illinois,IL,Cook,42.0793,-88.2237,-1.0
27119,60181.0,Villa Park,Illinois,IL,DuPage,41.8799,-87.9782,-1.0
27120,60182.0,Virgil,Illinois,IL,Kane,41.9087,-88.5992,-1.0
27121,60183.0,Wasco,Illinois,IL,Kane,41.937,-88.4202,-1.0
27122,60184.0,Wayne,Illinois,IL,DuPage,41.9525,-88.2536,-1.0
27123,60185.0,West Chicago,Illinois,IL,DuPage,41.8886,-88.2022,-1.0
27124,60186.0,West Chicago,Illinois,IL,DuPage,41.8397,-88.0887,-1.0
27129,60191.0,Wood Dale,Illinois,IL,DuPage,41.9602,-87.981,-1.0
27146,60296.0,McHenry,Illinois,IL,-1,42.3448,-88.2696,-1.0
27147,60297.0,McHenry,Illinois,IL,-1,42.3448,-88.2696,-1.0
27152,60305.0,River Forest,Illinois,IL,Cook,41.8951,-87.8159,-1.0
27155,60398.0,Franklin Park,Illinois,IL,-1,41.9552,-87.9401,-1.0
27156,60399.0,Wood Dale,Illinois,IL,-1,41.9545,-87.9377,-1.0
27157,60401.0,Beecher,Illinois,IL,Will,41.3444,-87.6115,-1.0
27158,60402.0,Berwyn,Illinois,IL,Cook,41.8347,-87.7914,-1.0
27159,60403.0,Crest Hill,Illinois,IL,-1,41.8397,-87.7905,-1.0
27160,60404.0,Shorewood,Illinois,IL,-1,41.5076,-88.2169,-1.0
27162,60407.0,Braceville,Illinois,IL,Grundy,41.2288,-88.269,-1.0
27163,60408.0,Braidwood,Illinois,IL,Will,41.2657,-88.2231,-1.0
27164,60409.0,Calumet City,Illinois,IL,Cook,41.6153,-87.5483,-1.0
27165,60410.0,Channahon,Illinois,IL,Will,41.4347,-88.2138,-1.0
27166,60411.0,Chicago Heights,Illinois,IL,Cook,41.5087,-87.5904,-1.0
27167,60412.0,Chicago Heights,Illinois,IL,Cook,41.8119,-87.6873,-1.0
27168,60415.0,Chicago Ridge,Illinois,IL,Cook,41.7017,-87.7774,-1.0
27169,60416.0,Coal City,Illinois,IL,Grundy,41.2908,-88.2823,-1.0
27170,60417.0,Crete,Illinois,IL,Will,41.439,-87.6027,-1.0
27171,60419.0,Dolton,Illinois,IL,Cook,41.6257,-87.598,-1.0
27172,60420.0,Dwight,Illinois,IL,Livingston,41.0887,-88.4159,-1.0
27173,60421.0,Elwood,Illinois,IL,Will,41.426,-88.0864,-1.0
27174,60422.0,Flossmoor,Illinois,IL,Cook,41.5406,-87.6837,-1.0
27175,60423.0,Frankfort,Illinois,IL,Will,41.5094,-87.8248,-1.0
27176,60424.0,Gardner,Illinois,IL,Grundy,41.1775,-88.338,-1.0
27178,60426.0,Harvey,Illinois,IL,Cook,41.6103,-87.6534,-1.0
27179,60428.0,Markham,Illinois,IL,Cook,41.5998,-87.6906,-1.0
27181,60430.0,Homewood,Illinois,IL,Cook,41.5556,-87.6616,-1.0
27188,60437.0,Kinsman,Illinois,IL,Grundy,41.1631,-88.5535,-1.0
27189,60438.0,Lansing,Illinois,IL,Cook,41.566,-87.5446,-1.0
27190,60439.0,Lemont,Illinois,IL,DuPage,41.7074,-87.9756,-1.0
27193,60442.0,Manhattan,Illinois,IL,Will,41.4289,-87.9771,-1.0
27194,60443.0,Matteson,Illinois,IL,Cook,41.5102,-87.7406,-1.0
27195,60444.0,Mazon,Illinois,IL,Grundy,41.2264,-88.4217,-1.0
27196,60445.0,Midlothian,Illinois,IL,Cook,41.635,-87.7362,-1.0
27197,60446.0,Romeoville,Illinois,IL,Will,41.6404,-88.0696,-1.0
27199,60448.0,Mokena,Illinois,IL,Will,41.5342,-87.8911,-1.0
27200,60449.0,Monee,Illinois,IL,Will,41.4191,-87.7748,-1.0
27201,60450.0,Morris,Illinois,IL,Grundy,41.3672,-88.4178,-1.0
27202,60451.0,New Lenox,Illinois,IL,Will,41.5067,-87.9631,-1.0
27203,60452.0,Oak Forest,Illinois,IL,Cook,41.6077,-87.7542,-1.0
27206,60455.0,Bridgeview,Illinois,IL,Cook,41.7431,-87.8066,-1.0
27207,60456.0,Hometown,Illinois,IL,Cook,41.7311,-87.7315,-1.0
27208,60457.0,Hickory Hills,Illinois,IL,Cook,41.7262,-87.8289,-1.0
27209,60458.0,Justice,Illinois,IL,Cook,41.7447,-87.8346,-1.0
27210,60459.0,Burbank,Illinois,IL,Cook,41.7447,-87.7699,-1.0
27211,60460.0,Odell,Illinois,IL,Livingston,41.0238,-88.5156,-1.0
27212,60461.0,Olympia Fields,Illinois,IL,Cook,41.5167,-87.6908,-1.0
27213,60462.0,Orland Park,Illinois,IL,Cook,41.6194,-87.8422,-1.0
27214,60463.0,Palos Heights,Illinois,IL,Cook,41.6621,-87.7927,-1.0
27216,60465.0,Palos Hills,Illinois,IL,Cook,41.7004,-87.8263,-1.0
27217,60466.0,Park Forest,Illinois,IL,Cook,41.479,-87.6828,-1.0
27218,60467.0,Orland Park,Illinois,IL,Cook,41.6018,-87.8899,-1.0
27221,60470.0,Ransom,Illinois,IL,La Salle,41.153,-88.6502,-1.0
27222,60471.0,Richton Park,Illinois,IL,Cook,41.4819,-87.7238,-1.0
27223,60472.0,Robbins,Illinois,IL,Cook,41.6423,-87.7089,-1.0
27224,60473.0,South Holland,Illinois,IL,Cook,41.5979,-87.5938,-1.0
27225,60474.0,South Wilmington,Illinois,IL,Grundy,41.1719,-88.2673,-1.0
27226,60475.0,Steger,Illinois,IL,Cook,41.4686,-87.6386,-1.0
27227,60476.0,Thornton,Illinois,IL,Cook,41.5727,-87.6078,-1.0
27229,60478.0,Country Club Hills,Illinois,IL,Cook,41.5637,-87.7247,-1.0
27230,60479.0,Verona,Illinois,IL,Grundy,41.2501,-88.517,-1.0
27231,60480.0,Willow Springs,Illinois,IL,Cook,41.7364,-87.8786,-1.0
27233,60482.0,Worth,Illinois,IL,Cook,41.6895,-87.7863,-1.0
27235,60484.0,University Park,Illinois,IL,Will,41.4418,-87.7101,5.0
27238,60491.0,Homer Glen,Illinois,IL,Will,41.6028,-87.9599,-1.0
27239,60499.0,Bedford Park,Illinois,IL,Cook,41.8119,-87.6873,-1.0
27240,60501.0,Summit Argo,Illinois,IL,Cook,41.7801,-87.824,-1.0
27247,60510.0,Batavia,Illinois,IL,Kane,41.8482,-88.3098,-1.0
27248,60511.0,Big Rock,Illinois,IL,Kane,41.7593,-88.5376,-1.0
27249,60512.0,Bristol,Illinois,IL,Kendall,41.7016,-88.4398,-1.0
27250,60513.0,Brookfield,Illinois,IL,Cook,41.8217,-87.8492,-1.0
27251,60514.0,Clarendon Hills,Illinois,IL,DuPage,41.7965,-87.9569,-1.0
27252,60515.0,Downers Grove,Illinois,IL,DuPage,41.8034,-88.0138,-1.0
27253,60516.0,Downers Grove,Illinois,IL,DuPage,41.7602,-88.0159,-1.0
27255,60518.0,Earlville,Illinois,IL,La Salle,41.5859,-88.9103,-1.0
27256,60519.0,Eola,Illinois,IL,DuPage,41.7772,-88.2462,-1.0
27257,60520.0,Hinckley,Illinois,IL,DeKalb,41.7691,-88.6448,-1.0
27258,60521.0,Hinsdale,Illinois,IL,DuPage,41.8001,-87.9287,-1.0
27259,60522.0,Hinsdale,Illinois,IL,DuPage,41.8397,-88.0887,-1.0
27260,60523.0,Oak Brook,Illinois,IL,DuPage,41.8371,-87.9638,-1.0
27261,60525.0,La Grange,Illinois,IL,Cook,41.7842,-87.8689,-1.0
27262,60526.0,La Grange Park,Illinois,IL,Cook,41.8318,-87.874,-1.0
27264,60530.0,Lee,Illinois,IL,Lee,41.7864,-88.9714,-1.0
27266,60532.0,Lisle,Illinois,IL,DuPage,41.7862,-88.0879,-1.0
27267,60534.0,Lyons,Illinois,IL,Cook,41.813,-87.8236,-1.0
27268,60536.0,Millbrook,Illinois,IL,Kendall,41.5903,-88.562,-1.0
27269,60537.0,Millington,Illinois,IL,Kendall,41.5614,-88.5975,-1.0
27271,60539.0,Mooseheart,Illinois,IL,Kane,41.8241,-88.3315,-1.0
27273,60541.0,Newark,Illinois,IL,Kendall,41.5267,-88.527,-1.0
27274,60542.0,North Aurora,Illinois,IL,Kane,41.8089,-88.3274,-1.0
27275,60543.0,Oswego,Illinois,IL,Kendall,41.6849,-88.3453,-1.0
27276,60544.0,Plainfield,Illinois,IL,Will,41.6009,-88.1994,-1.0
27277,60545.0,Plano,Illinois,IL,Kendall,41.667,-88.5384,-1.0
27278,60546.0,Riverside,Illinois,IL,Cook,41.8379,-87.8213,-1.0
27279,60548.0,Sandwich,Illinois,IL,DeKalb,41.6353,-88.6393,-1.0
27280,60549.0,Serena,Illinois,IL,La Salle,41.4995,-88.7509,-1.0
27281,60550.0,Shabbona,Illinois,IL,DeKalb,41.7638,-88.8752,-1.0
27282,60551.0,Sheridan,Illinois,IL,La Salle,41.5164,-88.6706,-1.0
27283,60552.0,Somonauk,Illinois,IL,DeKalb,41.6383,-88.6816,-1.0
27284,60553.0,Steward,Illinois,IL,Lee,41.8475,-89.0151,-1.0
27285,60554.0,Sugar Grove,Illinois,IL,Kane,41.7741,-88.4397,-1.0
27286,60555.0,Warrenville,Illinois,IL,DuPage,41.828,-88.1921,-1.0
27287,60556.0,Waterman,Illinois,IL,DeKalb,41.7504,-88.7754,-1.0
27288,60557.0,Wedron,Illinois,IL,La Salle,41.4409,-88.7703,-1.0
27289,60558.0,Western Springs,Illinois,IL,Cook,41.8049,-87.8995,-1.0
27290,60559.0,Westmont,Illinois,IL,DuPage,41.7728,-87.9757,-1.0
27291,60560.0,Yorkville,Illinois,IL,Kendall,41.6387,-88.4438,-1.0
27292,60561.0,Darien,Illinois,IL,DuPage,41.7434,-87.9805,-1.0
27299,60570.0,Hinsdale,Illinois,IL,DuPage,41.8397,-88.0887,-1.0
27301,60585.0,Plainfield,Illinois,IL,-1,41.6558,-88.2203,-1.0
27302,60586.0,Plainfield,Illinois,IL,-1,41.5642,-88.2178,-1.0
27304,60599.0,Fox Valley,Illinois,IL,DuPage,41.8397,-88.0887,-1.0
27331,60627.0,Riverdale,Illinois,IL,-1,41.6455,-87.6176,-1.0
27369,60666.0,Amf Ohare,Illinois,IL,Cook,41.968,-87.8912,-1.0
27402,60712.0,Lincolnwood,Illinois,IL,Cook,42.008,-87.7361,-1.0
27404,60799.0,Chicago Bmc,Illinois,IL,-1,42.0275,-87.808,-1.0
27408,60827.0,Riverdale,Illinois,IL,Cook,41.6496,-87.6301,-1.0
27411,60910.0,Aroma Park,Illinois,IL,Kankakee,41.0916,-87.6843,-1.0
27412,60911.0,Ashkum,Illinois,IL,Iroquois,40.8844,-87.9411,-1.0
27413,60912.0,Beaverville,Illinois,IL,Iroquois,40.9672,-87.6217,-1.0
27414,60913.0,Bonfield,Illinois,IL,Kankakee,41.1573,-88.0619,-1.0
27415,60914.0,Bourbonnais,Illinois,IL,Kankakee,41.1661,-87.879,-1.0
27416,60915.0,Bradley,Illinois,IL,Kankakee,41.1454,-87.8601,-1.0
27417,60917.0,Buckingham,Illinois,IL,Kankakee,41.0433,-88.1772,-1.0
27418,60918.0,Buckley,Illinois,IL,Iroquois,40.6018,-88.0361,-1.0
27419,60919.0,Cabery,Illinois,IL,Ford,40.9819,-88.1921,-1.0
27420,60920.0,Campus,Illinois,IL,Livingston,41.0248,-88.3072,-1.0
27421,60921.0,Chatsworth,Illinois,IL,Livingston,40.7484,-88.2937,-1.0
27422,60922.0,Chebanse,Illinois,IL,Iroquois,41.0254,-87.8959,-1.0
27423,60924.0,Cissna Park,Illinois,IL,Iroquois,40.5858,-87.8759,-1.0
27424,60926.0,Claytonville,Illinois,IL,Iroquois,40.5676,-87.804,-1.0
27425,60927.0,Clifton,Illinois,IL,Iroquois,40.9394,-87.9202,-1.0
27426,60928.0,Crescent City,Illinois,IL,Iroquois,40.7417,-87.849,-1.0
27427,60929.0,Cullom,Illinois,IL,Livingston,40.8781,-88.2765,-1.0
27428,60930.0,Danforth,Illinois,IL,Iroquois,40.8244,-87.9868,-1.0
27429,60931.0,Donovan,Illinois,IL,Iroquois,40.8891,-87.6046,-1.0
27430,60932.0,East Lynn,Illinois,IL,Vermilion,40.4633,-87.8056,-1.0
27431,60933.0,Elliott,Illinois,IL,Ford,40.4648,-88.2712,-1.0
27432,60934.0,Emington,Illinois,IL,Livingston,40.9692,-88.3589,-1.0
27433,60935.0,Essex,Illinois,IL,Kankakee,41.1676,-88.1845,-1.0
27434,60936.0,Gibson City,Illinois,IL,Ford,40.4659,-88.3609,-1.0
27435,60938.0,Gilman,Illinois,IL,Iroquois,40.768,-87.9933,-1.0
27436,60939.0,Goodwine,Illinois,IL,Iroquois,40.7481,-87.8288,-1.0
27437,60940.0,Grant Park,Illinois,IL,Kankakee,41.2477,-87.648,-1.0
27438,60941.0,Herscher,Illinois,IL,Kankakee,41.0464,-88.0858,-1.0
27439,60942.0,Hoopeston,Illinois,IL,Vermilion,40.4639,-87.6662,-1.0
27440,60944.0,Hopkins Park,Illinois,IL,Kankakee,41.1465,-87.889,-1.0
27441,60945.0,Iroquois,Illinois,IL,Iroquois,40.8269,-87.5847,-1.0
27442,60946.0,Kempton,Illinois,IL,Ford,40.9126,-88.209,-1.0
27443,60948.0,Loda,Illinois,IL,Iroquois,40.5241,-88.0927,-1.0
27446,60951.0,Martinton,Illinois,IL,Iroquois,40.9052,-87.7443,-1.0
27447,60952.0,Melvin,Illinois,IL,Ford,40.5714,-88.2551,-1.0
27448,60953.0,Milford,Illinois,IL,Iroquois,40.6293,-87.6853,-1.0
27450,60955.0,Onarga,Illinois,IL,Iroquois,40.712,-87.9958,-1.0
27451,60956.0,Papineau,Illinois,IL,Iroquois,40.967,-87.7161,-1.0
27453,60958.0,Pembroke Township,Illinois,IL,Kankakee,41.0646,-87.5917,5.0
27454,60959.0,Piper City,Illinois,IL,Ford,40.7556,-88.1873,-1.0
27455,60960.0,Rankin,Illinois,IL,Vermilion,40.4559,-87.8884,-1.0
27456,60961.0,Reddick,Illinois,IL,Kankakee,41.1005,-88.2089,-1.0
27457,60962.0,Roberts,Illinois,IL,Ford,40.6193,-88.1804,-1.0
27458,60963.0,Rossville,Illinois,IL,Vermilion,40.3625,-87.6692,-1.0
27459,60964.0,Saint Anne,Illinois,IL,Kankakee,41.0487,-87.6564,-1.0
27460,60966.0,Sheldon,Illinois,IL,Iroquois,40.7803,-87.5736,-1.0
27461,60967.0,Stockland,Illinois,IL,Iroquois,40.7481,-87.8288,-1.0
27462,60968.0,Thawville,Illinois,IL,Iroquois,40.684,-88.0999,-1.0
27463,60969.0,Union Hill,Illinois,IL,Kankakee,41.1088,-88.1465,-1.0
27464,60970.0,Watseka,Illinois,IL,Iroquois,40.7734,-87.7309,-1.0
27465,60973.0,Wellington,Illinois,IL,Iroquois,40.5339,-87.6561,-1.0
27466,60974.0,Woodland,Illinois,IL,Iroquois,40.7151,-87.7307,-1.0
27468,61006.0,Ashton,Illinois,IL,Lee,41.8643,-89.2086,-1.0
27469,61007.0,Baileyville,Illinois,IL,Ogle,42.1905,-89.5939,-1.0
27470,61008.0,Belvidere,Illinois,IL,Boone,42.2595,-88.8509,-1.0
27471,61010.0,Byron,Illinois,IL,Ogle,42.1292,-89.2659,-1.0
27472,61011.0,Caledonia,Illinois,IL,Boone,42.3835,-88.9185,-1.0
27473,61012.0,Capron,Illinois,IL,Boone,42.4087,-88.7465,-1.0
27474,61013.0,Cedarville,Illinois,IL,Stephenson,42.3761,-89.6365,-1.0
27475,61014.0,Chadwick,Illinois,IL,Carroll,41.9962,-89.8963,-1.0
27476,61015.0,Chana,Illinois,IL,Ogle,41.9933,-89.2117,-1.0
27477,61016.0,Cherry Valley,Illinois,IL,Winnebago,42.2206,-88.9619,-1.0
27478,61017.0,Coleta,Illinois,IL,Whiteside,41.903,-89.8043,-1.0
27479,61018.0,Dakota,Illinois,IL,Stephenson,42.4031,-89.5468,-1.0
27480,61019.0,Davis,Illinois,IL,Stephenson,42.4422,-89.4067,-1.0
27481,61020.0,Davis Junction,Illinois,IL,Ogle,42.0979,-89.0838,-1.0
27483,61024.0,Durand,Illinois,IL,Winnebago,42.4337,-89.3094,-1.0
27484,61025.0,East Dubuque,Illinois,IL,Jo Daviess,42.4875,-90.6046,-1.0
27485,61027.0,Eleroy,Illinois,IL,Stephenson,42.332,-89.7612,-1.0
27486,61028.0,Elizabeth,Illinois,IL,Jo Daviess,42.3089,-90.1986,-1.0
27487,61030.0,Forreston,Illinois,IL,Ogle,42.1229,-89.5831,-1.0
27488,61031.0,Franklin Grove,Illinois,IL,Lee,41.858,-89.3171,-1.0
27489,61032.0,Freeport,Illinois,IL,Stephenson,42.2991,-89.6345,-1.0
27491,61037.0,Galt,Illinois,IL,Whiteside,41.7865,-89.761,-1.0
27492,61038.0,Garden Prairie,Illinois,IL,Boone,42.251,-88.7437,-1.0
27493,61039.0,German Valley,Illinois,IL,Stephenson,42.2176,-89.4712,-1.0
27494,61041.0,Hanover,Illinois,IL,Jo Daviess,42.2594,-90.2897,-1.0
27495,61042.0,Harmon,Illinois,IL,Lee,41.6973,-89.5695,-1.0
27496,61043.0,Holcomb,Illinois,IL,Ogle,42.0451,-89.3136,-1.0
27497,61044.0,Kent,Illinois,IL,Stephenson,42.3155,-89.9195,-1.0
27498,61045.0,Kings,Illinois,IL,-1,42.014,-89.0997,-1.0
27499,61046.0,Lanark,Illinois,IL,Carroll,42.0935,-89.8247,-1.0
27500,61047.0,Leaf River,Illinois,IL,Ogle,42.1532,-89.3959,-1.0
27501,61048.0,Lena,Illinois,IL,Stephenson,42.3791,-89.8253,-1.0
27502,61049.0,Lindenwood,Illinois,IL,Ogle,42.0507,-89.034,-1.0
27503,61050.0,Mc Connell,Illinois,IL,Stephenson,42.4281,-89.7643,-1.0
27504,61051.0,Milledgeville,Illinois,IL,Carroll,41.9674,-89.7801,-1.0
27505,61052.0,Monroe Center,Illinois,IL,Ogle,42.105,-89.0169,-1.0
27506,61053.0,Mount Carroll,Illinois,IL,Carroll,42.1053,-89.9845,-1.0
27507,61054.0,Mount Morris,Illinois,IL,Ogle,42.0479,-89.4346,-1.0
27508,61057.0,Nachusa,Illinois,IL,Lee,41.8316,-89.3896,-1.0
27509,61058.0,Nelson,Illinois,IL,Lee,41.7973,-89.5995,-1.0
27510,61059.0,Nora,Illinois,IL,Jo Daviess,42.4637,-89.9414,-1.0
27511,61060.0,Orangeville,Illinois,IL,Stephenson,42.4728,-89.6448,-1.0
27513,61062.0,Pearl City,Illinois,IL,Stephenson,42.261,-89.8393,-1.0
27514,61063.0,Pecatonica,Illinois,IL,Winnebago,42.3051,-89.3472,-1.0
27515,61064.0,Polo,Illinois,IL,Ogle,41.989,-89.5984,-1.0
27516,61065.0,Poplar Grove,Illinois,IL,Boone,42.3594,-88.8428,-1.0
27517,61067.0,Ridott,Illinois,IL,Stephenson,42.2996,-89.4627,-1.0
27518,61068.0,Rochelle,Illinois,IL,Ogle,41.9282,-89.071,-1.0
27519,61070.0,Rock City,Illinois,IL,Stephenson,42.4103,-89.4759,-1.0
27520,61071.0,Rock Falls,Illinois,IL,Whiteside,41.7665,-89.6925,-1.0
27521,61072.0,Rockton,Illinois,IL,Winnebago,42.4544,-89.0887,-1.0
27522,61073.0,Roscoe,Illinois,IL,Winnebago,42.4217,-88.9943,-1.0
27523,61074.0,Savanna,Illinois,IL,Carroll,42.0956,-90.1401,-1.0
27524,61075.0,Scales Mound,Illinois,IL,Jo Daviess,42.4715,-90.258,-1.0
27525,61076.0,Scioto Mills,Illinois,IL,Stephenson,42.3554,-89.6679,-1.0
27526,61077.0,Seward,Illinois,IL,Winnebago,42.2368,-89.358,-1.0
27527,61078.0,Shannon,Illinois,IL,Carroll,42.161,-89.7481,-1.0
27528,61079.0,Shirland,Illinois,IL,Winnebago,42.3254,-89.1705,-1.0
27529,61080.0,South Beloit,Illinois,IL,Winnebago,42.4837,-89.0298,-1.0
27530,61081.0,Sterling,Illinois,IL,Whiteside,41.8055,-89.7054,-1.0
27531,61084.0,Stillman Valley,Illinois,IL,Ogle,42.1184,-89.1898,-1.0
27532,61085.0,Stockton,Illinois,IL,Jo Daviess,42.3492,-90.0202,-1.0
27533,61087.0,Warren,Illinois,IL,Jo Daviess,42.489,-89.986,-1.0
27534,61088.0,Winnebago,Illinois,IL,Winnebago,42.2727,-89.2373,-1.0
27535,61089.0,Winslow,Illinois,IL,Stephenson,42.4838,-89.806,-1.0
27536,61091.0,Woosung,Illinois,IL,Ogle,41.9031,-89.5404,-1.0
27547,61111.0,Loves Park,Illinois,IL,Winnebago,42.3295,-89.0335,-1.0
27550,61115.0,Machesney Park,Illinois,IL,Winnebago,42.3545,-89.0397,-1.0
27553,61130.0,Loves Park,Illinois,IL,Winnebago,42.3254,-89.1705,-1.0
27554,61131.0,Loves Park,Illinois,IL,Winnebago,42.3254,-89.1705,-1.0
27555,61132.0,Loves Park,Illinois,IL,Winnebago,42.3254,-89.1705,-1.0
27559,61230.0,Albany,Illinois,IL,Whiteside,41.7659,-90.2081,-1.0
27560,61231.0,Aledo,Illinois,IL,Mercer,41.2008,-90.7416,-1.0
27561,61232.0,Andalusia,Illinois,IL,Rock Island,41.4401,-90.7428,-1.0
27562,61233.0,Andover,Illinois,IL,Henry,41.2954,-90.2905,-1.0
27563,61234.0,Annawan,Illinois,IL,Henry,41.398,-89.9129,-1.0
27564,61235.0,Atkinson,Illinois,IL,Henry,41.4162,-90.0225,-1.0
27565,61236.0,Barstow,Illinois,IL,Rock Island,41.5147,-90.3577,-1.0
27566,61237.0,Buffalo Prairie,Illinois,IL,Rock Island,41.3368,-90.8522,-1.0
27567,61238.0,Cambridge,Illinois,IL,Henry,41.3114,-90.1805,-1.0
27568,61239.0,Carbon Cliff,Illinois,IL,Rock Island,41.4861,-90.3875,-1.0
27569,61240.0,Coal Valley,Illinois,IL,Rock Island,41.4351,-90.4652,-1.0
27570,61241.0,Colona,Illinois,IL,Henry,41.4885,-90.321,-1.0
27571,61242.0,Cordova,Illinois,IL,Rock Island,41.6928,-90.3071,-1.0
27572,61243.0,Deer Grove,Illinois,IL,Whiteside,41.6316,-89.6972,-1.0
27573,61244.0,East Moline,Illinois,IL,Rock Island,41.5118,-90.4321,-1.0
27574,61250.0,Erie,Illinois,IL,Whiteside,41.656,-90.0843,-1.0
27575,61251.0,Fenton,Illinois,IL,Whiteside,41.7285,-90.0457,-1.0
27576,61252.0,Fulton,Illinois,IL,Whiteside,41.8522,-90.1507,-1.0
27577,61254.0,Geneseo,Illinois,IL,Henry,41.4688,-90.1711,-1.0
27578,61256.0,Hampton,Illinois,IL,Rock Island,41.5589,-90.4011,-1.0
27580,61258.0,Hooppole,Illinois,IL,Henry,41.522,-89.9122,-1.0
27581,61259.0,Illinois City,Illinois,IL,Rock Island,41.3892,-90.8925,-1.0
27582,61260.0,Joy,Illinois,IL,Mercer,41.2262,-90.8518,-1.0
27583,61261.0,Lyndon,Illinois,IL,Whiteside,41.7199,-89.9169,-1.0
27584,61262.0,Lynn Center,Illinois,IL,Henry,41.2888,-90.3304,-1.0
27585,61263.0,Matherville,Illinois,IL,Mercer,41.2599,-90.6128,-1.0
27587,61265.0,Moline,Illinois,IL,Rock Island,41.4906,-90.498,-1.0
27588,61266.0,Moline,Illinois,IL,Rock Island,41.5549,-90.616,-1.0
27591,61273.0,Orion,Illinois,IL,Henry,41.3634,-90.3849,-1.0
27592,61274.0,Osco,Illinois,IL,Henry,41.3637,-90.2681,-1.0
27593,61275.0,Port Byron,Illinois,IL,Rock Island,41.6013,-90.3263,-1.0
27594,61276.0,Preemption,Illinois,IL,Mercer,41.2996,-90.5866,-1.0
27595,61277.0,Prophetstown,Illinois,IL,Whiteside,41.6312,-89.9467,-1.0
27596,61278.0,Rapids City,Illinois,IL,Rock Island,41.5859,-90.3432,-1.0
27597,61279.0,Reynolds,Illinois,IL,Rock Island,41.3277,-90.6384,-1.0
27598,61281.0,Sherrard,Illinois,IL,Mercer,41.3027,-90.4939,-1.0
27599,61282.0,Silvis,Illinois,IL,Rock Island,41.5007,-90.4126,-1.0
27600,61283.0,Tampico,Illinois,IL,Whiteside,41.6522,-89.7948,-1.0
27601,61284.0,Taylor Ridge,Illinois,IL,Rock Island,41.3828,-90.734,-1.0
27602,61285.0,Thomson,Illinois,IL,Carroll,41.9816,-90.0844,-1.0
27604,61301.0,La Salle,Illinois,IL,La Salle,41.3442,-89.0955,-1.0
27605,61310.0,Amboy,Illinois,IL,Lee,41.7042,-89.3472,-1.0
27606,61311.0,Ancona,Illinois,IL,Livingston,41.0426,-88.8642,-1.0
27607,61312.0,Arlington,Illinois,IL,Bureau,41.4437,-89.2219,-1.0
27608,61313.0,Blackstone,Illinois,IL,Livingston,41.0719,-88.6498,-1.0
27609,61314.0,Buda,Illinois,IL,Bureau,41.314,-89.6795,-1.0
27610,61315.0,Bureau,Illinois,IL,Bureau,41.2894,-89.3686,-1.0
27611,61316.0,Cedar Point,Illinois,IL,La Salle,41.2617,-89.1237,-1.0
27612,61317.0,Cherry,Illinois,IL,Bureau,41.4264,-89.2126,-1.0
27613,61318.0,Compton,Illinois,IL,Lee,41.685,-89.0877,-1.0
27614,61319.0,Cornell,Illinois,IL,Livingston,41.031,-88.7668,-1.0
27615,61320.0,Dalzell,Illinois,IL,Bureau,41.3547,-89.1705,-1.0
27616,61321.0,Dana,Illinois,IL,La Salle,40.9547,-88.9628,-1.0
27617,61322.0,Depue,Illinois,IL,Bureau,41.3092,-89.3252,-1.0
27618,61323.0,Dover,Illinois,IL,Bureau,41.4362,-89.396,-1.0
27619,61324.0,Eldena,Illinois,IL,Lee,41.7711,-89.4123,-1.0
27620,61325.0,Grand Ridge,Illinois,IL,La Salle,41.2386,-88.8168,-1.0
27623,61328.0,Kasbeer,Illinois,IL,Bureau,41.3669,-89.5131,-1.0
27624,61329.0,Ladd,Illinois,IL,Bureau,41.3795,-89.2038,-1.0
27625,61330.0,La Moille,Illinois,IL,Bureau,41.5376,-89.297,-1.0
27626,61331.0,Lee Center,Illinois,IL,Lee,41.7488,-89.2827,-1.0
27627,61332.0,Leonore,Illinois,IL,La Salle,41.1488,-89.0091,-1.0
27628,61333.0,Long Point,Illinois,IL,Livingston,40.9896,-88.8811,-1.0
27629,61334.0,Lostant,Illinois,IL,La Salle,41.145,-89.075,-1.0
27630,61335.0,Mc Nabb,Illinois,IL,Putnam,41.173,-89.2187,-1.0
27631,61336.0,Magnolia,Illinois,IL,Putnam,41.1164,-89.227,-1.0
27632,61337.0,Malden,Illinois,IL,Bureau,41.4223,-89.3355,-1.0
27633,61338.0,Manlius,Illinois,IL,Bureau,41.4555,-89.6697,-1.0
27634,61340.0,Mark,Illinois,IL,Putnam,41.266,-89.2491,-1.0
27635,61341.0,Marseilles,Illinois,IL,La Salle,41.3302,-88.6947,-1.0
27636,61342.0,Mendota,Illinois,IL,La Salle,41.5443,-89.1083,-1.0
27637,61344.0,Mineral,Illinois,IL,Bureau,41.4036,-89.8201,-1.0
27638,61345.0,Neponset,Illinois,IL,Bureau,41.2905,-89.7944,-1.0
27639,61346.0,New Bedford,Illinois,IL,Bureau,41.5122,-89.7199,-1.0
27640,61348.0,Oglesby,Illinois,IL,La Salle,41.2928,-89.0553,-1.0
27641,61349.0,Ohio,Illinois,IL,Bureau,41.5371,-89.4574,-1.0
27642,61350.0,Ottawa,Illinois,IL,La Salle,41.3526,-88.8416,-1.0
27643,61353.0,Paw Paw,Illinois,IL,Lee,41.6852,-88.9674,-1.0
27644,61354.0,Peru,Illinois,IL,La Salle,41.333,-89.1265,-1.0
27645,61356.0,Princeton,Illinois,IL,Bureau,41.3629,-89.427,-1.0
27646,61358.0,Rutland,Illinois,IL,La Salle,40.9844,-89.0388,-1.0
27647,61359.0,Seatonville,Illinois,IL,Bureau,41.3613,-89.2691,-1.0
27648,61360.0,Seneca,Illinois,IL,La Salle,41.3152,-88.61,-1.0
27649,61361.0,Sheffield,Illinois,IL,Bureau,41.3949,-89.7115,-1.0
27650,61362.0,Spring Valley,Illinois,IL,Bureau,41.3279,-89.2042,-1.0
27651,61363.0,Standard,Illinois,IL,Putnam,41.2567,-89.1778,-1.0
27652,61364.0,Streator,Illinois,IL,La Salle,41.1225,-88.8307,-1.0
27653,61367.0,Sublette,Illinois,IL,Lee,41.6331,-89.2354,-1.0
27654,61368.0,Tiskilwa,Illinois,IL,Bureau,41.2891,-89.508,-1.0
27655,61369.0,Toluca,Illinois,IL,Marshall,41.0046,-89.1348,-1.0
27656,61370.0,Tonica,Illinois,IL,La Salle,41.2327,-89.089,-1.0
27657,61371.0,Triumph,Illinois,IL,La Salle,41.4991,-89.0219,-1.0
27658,61372.0,Troy Grove,Illinois,IL,La Salle,41.4518,-89.0705,-1.0
27659,61373.0,Utica,Illinois,IL,La Salle,41.363,-89.0008,-1.0
27660,61374.0,Van Orin,Illinois,IL,Bureau,41.3669,-89.5131,-1.0
27661,61375.0,Varna,Illinois,IL,Marshall,41.0327,-89.2483,-1.0
27662,61376.0,Walnut,Illinois,IL,Bureau,41.5394,-89.6092,-1.0
27663,61377.0,Wenona,Illinois,IL,Marshall,41.0548,-89.0416,-1.0
27664,61378.0,West Brooklyn,Illinois,IL,Lee,41.7292,-89.1909,-1.0
27665,61379.0,Wyanet,Illinois,IL,Bureau,41.3785,-89.5744,-1.0
27668,61410.0,Abingdon,Illinois,IL,Knox,40.8023,-90.4009,-1.0
27669,61411.0,Adair,Illinois,IL,McDonough,40.3852,-90.5037,-1.0
27670,61412.0,Alexis,Illinois,IL,Mercer,41.0521,-90.5436,-1.0
27671,61413.0,Alpha,Illinois,IL,Henry,41.193,-90.3821,-1.0
27672,61414.0,Altona,Illinois,IL,Knox,41.1128,-90.1598,-1.0
27674,61416.0,Bardolph,Illinois,IL,McDonough,40.4979,-90.5088,-1.0
27675,61417.0,Berwick,Illinois,IL,Warren,40.7799,-90.5059,-1.0
27676,61418.0,Biggsville,Illinois,IL,Henderson,40.8531,-90.8561,-1.0
27677,61419.0,Bishop Hill,Illinois,IL,Henry,41.1977,-90.1183,-1.0
27678,61420.0,Blandinsville,Illinois,IL,McDonough,40.5516,-90.8595,-1.0
27679,61421.0,Bradford,Illinois,IL,Stark,41.1532,-89.6521,-1.0
27681,61423.0,Cameron,Illinois,IL,Warren,40.889,-90.5001,-1.0
27682,61424.0,Camp Grove,Illinois,IL,Marshall,41.078,-89.6332,-1.0
27683,61425.0,Carman,Illinois,IL,Henderson,40.7551,-91.0564,-1.0
27684,61426.0,Castleton,Illinois,IL,Stark,41.1183,-89.7072,-1.0
27685,61427.0,Cuba,Illinois,IL,Fulton,40.4995,-90.1811,-1.0
27686,61428.0,Dahinda,Illinois,IL,Knox,40.9551,-90.1398,-1.0
27687,61430.0,East Galesburg,Illinois,IL,Knox,40.9402,-90.3109,-1.0
27688,61431.0,Ellisville,Illinois,IL,Fulton,40.6047,-90.2875,-1.0
27689,61432.0,Fairview,Illinois,IL,Fulton,40.6442,-90.1653,-1.0
27690,61433.0,Fiatt,Illinois,IL,Fulton,40.4493,-90.1618,-1.0
27691,61434.0,Galva,Illinois,IL,Henry,41.1656,-90.0481,-1.0
27692,61435.0,Gerlaw,Illinois,IL,Warren,40.9863,-90.5491,-1.0
27693,61436.0,Gilson,Illinois,IL,Knox,40.8765,-90.1747,-1.0
27694,61437.0,Gladstone,Illinois,IL,Henderson,40.8377,-90.9941,-1.0
27695,61438.0,Good Hope,Illinois,IL,McDonough,40.5749,-90.6324,-1.0
27696,61439.0,Henderson,Illinois,IL,Knox,41.0276,-90.3575,-1.0
27697,61440.0,Industry,Illinois,IL,McDonough,40.3256,-90.6105,-1.0
27698,61441.0,Ipava,Illinois,IL,Fulton,40.3594,-90.2967,-1.0
27699,61442.0,Keithsburg,Illinois,IL,Mercer,41.1043,-90.9263,-1.0
27700,61443.0,Kewanee,Illinois,IL,Henry,41.2411,-89.9274,-1.0
27701,61447.0,Kirkwood,Illinois,IL,Warren,40.8638,-90.7457,-1.0
27702,61448.0,Knoxville,Illinois,IL,Knox,40.9107,-90.2871,-1.0
27703,61449.0,La Fayette,Illinois,IL,Stark,41.1095,-89.9575,-1.0
27704,61450.0,La Harpe,Illinois,IL,Hancock,40.5846,-90.9687,-1.0
27705,61451.0,Laura,Illinois,IL,Peoria,40.9335,-89.9349,-1.0
27706,61452.0,Littleton,Illinois,IL,Schuyler,40.2339,-90.619,-1.0
27707,61453.0,Little York,Illinois,IL,Warren,41.0153,-90.7364,-1.0
27708,61454.0,Lomax,Illinois,IL,Henderson,40.6761,-91.0391,-1.0
27709,61455.0,Macomb,Illinois,IL,McDonough,40.4617,-90.6787,-1.0
27710,61458.0,Maquon,Illinois,IL,Knox,40.7849,-90.2008,-1.0
27711,61459.0,Marietta,Illinois,IL,Fulton,40.4978,-90.3885,-1.0
27712,61460.0,Media,Illinois,IL,Henderson,40.7618,-90.857,-1.0
27713,61462.0,Monmouth,Illinois,IL,Warren,40.9107,-90.6448,-1.0
27714,61465.0,New Windsor,Illinois,IL,Mercer,41.1987,-90.4598,-1.0
27715,61466.0,North Henderson,Illinois,IL,Mercer,41.1006,-90.4736,-1.0
27716,61467.0,Oneida,Illinois,IL,Knox,41.0832,-90.2391,-1.0
27717,61468.0,Opheim,Illinois,IL,Henry,41.2577,-90.3878,-1.0
27718,61469.0,Oquawka,Illinois,IL,Henderson,40.9442,-90.9302,-1.0
27719,61470.0,Prairie City,Illinois,IL,McDonough,40.618,-90.4727,-1.0
27720,61471.0,Raritan,Illinois,IL,Henderson,40.8526,-90.9853,-1.0
27721,61472.0,Rio,Illinois,IL,Knox,41.1103,-90.39,-1.0
27722,61473.0,Roseville,Illinois,IL,Warren,40.7238,-90.6514,-1.0
27723,61474.0,Saint Augustine,Illinois,IL,Knox,40.7289,-90.3798,-1.0
27724,61475.0,Sciota,Illinois,IL,McDonough,40.5832,-90.7316,-1.0
27725,61476.0,Seaton,Illinois,IL,Mercer,41.0732,-90.8257,-1.0
27726,61477.0,Smithfield,Illinois,IL,Fulton,40.4855,-90.2856,-1.0
27727,61478.0,Smithshire,Illinois,IL,Warren,40.7579,-90.7606,-1.0
27728,61479.0,Speer,Illinois,IL,Stark,40.9872,-89.652,-1.0
27729,61480.0,Stronghurst,Illinois,IL,Henderson,40.7523,-90.9257,-1.0
27730,61482.0,Table Grove,Illinois,IL,Fulton,40.3784,-90.4239,-1.0
27731,61483.0,Toulon,Illinois,IL,Stark,41.1009,-89.8606,-1.0
27732,61484.0,Vermont,Illinois,IL,Fulton,40.3062,-90.422,-1.0
27733,61485.0,Victoria,Illinois,IL,Knox,41.0256,-90.0933,-1.0
27734,61486.0,Viola,Illinois,IL,Mercer,41.2024,-90.5936,-1.0
27735,61488.0,Wataga,Illinois,IL,Knox,41.0224,-90.2723,-1.0
27736,61489.0,Williamsfield,Illinois,IL,Knox,40.9277,-90.0267,-1.0
27737,61490.0,Woodhull,Illinois,IL,Henry,41.1849,-90.2833,-1.0
27738,61491.0,Wyoming,Illinois,IL,Stark,41.0599,-89.7782,-1.0
27739,61501.0,Astoria,Illinois,IL,Fulton,40.2311,-90.3443,-1.0
27740,61516.0,Benson,Illinois,IL,Woodford,40.8306,-89.1165,-1.0
27741,61517.0,Brimfield,Illinois,IL,Peoria,40.8407,-89.897,-1.0
27742,61518.0,Brimfield,Illinois,IL,Peoria,40.7442,-89.7184,-1.0
27743,61519.0,Bryant,Illinois,IL,Fulton,40.4663,-90.091,-1.0
27746,61524.0,Dunfermline,Illinois,IL,Fulton,40.4916,-90.0419,-1.0
27747,61525.0,Dunlap,Illinois,IL,Peoria,40.8444,-89.6397,-1.0
27748,61526.0,Edelstein,Illinois,IL,Peoria,40.9454,-89.5858,-1.0
27749,61528.0,Edwards,Illinois,IL,Peoria,40.779,-89.723,-1.0
27752,61531.0,Farmington,Illinois,IL,Fulton,40.6832,-90.035,-1.0
27753,61532.0,Forest City,Illinois,IL,Mason,40.3594,-89.8334,-1.0
27754,61533.0,Glasford,Illinois,IL,Peoria,40.576,-89.8113,-1.0
27755,61534.0,Green Valley,Illinois,IL,Tazewell,40.4198,-89.6549,-1.0
27756,61535.0,Groveland,Illinois,IL,Tazewell,40.601,-89.5571,-1.0
27757,61536.0,Hanna City,Illinois,IL,Peoria,40.6798,-89.7952,-1.0
27758,61537.0,Henry,Illinois,IL,Marshall,41.1115,-89.3743,-1.0
27759,61539.0,Kingston Mines,Illinois,IL,Peoria,40.5571,-89.7685,-1.0
27760,61540.0,Lacon,Illinois,IL,Marshall,41.0216,-89.4008,-1.0
27761,61541.0,La Rose,Illinois,IL,Marshall,41.0063,-89.2269,-1.0
27763,61543.0,Liverpool,Illinois,IL,Fulton,40.3902,-90.0026,-1.0
27764,61544.0,London Mills,Illinois,IL,Fulton,40.695,-90.2616,-1.0
27765,61545.0,Lowpoint,Illinois,IL,Woodford,40.8793,-89.3703,-1.0
27766,61546.0,Manito,Illinois,IL,Mason,40.416,-89.7898,-1.0
27767,61547.0,Mapleton,Illinois,IL,Peoria,40.6117,-89.7184,-1.0
27768,61548.0,Metamora,Illinois,IL,Woodford,40.7844,-89.4309,-1.0
27770,61552.0,Mossville,Illinois,IL,Peoria,40.818,-89.568,-1.0
27771,61553.0,Norris,Illinois,IL,Fulton,40.6259,-90.0323,-1.0
27772,61554.0,Pekin,Illinois,IL,Tazewell,40.5674,-89.6243,-1.0
27773,61555.0,Pekin,Illinois,IL,Tazewell,40.5607,-89.6502,-1.0
27774,61558.0,Pekin,Illinois,IL,Tazewell,40.5545,-89.61,-1.0
27775,61559.0,Princeville,Illinois,IL,Stark,40.9093,-89.7723,-1.0
27776,61560.0,Putnam,Illinois,IL,Putnam,41.1949,-89.4409,-1.0
27777,61561.0,Roanoke,Illinois,IL,Woodford,40.7956,-89.2093,-1.0
27778,61562.0,Rome,Illinois,IL,Peoria,40.8743,-89.5067,-1.0
27779,61563.0,Saint David,Illinois,IL,Fulton,40.4912,-90.0505,-1.0
27780,61564.0,South Pekin,Illinois,IL,Tazewell,40.4948,-89.6546,-1.0
27781,61565.0,Sparland,Illinois,IL,Marshall,41.0134,-89.4571,-1.0
27782,61567.0,Topeka,Illinois,IL,Mason,40.3443,-89.8859,-1.0
27783,61568.0,Tremont,Illinois,IL,Tazewell,40.5053,-89.4833,-1.0
27784,61569.0,Trivoli,Illinois,IL,Peoria,40.6795,-89.9135,-1.0
27785,61570.0,Washburn,Illinois,IL,Marshall,40.9141,-89.283,-1.0
27786,61571.0,Washington,Illinois,IL,Tazewell,40.7034,-89.4194,-1.0
27787,61572.0,Yates City,Illinois,IL,Knox,40.7878,-90.0265,-1.0
27795,61610.0,Creve Coeur,Illinois,IL,Tazewell,40.6428,-89.5988,-1.0
27831,61720.0,Anchor,Illinois,IL,McLean,40.5441,-88.5266,-1.0
27832,61721.0,Armington,Illinois,IL,Tazewell,40.3613,-89.3231,-1.0
27833,61722.0,Arrowsmith,Illinois,IL,McLean,40.412,-88.6296,-1.0
27834,61723.0,Atlanta,Illinois,IL,Logan,40.2586,-89.23,-1.0
27835,61724.0,Bellflower,Illinois,IL,McLean,40.3401,-88.5227,-1.0
27836,61725.0,Carlock,Illinois,IL,McLean,40.6029,-89.1098,-1.0
27837,61726.0,Chenoa,Illinois,IL,McLean,40.7446,-88.7219,-1.0
27839,61728.0,Colfax,Illinois,IL,McLean,40.5704,-88.62,-1.0
27840,61729.0,Congerville,Illinois,IL,Woodford,40.6208,-89.1994,-1.0
27841,61730.0,Cooksville,Illinois,IL,McLean,40.536,-88.735,-1.0
27842,61731.0,Cropsey,Illinois,IL,McLean,40.603,-88.4943,-1.0
27843,61732.0,Danvers,Illinois,IL,McLean,40.5364,-89.1885,-1.0
27844,61733.0,Deer Creek,Illinois,IL,Tazewell,40.6224,-89.3323,-1.0
27845,61734.0,Delavan,Illinois,IL,Tazewell,40.369,-89.5321,-1.0
27846,61735.0,Dewitt,Illinois,IL,De Witt,40.1848,-88.7637,-1.0
27847,61736.0,Downs,Illinois,IL,McLean,40.3989,-88.8686,-1.0
27848,61737.0,Ellsworth,Illinois,IL,McLean,40.4432,-88.7371,-1.0
27849,61738.0,El Paso,Illinois,IL,Woodford,40.7389,-89.012,-1.0
27850,61739.0,Fairbury,Illinois,IL,Livingston,40.745,-88.5165,-1.0
27851,61740.0,Flanagan,Illinois,IL,Livingston,40.879,-88.862,-1.0
27852,61741.0,Forrest,Illinois,IL,Livingston,40.7513,-88.4111,-1.0
27853,61742.0,Goodfield,Illinois,IL,Woodford,40.6329,-89.2727,-1.0
27854,61743.0,Graymont,Illinois,IL,Livingston,40.8757,-88.7817,-1.0
27855,61744.0,Gridley,Illinois,IL,McLean,40.7439,-88.884,-1.0
27856,61745.0,Heyworth,Illinois,IL,McLean,40.3307,-88.9776,-1.0
27857,61747.0,Hopedale,Illinois,IL,Tazewell,40.4273,-89.4214,-1.0
27858,61748.0,Hudson,Illinois,IL,McLean,40.6205,-88.9759,-1.0
27859,61749.0,Kenney,Illinois,IL,De Witt,40.1115,-89.0622,-1.0
27860,61750.0,Lane,Illinois,IL,De Witt,40.1235,-88.8597,-1.0
27861,61751.0,Lawndale,Illinois,IL,Logan,40.2193,-89.2852,-1.0
27862,61752.0,Le Roy,Illinois,IL,McLean,40.3468,-88.7598,-1.0
27863,61753.0,Lexington,Illinois,IL,McLean,40.6357,-88.8062,-1.0
27864,61754.0,Mc Lean,Illinois,IL,McLean,40.3282,-89.1645,-1.0
27865,61755.0,Mackinaw,Illinois,IL,Tazewell,40.5396,-89.3458,-1.0
27866,61756.0,Maroa,Illinois,IL,Macon,40.0342,-88.9578,-1.0
27867,61758.0,Merna,Illinois,IL,McLean,40.5192,-88.8643,-1.0
27868,61759.0,Minier,Illinois,IL,Tazewell,40.4359,-89.3165,-1.0
27869,61760.0,Minonk,Illinois,IL,Woodford,40.8985,-89.0349,-1.0
27871,61764.0,Pontiac,Illinois,IL,Livingston,40.8764,-88.6328,-1.0
27872,61769.0,Saunemin,Illinois,IL,Livingston,40.8885,-88.4094,-1.0
27873,61770.0,Saybrook,Illinois,IL,McLean,40.432,-88.5247,-1.0
27874,61771.0,Secor,Illinois,IL,Woodford,40.7224,-89.1271,-1.0
27875,61772.0,Shirley,Illinois,IL,McLean,40.4174,-89.0822,-1.0
27876,61773.0,Sibley,Illinois,IL,Ford,40.5823,-88.3815,-1.0
27877,61774.0,Stanford,Illinois,IL,McLean,40.4376,-89.2164,-1.0
27878,61775.0,Strawn,Illinois,IL,Livingston,40.6476,-88.404,-1.0
27879,61776.0,Towanda,Illinois,IL,McLean,40.5533,-88.8886,-1.0
27880,61777.0,Wapella,Illinois,IL,De Witt,40.2323,-88.9673,-1.0
27881,61778.0,Waynesville,Illinois,IL,De Witt,40.2437,-89.1143,-1.0
27888,61810.0,Allerton,Illinois,IL,Vermilion,39.9188,-87.9312,-1.0
27889,61811.0,Alvin,Illinois,IL,Vermilion,40.3007,-87.608,-1.0
27890,61812.0,Armstrong,Illinois,IL,Vermilion,40.2175,-87.8943,-1.0
27891,61813.0,Bement,Illinois,IL,Piatt,39.9222,-88.5688,-1.0
27892,61814.0,Bismarck,Illinois,IL,Vermilion,40.2552,-87.6138,-1.0
27893,61815.0,Bondville,Illinois,IL,Champaign,40.1084,-88.3782,-1.0
27894,61816.0,Broadlands,Illinois,IL,Champaign,39.9142,-87.9948,-1.0
27895,61817.0,Catlin,Illinois,IL,Vermilion,40.0699,-87.7113,-1.0
27896,61818.0,Cerro Gordo,Illinois,IL,Piatt,39.8681,-88.7256,-1.0
27897,61820.0,Champaign,Illinois,IL,Champaign,40.111,-88.2407,-1.0
27898,61821.0,Champaign,Illinois,IL,Champaign,40.1073,-88.2788,-1.0
27899,61822.0,Champaign,Illinois,IL,Champaign,40.1317,-88.2854,-1.0
27900,61824.0,Champaign,Illinois,IL,Champaign,40.1399,-88.1961,-1.0
27901,61825.0,Champaign,Illinois,IL,Champaign,40.1399,-88.1961,-1.0
27902,61826.0,Champaign,Illinois,IL,Champaign,40.1131,-88.3613,-1.0
27903,61830.0,Cisco,Illinois,IL,Piatt,39.9972,-88.6962,-1.0
27904,61831.0,Collison,Illinois,IL,Vermilion,40.2207,-87.7987,-1.0
27906,61833.0,Tilton,Illinois,IL,Vermilion,40.0964,-87.644,-1.0
27908,61839.0,De Land,Illinois,IL,Piatt,40.1107,-88.6392,-1.0
27909,61840.0,Dewey,Illinois,IL,Champaign,40.3131,-88.277,-1.0
27910,61841.0,Fairmount,Illinois,IL,Vermilion,40.0373,-87.8365,-1.0
27911,61842.0,Farmer City,Illinois,IL,De Witt,40.2447,-88.6634,-1.0
27912,61843.0,Fisher,Illinois,IL,Champaign,40.2991,-88.356,-1.0
27913,61844.0,Fithian,Illinois,IL,Vermilion,40.1192,-87.8797,-1.0
27914,61845.0,Foosland,Illinois,IL,Champaign,40.3554,-88.4202,-1.0
27915,61846.0,Georgetown,Illinois,IL,Vermilion,39.9792,-87.6365,-1.0
27916,61847.0,Gifford,Illinois,IL,Champaign,40.3028,-88.0317,-1.0
27917,61848.0,Henning,Illinois,IL,Vermilion,40.304,-87.7007,-1.0
27918,61849.0,Homer,Illinois,IL,Champaign,40.0346,-87.9627,-1.0
27919,61850.0,Indianola,Illinois,IL,Vermilion,39.9268,-87.7388,-1.0
27920,61851.0,Ivesdale,Illinois,IL,Champaign,39.9502,-88.4451,-1.0
27921,61852.0,Longview,Illinois,IL,Champaign,39.9012,-88.0753,-1.0
27922,61853.0,Mahomet,Illinois,IL,Champaign,40.1964,-88.3928,-1.0
27923,61854.0,Mansfield,Illinois,IL,Piatt,40.2147,-88.5179,-1.0
27924,61855.0,Milmine,Illinois,IL,Piatt,39.9238,-88.6599,-1.0
27926,61857.0,Muncie,Illinois,IL,Vermilion,40.1165,-87.8447,-1.0
27927,61858.0,Oakwood,Illinois,IL,Vermilion,40.1167,-87.7825,-1.0
27928,61859.0,Ogden,Illinois,IL,Champaign,40.1401,-87.9665,-1.0
27929,61862.0,Penfield,Illinois,IL,Champaign,40.3101,-87.957,-1.0
27930,61863.0,Pesotum,Illinois,IL,Champaign,39.9151,-88.2743,-1.0
27931,61864.0,Philo,Illinois,IL,Champaign,40.0052,-88.1595,-1.0
27932,61865.0,Potomac,Illinois,IL,Vermilion,40.309,-87.8232,-1.0
27933,61866.0,Rantoul,Illinois,IL,Champaign,40.3107,-88.1462,-1.0
27934,61868.0,Rantoul,Illinois,IL,-1,40.2959,-88.1499,-1.0
27935,61870.0,Ridge Farm,Illinois,IL,Vermilion,39.9155,-87.6346,-1.0
27936,61871.0,Royal,Illinois,IL,Champaign,40.1924,-87.9742,-1.0
27937,61872.0,Sadorus,Illinois,IL,Champaign,39.9613,-88.3447,-1.0
27938,61873.0,Saint Joseph,Illinois,IL,Champaign,40.1207,-88.0472,-1.0
27939,61874.0,Savoy,Illinois,IL,Champaign,40.0654,-88.2528,-1.0
27940,61875.0,Seymour,Illinois,IL,Champaign,40.1035,-88.3944,-1.0
27941,61876.0,Sidell,Illinois,IL,Vermilion,39.911,-87.8248,-1.0
27942,61877.0,Sidney,Illinois,IL,Champaign,40.0232,-88.069,-1.0
27943,61878.0,Thomasboro,Illinois,IL,Champaign,40.2402,-88.183,-1.0
27944,61880.0,Tolono,Illinois,IL,Champaign,39.985,-88.2596,-1.0
27945,61882.0,Weldon,Illinois,IL,De Witt,40.1177,-88.7531,-1.0
27946,61883.0,Westville,Illinois,IL,Vermilion,40.0451,-87.636,-1.0
27947,61884.0,White Heath,Illinois,IL,Piatt,40.1009,-88.5193,-1.0
27948,61910.0,Arcola,Illinois,IL,Douglas,39.687,-88.3037,-1.0
27949,61911.0,Arthur,Illinois,IL,Douglas,39.7077,-88.4555,-1.0
27950,61912.0,Ashmore,Illinois,IL,Coles,39.5254,-88.0341,-1.0
27951,61913.0,Atwood,Illinois,IL,Douglas,39.8044,-88.4494,-1.0
27952,61914.0,Bethany,Illinois,IL,Moultrie,39.6348,-88.7543,-1.0
27953,61917.0,Brocton,Illinois,IL,Edgar,39.6923,-87.9263,-1.0
27954,61919.0,Camargo,Illinois,IL,Douglas,39.8,-88.1468,-1.0
27956,61924.0,Chrisman,Illinois,IL,Edgar,39.7996,-87.6556,-1.0
27957,61925.0,Dalton City,Illinois,IL,Moultrie,39.7119,-88.7975,-1.0
27958,61928.0,Gays,Illinois,IL,Moultrie,39.4796,-88.5242,-1.0
27959,61929.0,Hammond,Illinois,IL,Piatt,39.7946,-88.5793,-1.0
27960,61930.0,Hindsboro,Illinois,IL,Douglas,39.7018,-88.1486,-1.0
27961,61931.0,Humboldt,Illinois,IL,Coles,39.6012,-88.3141,-1.0
27962,61932.0,Hume,Illinois,IL,Edgar,39.8009,-87.8747,-1.0
27963,61933.0,Kansas,Illinois,IL,Edgar,39.5525,-87.9352,-1.0
27964,61936.0,La Place,Illinois,IL,Piatt,39.7983,-88.7272,-1.0
27965,61937.0,Lovington,Illinois,IL,Moultrie,39.7192,-88.6417,-1.0
27967,61940.0,Metcalf,Illinois,IL,Edgar,39.8008,-87.7955,-1.0
27968,61941.0,Murdock,Illinois,IL,Douglas,39.8,-88.183,-1.0
27969,61942.0,Newman,Illinois,IL,Douglas,39.7848,-88.0001,-1.0
27970,61943.0,Oakland,Illinois,IL,Coles,39.6516,-88.0253,-1.0
27972,61949.0,Redmon,Illinois,IL,Edgar,39.6601,-87.8633,-1.0
27973,61951.0,Sullivan,Illinois,IL,Moultrie,39.5934,-88.6038,-1.0
27974,61953.0,Tuscola,Illinois,IL,Douglas,39.7995,-88.2816,-1.0
27975,61955.0,Vermilion,Illinois,IL,Edgar,39.6799,-87.7502,-1.0
27976,61956.0,Villa Grove,Illinois,IL,Douglas,39.8687,-88.1616,-1.0
27977,61957.0,Windsor,Illinois,IL,Shelby,39.4302,-88.5857,-1.0
27978,62001.0,Alhambra,Illinois,IL,Madison,38.8822,-89.7441,-1.0
27980,62006.0,Batchtown,Illinois,IL,Calhoun,39.0725,-90.6591,-1.0
27981,62009.0,Benld,Illinois,IL,Macoupin,39.0939,-89.8031,-1.0
27982,62010.0,Bethalto,Illinois,IL,Madison,38.9074,-90.0344,-1.0
27983,62011.0,Bingham,Illinois,IL,Fayette,39.1128,-89.2125,-1.0
27984,62012.0,Brighton,Illinois,IL,Jersey,39.0361,-90.1443,-1.0
27985,62013.0,Brussels,Illinois,IL,Calhoun,38.9255,-90.5968,-1.0
27986,62014.0,Bunker Hill,Illinois,IL,Macoupin,39.0408,-89.9624,-1.0
27987,62015.0,Butler,Illinois,IL,Montgomery,39.2114,-89.5305,-1.0
27988,62016.0,Carrollton,Illinois,IL,Greene,39.3009,-90.4092,-1.0
27989,62017.0,Coffeen,Illinois,IL,Montgomery,39.0908,-89.3945,-1.0
27990,62018.0,Cottage Hills,Illinois,IL,Madison,38.9124,-90.0826,-1.0
27991,62019.0,Donnellson,Illinois,IL,Bond,39.0344,-89.4909,-1.0
27992,62021.0,Dorsey,Illinois,IL,Madison,38.9832,-89.9786,-1.0
27993,62022.0,Dow,Illinois,IL,Jersey,39.0312,-90.3011,-1.0
27994,62023.0,Eagarville,Illinois,IL,Macoupin,39.1118,-89.7855,-1.0
27995,62024.0,East Alton,Illinois,IL,Madison,38.8803,-90.083,-1.0
27996,62025.0,Edwardsville,Illinois,IL,Madison,38.805,-89.9637,-1.0
27997,62026.0,Edwardsville,Illinois,IL,Madison,38.7337,-89.943,-1.0
27998,62027.0,Eldred,Illinois,IL,Greene,39.2836,-90.5329,-1.0
27999,62028.0,Elsah,Illinois,IL,Jersey,38.9594,-90.3541,-1.0
28000,62030.0,Fidelity,Illinois,IL,Jersey,39.1546,-90.1642,-1.0
28001,62031.0,Fieldon,Illinois,IL,Jersey,39.1086,-90.5297,-1.0
28002,62032.0,Fillmore,Illinois,IL,Montgomery,39.1039,-89.2946,-1.0
28003,62033.0,Gillespie,Illinois,IL,Macoupin,39.1341,-89.8442,-1.0
28004,62034.0,Glen Carbon,Illinois,IL,Madison,38.7609,-89.9706,-1.0
28005,62035.0,Godfrey,Illinois,IL,Madison,38.946,-90.206,-1.0
28006,62036.0,Golden Eagle,Illinois,IL,Calhoun,38.8961,-90.5602,-1.0
28007,62037.0,Grafton,Illinois,IL,Jersey,39.0021,-90.4323,-1.0
28008,62040.0,Granite City,Illinois,IL,Madison,38.7261,-90.1106,-1.0
28009,62044.0,Greenfield,Illinois,IL,Greene,39.3491,-90.2089,-1.0
28010,62045.0,Hamburg,Illinois,IL,Calhoun,39.2235,-90.6995,-1.0
28011,62046.0,Hamel,Illinois,IL,Madison,38.8901,-89.8457,-1.0
28012,62047.0,Hardin,Illinois,IL,Calhoun,39.1547,-90.624,-1.0
28013,62048.0,Hartford,Illinois,IL,Madison,38.8278,-90.0926,-1.0
28014,62049.0,Hillsboro,Illinois,IL,Montgomery,39.1494,-89.4881,-1.0
28015,62050.0,Hillview,Illinois,IL,Greene,39.4674,-90.5128,-1.0
28016,62051.0,Irving,Illinois,IL,Montgomery,39.2089,-89.4104,-1.0
28017,62052.0,Jerseyville,Illinois,IL,Jersey,39.1213,-90.3338,-1.0
28018,62053.0,Kampsville,Illinois,IL,Calhoun,39.3064,-90.6269,-1.0
28019,62054.0,Kane,Illinois,IL,Greene,39.2037,-90.3719,-1.0
28020,62056.0,Litchfield,Illinois,IL,Montgomery,39.1793,-89.6499,-1.0
28021,62058.0,Livingston,Illinois,IL,Madison,38.969,-89.7668,-1.0
28022,62059.0,Lovejoy,Illinois,IL,St. Clair,38.44,-89.9835,-1.0
28023,62060.0,Madison,Illinois,IL,Madison,38.6811,-90.1566,-1.0
28024,62061.0,Marine,Illinois,IL,Madison,38.7793,-89.7786,-1.0
28025,62062.0,Maryville,Illinois,IL,Madison,38.7138,-89.9658,-1.0
28026,62063.0,Medora,Illinois,IL,Jersey,39.1986,-90.1542,-1.0
28027,62065.0,Michael,Illinois,IL,Calhoun,39.1343,-90.6938,-1.0
28028,62067.0,Moro,Illinois,IL,Madison,38.9318,-89.9618,-1.0
28029,62069.0,Mount Olive,Illinois,IL,Macoupin,39.0705,-89.7448,-1.0
28030,62070.0,Mozier,Illinois,IL,Calhoun,39.1343,-90.6938,-1.0
28031,62071.0,National Stock Yards,Illinois,IL,St. Clair,38.6516,-90.1639,-1.0
28032,62074.0,New Douglas,Illinois,IL,Madison,38.9676,-89.7392,-1.0
28033,62075.0,Nokomis,Illinois,IL,Montgomery,39.3036,-89.2853,-1.0
28034,62076.0,Ohlman,Illinois,IL,Montgomery,39.3434,-89.2191,-1.0
28035,62077.0,Panama,Illinois,IL,Montgomery,39.0317,-89.5237,-1.0
28036,62078.0,Patterson,Illinois,IL,Greene,39.3197,-90.3852,-1.0
28037,62079.0,Piasa,Illinois,IL,Macoupin,39.1128,-90.1198,-1.0
28038,62080.0,Ramsey,Illinois,IL,Fayette,39.0781,-89.1051,-1.0
28039,62081.0,Rockbridge,Illinois,IL,Greene,39.2831,-90.2558,-1.0
28040,62082.0,Roodhouse,Illinois,IL,Greene,39.4846,-90.3498,-1.0
28041,62083.0,Rosamond,Illinois,IL,Christian,39.3743,-89.1983,-1.0
28042,62084.0,Roxana,Illinois,IL,Madison,38.8482,-90.0798,-1.0
28043,62085.0,Sawyerville,Illinois,IL,Macoupin,39.0828,-89.8043,-1.0
28044,62086.0,Sorento,Illinois,IL,Bond,38.9693,-89.5653,-1.0
28045,62087.0,South Roxana,Illinois,IL,Madison,38.8225,-90.0583,-1.0
28046,62088.0,Staunton,Illinois,IL,Macoupin,39.0135,-89.7857,-1.0
28047,62089.0,Taylor Springs,Illinois,IL,Montgomery,39.1218,-89.4942,-1.0
28048,62090.0,Venice,Illinois,IL,Madison,38.6706,-90.1689,-1.0
28049,62091.0,Walshville,Illinois,IL,Montgomery,39.0473,-89.635,-1.0
28050,62092.0,White Hall,Illinois,IL,Greene,39.4288,-90.4019,-1.0
28051,62093.0,Wilsonville,Illinois,IL,Macoupin,39.0695,-89.8565,-1.0
28052,62094.0,Witt,Illinois,IL,Montgomery,39.2469,-89.3414,-1.0
28053,62095.0,Wood River,Illinois,IL,Madison,38.8643,-90.0875,-1.0
28054,62097.0,Worden,Illinois,IL,Madison,38.9449,-89.8532,-1.0
28055,62098.0,Wrights,Illinois,IL,Greene,39.3762,-90.2933,-1.0
28063,62208.0,Fairview Heights,Illinois,IL,St. Clair,38.596,-90.0071,-1.0
28064,62214.0,Addieville,Illinois,IL,Washington,38.3815,-89.5794,-1.0
28066,62216.0,Aviston,Illinois,IL,Clinton,38.6089,-89.6034,-1.0
28067,62217.0,Baldwin,Illinois,IL,Randolph,38.1754,-89.8414,-1.0
28068,62218.0,Bartelso,Illinois,IL,Clinton,38.5385,-89.4578,-1.0
28069,62219.0,Beckemeyer,Illinois,IL,Clinton,38.6058,-89.4319,-1.0
28074,62224.0,Mascoutah,Illinois,IL,St. Clair,38.44,-89.9835,-1.0
28075,62225.0,Scott Air Force Base,Illinois,IL,St. Clair,38.5432,-89.859,-1.0
28077,62230.0,Breese,Illinois,IL,Clinton,38.6188,-89.5284,-1.0
28078,62231.0,Carlyle,Illinois,IL,Clinton,38.6066,-89.3805,-1.0
28079,62232.0,Caseyville,Illinois,IL,St. Clair,38.6345,-90.0135,-1.0
28080,62233.0,Chester,Illinois,IL,Randolph,37.9188,-89.8218,-1.0
28081,62234.0,Collinsville,Illinois,IL,Madison,38.6835,-89.9853,-1.0
28082,62236.0,Columbia,Illinois,IL,Monroe,38.4325,-90.2027,-1.0
28083,62237.0,Coulterville,Illinois,IL,Randolph,38.1753,-89.6479,-1.0
28084,62238.0,Cutler,Illinois,IL,Perry,38.0427,-89.5661,-1.0
28085,62239.0,Dupo,Illinois,IL,St. Clair,38.5257,-90.1874,-1.0
28086,62240.0,East Carondelet,Illinois,IL,St. Clair,38.5349,-90.2208,-1.0
28087,62241.0,Ellis Grove,Illinois,IL,Randolph,38.0054,-89.9008,-1.0
28088,62242.0,Evansville,Illinois,IL,Randolph,38.0926,-89.917,-1.0
28089,62243.0,Freeburg,Illinois,IL,St. Clair,38.408,-89.9181,-1.0
28090,62244.0,Fults,Illinois,IL,Monroe,38.1797,-90.1974,-1.0
28091,62245.0,Germantown,Illinois,IL,Clinton,38.5487,-89.5413,-1.0
28092,62246.0,Greenville,Illinois,IL,Bond,38.8933,-89.4052,-1.0
28093,62247.0,Hagarstown,Illinois,IL,Fayette,38.9771,-88.9755,-1.0
28094,62248.0,Hecker,Illinois,IL,Monroe,38.3044,-89.9935,-1.0
28095,62249.0,Highland,Illinois,IL,Madison,38.7631,-89.6789,-1.0
28096,62250.0,Hoffman,Illinois,IL,Clinton,38.5408,-89.2661,-1.0
28097,62252.0,Huey,Illinois,IL,Clinton,38.6018,-89.2915,-1.0
28098,62253.0,Keyesport,Illinois,IL,Clinton,38.7769,-89.2975,-1.0
28099,62254.0,Lebanon,Illinois,IL,St. Clair,38.6053,-89.7992,-1.0
28100,62255.0,Lenzburg,Illinois,IL,St. Clair,38.295,-89.7922,-1.0
28101,62256.0,Maeystown,Illinois,IL,Monroe,38.3043,-90.1356,-1.0
28102,62257.0,Marissa,Illinois,IL,St. Clair,38.2455,-89.7501,-1.0
28103,62258.0,Mascoutah,Illinois,IL,St. Clair,38.4745,-89.7877,-1.0
28104,62259.0,Menard,Illinois,IL,Randolph,38.0131,-89.8996,-1.0
28105,62260.0,Millstadt,Illinois,IL,St. Clair,38.4443,-90.0888,-1.0
28106,62261.0,Modoc,Illinois,IL,Randolph,38.0507,-90.0163,-1.0
28107,62262.0,Mulberry Grove,Illinois,IL,Bond,38.9311,-89.2463,-1.0
28108,62263.0,Nashville,Illinois,IL,Washington,38.3352,-89.3841,-1.0
28109,62264.0,New Athens,Illinois,IL,St. Clair,38.316,-89.8728,-1.0
28110,62265.0,New Baden,Illinois,IL,Clinton,38.5315,-89.6922,-1.0
28111,62266.0,New Memphis,Illinois,IL,Clinton,38.4857,-89.6816,-1.0
28112,62268.0,Oakdale,Illinois,IL,Washington,38.2573,-89.596,-1.0
28113,62269.0,O Fallon,Illinois,IL,St. Clair,38.5718,-89.8957,-1.0
28114,62271.0,Okawville,Illinois,IL,Washington,38.4319,-89.523,-1.0
28115,62272.0,Percy,Illinois,IL,Randolph,38.0126,-89.617,-1.0
28116,62273.0,Pierron,Illinois,IL,Bond,38.8845,-89.4449,-1.0
28118,62275.0,Pocahontas,Illinois,IL,Bond,38.7846,-89.5247,-1.0
28119,62277.0,Prairie Du Rocher,Illinois,IL,Randolph,38.1142,-90.0341,-1.0
28120,62278.0,Red Bud,Illinois,IL,Randolph,38.1907,-89.9884,-1.0
28121,62279.0,Renault,Illinois,IL,Monroe,38.1521,-90.1346,-1.0
28122,62280.0,Rockwood,Illinois,IL,Randolph,37.8322,-89.6214,-1.0
28123,62281.0,Saint Jacob,Illinois,IL,Madison,38.7059,-89.7925,-1.0
28124,62282.0,Saint Libory,Illinois,IL,St. Clair,38.3632,-89.7139,-1.0
28125,62283.0,Shattuc,Illinois,IL,Clinton,38.6435,-89.2054,-1.0
28126,62284.0,Smithboro,Illinois,IL,Bond,38.8739,-89.3266,-1.0
28127,62285.0,Smithton,Illinois,IL,St. Clair,38.4231,-89.9896,-1.0
28129,62288.0,Steeleville,Illinois,IL,Randolph,38.0057,-89.6665,-1.0
28130,62289.0,Summerfield,Illinois,IL,St. Clair,38.5967,-89.7512,-1.0
28131,62292.0,Tilden,Illinois,IL,Randolph,38.2122,-89.6895,-1.0
28132,62293.0,Trenton,Illinois,IL,Clinton,38.6191,-89.6447,-1.0
28134,62295.0,Valmeyer,Illinois,IL,Monroe,38.2805,-90.3122,-1.0
28135,62297.0,Walsh,Illinois,IL,Randolph,38.0203,-89.8297,-1.0
28136,62298.0,Waterloo,Illinois,IL,Monroe,38.3223,-90.1478,-1.0
28140,62310.0,Adrian,Illinois,IL,Hancock,40.4161,-91.2058,-1.0
28141,62311.0,Augusta,Illinois,IL,Hancock,40.2341,-90.9554,-1.0
28142,62312.0,Barry,Illinois,IL,Pike,39.7047,-91.0265,-1.0
28143,62313.0,Basco,Illinois,IL,Hancock,40.3283,-91.197,-1.0
28144,62314.0,Baylis,Illinois,IL,Pike,39.7612,-90.8832,-1.0
28145,62316.0,Bowen,Illinois,IL,Hancock,40.2341,-91.0705,-1.0
28146,62318.0,Burnside,Illinois,IL,Hancock,40.4881,-91.1358,-1.0
28147,62319.0,Camden,Illinois,IL,Schuyler,40.1511,-90.7544,-1.0
28148,62320.0,Camp Point,Illinois,IL,Adams,40.0293,-91.0769,-1.0
28150,62323.0,Chambersburg,Illinois,IL,Pike,39.8071,-90.663,-1.0
28151,62324.0,Clayton,Illinois,IL,Adams,40.0133,-90.9554,-1.0
28152,62325.0,Coatsburg,Illinois,IL,Adams,40.0554,-91.1747,-1.0
28153,62326.0,Colchester,Illinois,IL,McDonough,40.4156,-90.7846,-1.0
28154,62327.0,Colmar,Illinois,IL,-1,40.3545,-90.7533,-1.0
28155,62328.0,Columbus,Illinois,IL,-1,39.9326,-91.3022,-1.0
28156,62329.0,Colusa,Illinois,IL,Hancock,40.5714,-91.1682,-1.0
28157,62330.0,Dallas City,Illinois,IL,Hancock,40.572,-91.1255,-1.0
28158,62332.0,Detroit,Illinois,IL,-1,39.6183,-90.6545,-1.0
28159,62334.0,Elvaston,Illinois,IL,Hancock,40.4171,-91.2214,-1.0
28160,62336.0,Ferris,Illinois,IL,Hancock,40.4682,-91.171,-1.0
28161,62338.0,Fowler,Illinois,IL,Adams,39.9925,-91.2452,-1.0
28162,62339.0,Golden,Illinois,IL,Adams,40.1203,-91.0296,-1.0
28163,62340.0,Griggsville,Illinois,IL,Pike,39.7084,-90.7249,-1.0
28164,62341.0,Hamilton,Illinois,IL,Hancock,40.4392,-91.344,-1.0
28165,62343.0,Hull,Illinois,IL,Pike,39.7186,-91.2338,-1.0
28166,62344.0,Huntsville,Illinois,IL,Schuyler,40.1544,-90.8531,-1.0
28167,62345.0,Kinderhook,Illinois,IL,Pike,39.6953,-91.1637,-1.0
28168,62346.0,La Prairie,Illinois,IL,Adams,40.1572,-90.9844,-1.0
28169,62347.0,Liberty,Illinois,IL,Adams,39.8892,-91.0869,-1.0
28170,62348.0,Lima,Illinois,IL,Adams,40.1656,-91.3875,-1.0
28171,62349.0,Loraine,Illinois,IL,Adams,40.1532,-91.213,-1.0
28172,62351.0,Mendon,Illinois,IL,Adams,40.0857,-91.2899,-1.0
28173,62352.0,Milton,Illinois,IL,Pike,39.5508,-90.6443,-1.0
28174,62353.0,Mount Sterling,Illinois,IL,Brown,39.9803,-90.7414,-1.0
28175,62354.0,Nauvoo,Illinois,IL,Hancock,40.5261,-91.3318,-1.0
28176,62355.0,Nebo,Illinois,IL,Pike,39.4202,-90.7692,-1.0
28177,62356.0,New Canton,Illinois,IL,Pike,39.6342,-91.0886,-1.0
28178,62357.0,New Salem,Illinois,IL,Pike,39.6996,-90.844,-1.0
28179,62358.0,Niota,Illinois,IL,Hancock,40.5978,-91.2991,-1.0
28180,62359.0,Paloma,Illinois,IL,Adams,40.0366,-91.2053,-1.0
28181,62360.0,Payson,Illinois,IL,Adams,39.8153,-91.2627,-1.0
28182,62361.0,Pearl,Illinois,IL,Pike,39.4441,-90.638,-1.0
28183,62362.0,Perry,Illinois,IL,Pike,39.7823,-90.7471,-1.0
28184,62363.0,Pittsfield,Illinois,IL,Pike,39.6013,-90.8073,-1.0
28185,62365.0,Plainville,Illinois,IL,Adams,39.8004,-91.1436,-1.0
28186,62366.0,Pleasant Hill,Illinois,IL,Pike,39.4467,-90.877,-1.0
28187,62367.0,Plymouth,Illinois,IL,Hancock,40.3236,-90.9672,-1.0
28188,62370.0,Rockport,Illinois,IL,Pike,39.5328,-90.9722,-1.0
28189,62372.0,Summer Hill,Illinois,IL,-1,39.5351,-91.0187,-1.0
28190,62373.0,Sutter,Illinois,IL,Hancock,40.2865,-91.3726,-1.0
28191,62374.0,Tennessee,Illinois,IL,McDonough,40.414,-90.8556,-1.0
28192,62375.0,Timewell,Illinois,IL,Brown,40.0117,-90.8661,-1.0
28193,62376.0,Ursa,Illinois,IL,Adams,40.0809,-91.3733,-1.0
28194,62378.0,Versailles,Illinois,IL,Brown,39.8883,-90.6741,-1.0
28195,62379.0,Warsaw,Illinois,IL,Hancock,40.3544,-91.4348,-1.0
28196,62380.0,West Point,Illinois,IL,Hancock,40.2452,-91.2496,-1.0
28197,62401.0,Effingham,Illinois,IL,Effingham,39.1217,-88.5611,-1.0
28198,62410.0,Allendale,Illinois,IL,Wabash,38.5232,-87.7219,-1.0
28199,62411.0,Altamont,Illinois,IL,Effingham,39.0634,-88.7481,-1.0
28200,62413.0,Annapolis,Illinois,IL,Crawford,39.1179,-87.8029,-1.0
28201,62414.0,Beecher City,Illinois,IL,Effingham,39.1835,-88.8038,-1.0
28202,62415.0,Birds,Illinois,IL,Lawrence,38.7103,-87.7036,-1.0
28203,62417.0,Bridgeport,Illinois,IL,Lawrence,38.7067,-87.7657,-1.0
28204,62418.0,Brownstown,Illinois,IL,Fayette,38.9891,-88.9494,-1.0
28205,62419.0,Calhoun,Illinois,IL,Richland,38.6351,-88.0037,-1.0
28207,62421.0,Claremont,Illinois,IL,Richland,38.7429,-87.9727,-1.0
28208,62422.0,Cowden,Illinois,IL,Shelby,39.2326,-88.8868,-1.0
28209,62423.0,Dennison,Illinois,IL,Clark,39.449,-87.5867,-1.0
28210,62424.0,Dieterich,Illinois,IL,Effingham,39.0319,-88.4074,-1.0
28211,62425.0,Dundas,Illinois,IL,Richland,38.8306,-88.0973,-1.0
28212,62426.0,Edgewood,Illinois,IL,Effingham,38.9021,-88.6645,-1.0
28213,62427.0,Flat Rock,Illinois,IL,Crawford,38.9096,-87.6837,-1.0
28214,62428.0,Greenup,Illinois,IL,Cumberland,39.274,-88.1246,-1.0
28215,62431.0,Herrick,Illinois,IL,Shelby,39.2245,-88.9812,-1.0
28216,62432.0,Hidalgo,Illinois,IL,Jasper,39.1228,-88.1397,-1.0
28217,62433.0,Hutsonville,Illinois,IL,Crawford,39.1064,-87.6695,-1.0
28218,62434.0,Ingraham,Illinois,IL,Clay,38.8284,-88.3204,-1.0
28219,62435.0,Janesville,Illinois,IL,Cumberland,39.3743,-88.2445,-1.0
28220,62436.0,Jewett,Illinois,IL,Cumberland,39.2076,-88.2474,-1.0
28221,62438.0,Lakewood,Illinois,IL,Shelby,39.3134,-88.8715,-1.0
28222,62439.0,Lawrenceville,Illinois,IL,Lawrence,38.7309,-87.6784,-1.0
28223,62440.0,Lerna,Illinois,IL,Coles,39.3958,-88.253,-1.0
28225,62442.0,Martinsville,Illinois,IL,Clark,39.3174,-87.8707,-1.0
28226,62443.0,Mason,Illinois,IL,Effingham,38.9645,-88.6234,-1.0
28227,62444.0,Mode,Illinois,IL,Shelby,39.4346,-88.8053,-1.0
28228,62445.0,Montrose,Illinois,IL,Effingham,39.1573,-88.335,-1.0
28229,62446.0,Mount Erie,Illinois,IL,Wayne,38.5222,-88.2185,-1.0
28230,62447.0,Neoga,Illinois,IL,Cumberland,39.322,-88.4503,-1.0
28231,62448.0,Newton,Illinois,IL,Jasper,38.9847,-88.1704,-1.0
28232,62449.0,Oblong,Illinois,IL,Crawford,39.001,-87.895,-1.0
28233,62450.0,Olney,Illinois,IL,Richland,38.7334,-88.0809,-1.0
28234,62451.0,Palestine,Illinois,IL,Crawford,39.0028,-87.6157,-1.0
28235,62452.0,Parkersburg,Illinois,IL,Richland,38.59,-88.0647,-1.0
28237,62458.0,Saint Elmo,Illinois,IL,Fayette,39.0315,-88.8552,-1.0
28238,62459.0,Sainte Marie,Illinois,IL,Jasper,38.928,-88.0291,-1.0
28239,62460.0,Saint Francisville,Illinois,IL,Lawrence,38.5921,-87.6487,-1.0
28240,62461.0,Shumway,Illinois,IL,Effingham,39.1881,-88.6418,-1.0
28241,62462.0,Sigel,Illinois,IL,Shelby,39.2176,-88.4803,-1.0
28242,62463.0,Stewardson,Illinois,IL,Shelby,39.272,-88.6319,-1.0
28243,62464.0,Stoy,Illinois,IL,Crawford,38.9898,-87.8396,-1.0
28244,62465.0,Strasburg,Illinois,IL,Shelby,39.3641,-88.6279,-1.0
28245,62466.0,Sumner,Illinois,IL,Lawrence,38.7171,-87.8638,-1.0
28246,62467.0,Teutopolis,Illinois,IL,Effingham,39.132,-88.4767,-1.0
28247,62468.0,Toledo,Illinois,IL,Cumberland,39.2772,-88.2468,-1.0
28248,62469.0,Trilla,Illinois,IL,Coles,39.3938,-88.3488,-1.0
28249,62471.0,Vandalia,Illinois,IL,Fayette,38.9439,-89.1041,-1.0
28250,62473.0,Watson,Illinois,IL,Effingham,38.9906,-88.5584,-1.0
28251,62474.0,Westfield,Illinois,IL,Clark,39.4424,-88.0448,-1.0
28252,62475.0,West Liberty,Illinois,IL,Jasper,38.895,-88.0979,-1.0
28253,62476.0,West Salem,Illinois,IL,Edwards,38.5183,-88.0323,-1.0
28254,62477.0,West Union,Illinois,IL,Clark,39.2402,-87.6512,-1.0
28255,62478.0,West York,Illinois,IL,Crawford,39.1938,-87.7131,-1.0
28256,62479.0,Wheeler,Illinois,IL,Jasper,39.0182,-88.3175,-1.0
28257,62480.0,Willow Hill,Illinois,IL,Jasper,38.9757,-88.0172,-1.0
28258,62481.0,Yale,Illinois,IL,Jasper,39.13,-88.0105,-1.0
28259,62501.0,Argenta,Illinois,IL,Macon,39.934,-88.8052,-1.0
28260,62510.0,Assumption,Illinois,IL,Christian,39.5095,-89.0398,-1.0
28261,62511.0,Atwater,Illinois,IL,Macoupin,39.3391,-89.7357,-1.0
28262,62512.0,Beason,Illinois,IL,Logan,40.1437,-89.1948,-1.0
28263,62513.0,Blue Mound,Illinois,IL,Macon,39.6978,-89.1136,-1.0
28264,62514.0,Boody,Illinois,IL,Macon,39.7624,-89.0507,-1.0
28265,62515.0,Buffalo,Illinois,IL,Sangamon,39.8499,-89.3879,-1.0
28266,62517.0,Bulpitt,Illinois,IL,Christian,39.5914,-89.4316,-1.0
28267,62518.0,Chestnut,Illinois,IL,Logan,40.0582,-89.19,-1.0
28268,62519.0,Cornland,Illinois,IL,Logan,39.9374,-89.4023,-1.0
28269,62520.0,Dawson,Illinois,IL,Sangamon,39.8563,-89.4603,-1.0
28277,62530.0,Divernon,Illinois,IL,Sangamon,39.5692,-89.6626,-1.0
28278,62531.0,Edinburg,Illinois,IL,Christian,39.6612,-89.3779,-1.0
28279,62532.0,Elwin,Illinois,IL,Macon,39.78,-88.9808,-1.0
28280,62533.0,Farmersville,Illinois,IL,Montgomery,39.4401,-89.617,-1.0
28281,62534.0,Findlay,Illinois,IL,Shelby,39.5193,-88.7468,-1.0
28282,62535.0,Forsyth,Illinois,IL,Macon,39.9248,-88.9691,-1.0
28283,62536.0,Glenarm,Illinois,IL,Sangamon,39.6327,-89.6581,-1.0
28284,62537.0,Harristown,Illinois,IL,Macon,39.8567,-89.085,-1.0
28285,62538.0,Harvel,Illinois,IL,Montgomery,39.3719,-89.538,-1.0
28286,62539.0,Illiopolis,Illinois,IL,Sangamon,39.8499,-89.2513,-1.0
28287,62540.0,Kincaid,Illinois,IL,Christian,39.5838,-89.4185,-1.0
28288,62541.0,Lake Fork,Illinois,IL,Logan,39.9706,-89.3505,-1.0
28289,62543.0,Latham,Illinois,IL,Logan,39.9711,-89.1725,-1.0
28290,62544.0,Macon,Illinois,IL,Macon,39.7041,-88.988,-1.0
28291,62545.0,Mechanicsburg,Illinois,IL,Sangamon,39.7778,-89.4064,-1.0
28292,62546.0,Morrisonville,Illinois,IL,Christian,39.4153,-89.4541,-1.0
28293,62547.0,Mount Auburn,Illinois,IL,Christian,39.769,-89.2489,-1.0
28294,62548.0,Mount Pulaski,Illinois,IL,Logan,40.0045,-89.2935,-1.0
28296,62550.0,Moweaqua,Illinois,IL,Shelby,39.5751,-88.8895,-1.0
28297,62551.0,Niantic,Illinois,IL,Macon,39.8582,-89.1701,-1.0
28298,62552.0,Oakley,Illinois,IL,Macon,39.8835,-88.8048,-1.0
28299,62553.0,Oconee,Illinois,IL,Shelby,39.2884,-89.0836,-1.0
28300,62554.0,Oreana,Illinois,IL,Macon,39.9351,-88.8547,-1.0
28301,62555.0,Owaneco,Illinois,IL,Christian,39.4775,-89.1951,-1.0
28302,62556.0,Palmer,Illinois,IL,Christian,39.4699,-89.3733,-1.0
28303,62557.0,Pana,Illinois,IL,Christian,39.3971,-89.1048,-1.0
28304,62558.0,Pawnee,Illinois,IL,Sangamon,39.6086,-89.5678,-1.0
28305,62560.0,Raymond,Illinois,IL,Montgomery,39.3106,-89.5851,-1.0
28306,62561.0,Riverton,Illinois,IL,Sangamon,39.8663,-89.5087,-1.0
28307,62563.0,Rochester,Illinois,IL,Sangamon,39.7182,-89.5649,-1.0
28308,62565.0,Shelbyville,Illinois,IL,Shelby,39.458,-88.8058,-1.0
28309,62567.0,Stonington,Illinois,IL,Christian,39.6405,-89.1913,-1.0
28310,62568.0,Taylorville,Illinois,IL,Christian,39.5591,-89.3406,-1.0
28311,62570.0,Tovey,Illinois,IL,Christian,39.588,-89.4495,-1.0
28312,62571.0,Tower Hill,Illinois,IL,Shelby,39.39,-88.9597,-1.0
28313,62572.0,Waggoner,Illinois,IL,Montgomery,39.3688,-89.6545,-1.0
28314,62573.0,Warrensburg,Illinois,IL,Macon,39.9454,-89.0741,-1.0
28315,62574.0,Findlay,Illinois,IL,-1,39.4788,-88.8615,-1.0
28316,62601.0,Alexander,Illinois,IL,Morgan,39.7517,-90.0458,-1.0
28317,62610.0,Alsey,Illinois,IL,Scott,39.552,-90.3862,-1.0
28318,62611.0,Arenzville,Illinois,IL,Cass,39.8979,-90.3636,-1.0
28319,62612.0,Ashland,Illinois,IL,Cass,39.9386,-90.0792,-1.0
28320,62613.0,Athens,Illinois,IL,Menard,39.9917,-89.6684,-1.0
28321,62615.0,Auburn,Illinois,IL,Sangamon,39.5918,-89.744,-1.0
28322,62617.0,Bath,Illinois,IL,Mason,40.1536,-90.1661,-1.0
28323,62618.0,Beardstown,Illinois,IL,Cass,40.0044,-90.4229,-1.0
28324,62621.0,Bluffs,Illinois,IL,Scott,39.7296,-90.5313,-1.0
28325,62622.0,Bluff Springs,Illinois,IL,Cass,39.9796,-90.3524,-1.0
28326,62624.0,Browning,Illinois,IL,Schuyler,40.1316,-90.5566,-1.0
28327,62625.0,Cantrall,Illinois,IL,Sangamon,39.9169,-89.6891,-1.0
28328,62626.0,Carlinville,Illinois,IL,Macoupin,39.2885,-89.8661,-1.0
28329,62627.0,Chandlerville,Illinois,IL,Cass,40.0374,-90.1163,-1.0
28330,62628.0,Chapin,Illinois,IL,Morgan,39.7716,-90.4113,-1.0
28331,62629.0,Chatham,Illinois,IL,Sangamon,39.6737,-89.7112,-1.0
28332,62630.0,Chesterfield,Illinois,IL,Macoupin,39.2608,-90.0784,-1.0
28333,62631.0,Concord,Illinois,IL,Morgan,39.823,-90.3722,-1.0
28334,62633.0,Easton,Illinois,IL,Mason,40.2279,-89.8903,-1.0
28335,62634.0,Elkhart,Illinois,IL,Logan,40.0132,-89.452,-1.0
28336,62635.0,Emden,Illinois,IL,Logan,40.2967,-89.4714,-1.0
28337,62638.0,Franklin,Illinois,IL,Morgan,39.6222,-90.0889,-1.0
28338,62639.0,Frederick,Illinois,IL,Schuyler,40.1316,-90.5566,-1.0
28339,62640.0,Girard,Illinois,IL,Macoupin,39.3838,-89.8501,-1.0
28340,62642.0,Greenview,Illinois,IL,Menard,40.1017,-89.7469,-1.0
28341,62643.0,Hartsburg,Illinois,IL,Logan,40.2451,-89.4519,-1.0
28342,62644.0,Havana,Illinois,IL,Mason,40.3084,-89.9383,-1.0
28343,62649.0,Hettick,Illinois,IL,Macoupin,39.3752,-90.0672,-1.0
28346,62655.0,Kilbourne,Illinois,IL,Mason,40.1587,-90.0043,-1.0
28347,62656.0,Lincoln,Illinois,IL,Logan,40.1451,-89.3684,-1.0
28348,62659.0,Lincoln'S New Salem,Illinois,IL,Menard,40.0311,-89.7867,-1.0
28349,62660.0,Literberry,Illinois,IL,Morgan,39.8589,-90.2007,-1.0
28350,62661.0,Loami,Illinois,IL,Sangamon,39.6704,-89.8588,-1.0
28351,62662.0,Lowder,Illinois,IL,Sangamon,39.7495,-89.606,-1.0
28352,62663.0,Manchester,Illinois,IL,Scott,39.5405,-90.3317,-1.0
28353,62664.0,Mason City,Illinois,IL,Mason,40.2269,-89.7318,-1.0
28354,62665.0,Meredosia,Illinois,IL,Morgan,39.8173,-90.5339,-1.0
28355,62666.0,Middletown,Illinois,IL,Logan,40.0967,-89.5818,-1.0
28356,62667.0,Modesto,Illinois,IL,Macoupin,39.476,-89.9794,-1.0
28357,62668.0,Murrayville,Illinois,IL,Morgan,39.5723,-90.2379,-1.0
28358,62670.0,New Berlin,Illinois,IL,Sangamon,39.7681,-89.855,-1.0
28359,62671.0,New Holland,Illinois,IL,Logan,40.1682,-89.5604,-1.0
28360,62672.0,Nilwood,Illinois,IL,Macoupin,39.398,-89.8045,-1.0
28361,62673.0,Oakford,Illinois,IL,Menard,40.0994,-89.9601,-1.0
28362,62674.0,Palmyra,Illinois,IL,Macoupin,39.4227,-90.0311,-1.0
28363,62675.0,Petersburg,Illinois,IL,Menard,39.9728,-89.8072,-1.0
28364,62676.0,Plainview,Illinois,IL,-1,39.1752,-89.9616,-1.0
28365,62677.0,Pleasant Plains,Illinois,IL,Sangamon,39.8331,-89.8686,-1.0
28366,62681.0,Rushville,Illinois,IL,Schuyler,40.1133,-90.5432,-1.0
28367,62682.0,San Jose,Illinois,IL,Mason,40.3011,-89.6872,-1.0
28368,62683.0,Scottville,Illinois,IL,Macoupin,39.2609,-89.9261,-1.0
28369,62684.0,Sherman,Illinois,IL,Sangamon,39.9121,-89.5877,-1.0
28370,62685.0,Shipman,Illinois,IL,Macoupin,39.1952,-89.9607,-1.0
28371,62686.0,Standard City,Illinois,IL,Macoupin,39.2387,-89.8894,-1.0
28372,62688.0,Tallula,Illinois,IL,Menard,39.9402,-89.8823,-1.0
28373,62689.0,Thayer,Illinois,IL,Sangamon,39.5394,-89.7621,-1.0
28374,62690.0,Virden,Illinois,IL,Macoupin,39.5064,-89.7783,-1.0
28375,62691.0,Virginia,Illinois,IL,Cass,39.958,-90.1764,-1.0
28376,62692.0,Waverly,Illinois,IL,Morgan,39.587,-89.9449,-1.0
28377,62693.0,Williamsville,Illinois,IL,Sangamon,39.9304,-89.5342,-1.0
28378,62694.0,Winchester,Illinois,IL,Scott,39.6266,-90.4664,-1.0
28379,62695.0,Woodson,Illinois,IL,Morgan,39.6189,-90.2257,-1.0
28421,62801.0,Centralia,Illinois,IL,Marion,38.5241,-89.1365,-1.0
28422,62803.0,Hoyleton,Illinois,IL,Washington,38.4455,-89.3069,-1.0
28423,62805.0,Akin,Illinois,IL,Franklin,37.9943,-88.9417,-1.0
28424,62806.0,Albion,Illinois,IL,Edwards,38.374,-88.0636,-1.0
28425,62807.0,Alma,Illinois,IL,Marion,38.7231,-88.9157,-1.0
28426,62808.0,Ashley,Illinois,IL,Washington,38.306,-89.2311,-1.0
28427,62809.0,Barnhill,Illinois,IL,Wayne,38.2781,-88.3508,-1.0
28428,62810.0,Belle Rive,Illinois,IL,Jefferson,38.2153,-88.7558,-1.0
28429,62811.0,Bellmont,Illinois,IL,Wabash,38.3845,-87.9081,-1.0
28431,62814.0,Bluford,Illinois,IL,Jefferson,38.3531,-88.7587,-1.0
28432,62815.0,Bone Gap,Illinois,IL,Edwards,38.449,-88.0025,-1.0
28433,62816.0,Bonnie,Illinois,IL,Jefferson,38.198,-88.9229,-1.0
28434,62817.0,Broughton,Illinois,IL,Hamilton,37.9546,-88.4678,-1.0
28435,62818.0,Browns,Illinois,IL,Edwards,38.3764,-87.9928,-1.0
28436,62819.0,Buckner,Illinois,IL,Franklin,37.9764,-89.0209,-1.0
28437,62820.0,Burnt Prairie,Illinois,IL,White,38.2082,-88.2147,-1.0
28438,62821.0,Carmi,Illinois,IL,White,38.0808,-88.167,-1.0
28439,62822.0,Christopher,Illinois,IL,Franklin,37.9849,-89.0574,-1.0
28440,62823.0,Cisne,Illinois,IL,Wayne,38.5138,-88.4045,-1.0
28441,62824.0,Clay City,Illinois,IL,Clay,38.6695,-88.3516,-1.0
28442,62825.0,Coello,Illinois,IL,Franklin,37.9946,-89.0672,-1.0
28443,62827.0,Crossville,Illinois,IL,White,38.166,-88.0595,-1.0
28444,62828.0,Dahlgren,Illinois,IL,Hamilton,38.1975,-88.6363,-1.0
28445,62829.0,Dale,Illinois,IL,Hamilton,38.0816,-88.5386,-1.0
28446,62830.0,Dix,Illinois,IL,Jefferson,38.4333,-88.9657,-1.0
28447,62831.0,Du Bois,Illinois,IL,Washington,38.2526,-89.2042,-1.0
28448,62832.0,Du Quoin,Illinois,IL,Perry,38.0137,-89.2333,-1.0
28449,62833.0,Ellery,Illinois,IL,Edwards,38.365,-88.1335,-1.0
28450,62834.0,Emma,Illinois,IL,White,37.9762,-88.1202,-1.0
28451,62835.0,Enfield,Illinois,IL,White,38.0927,-88.3325,-1.0
28452,62836.0,Ewing,Illinois,IL,Franklin,38.0702,-88.8504,-1.0
28454,62838.0,Farina,Illinois,IL,Fayette,38.8469,-88.7614,-1.0
28455,62839.0,Flora,Illinois,IL,Clay,38.6703,-88.4919,-1.0
28456,62840.0,Frankfort Heights,Illinois,IL,Franklin,37.9943,-88.9417,-1.0
28457,62841.0,Freeman Spur,Illinois,IL,Williamson,37.8031,-89.0092,-1.0
28458,62842.0,Geff,Illinois,IL,Wayne,38.4413,-88.4144,-1.0
28459,62843.0,Golden Gate,Illinois,IL,Wayne,38.3645,-88.2075,-1.0
28461,62845.0,Herald,Illinois,IL,White,38.0739,-88.1427,-1.0
28462,62846.0,Ina,Illinois,IL,Jefferson,38.1527,-88.8894,-1.0
28463,62847.0,Iola,Illinois,IL,Clay,38.7573,-88.4736,-1.0
28464,62848.0,Irvington,Illinois,IL,Washington,38.4366,-89.1648,-1.0
28465,62849.0,Iuka,Illinois,IL,Marion,38.6136,-88.7689,-1.0
28466,62850.0,Johnsonville,Illinois,IL,Wayne,38.5256,-88.5887,-1.0
28467,62851.0,Keenes,Illinois,IL,Wayne,38.3691,-88.6481,-1.0
28468,62852.0,Keensburg,Illinois,IL,Wabash,38.3514,-87.8661,-1.0
28469,62853.0,Kell,Illinois,IL,Marion,38.5147,-88.9127,-1.0
28470,62854.0,Kinmundy,Illinois,IL,Marion,38.7559,-88.813,-1.0
28471,62855.0,Lancaster,Illinois,IL,Wabash,38.4034,-87.8187,-1.0
28472,62856.0,Logan,Illinois,IL,Franklin,37.9943,-88.9417,-1.0
28473,62857.0,Loogootee,Illinois,IL,Fayette,38.9771,-88.9755,-1.0
28475,62859.0,Mc Leansboro,Illinois,IL,Hamilton,38.0939,-88.5286,-1.0
28476,62860.0,Macedonia,Illinois,IL,Hamilton,38.013,-88.6961,-1.0
28477,62861.0,Maunie,Illinois,IL,White,38.0364,-88.0759,-1.0
28478,62862.0,Mill Shoals,Illinois,IL,White,38.2447,-88.3338,-1.0
28480,62864.0,Mount Vernon,Illinois,IL,Jefferson,38.317,-88.9105,-1.0
28481,62865.0,Mulkeytown,Illinois,IL,Franklin,37.9687,-89.1159,-1.0
28482,62866.0,Nason,Illinois,IL,Jefferson,38.1654,-88.9676,-1.0
28483,62867.0,New Haven,Illinois,IL,Gallatin,37.8999,-88.1285,-1.0
28484,62868.0,Noble,Illinois,IL,Richland,38.7119,-88.219,-1.0
28485,62869.0,Norris City,Illinois,IL,White,37.9773,-88.3243,-1.0
28486,62870.0,Odin,Illinois,IL,Marion,38.6088,-89.0552,-1.0
28487,62871.0,Omaha,Illinois,IL,Gallatin,37.8904,-88.2865,-1.0
28488,62872.0,Opdyke,Illinois,IL,Jefferson,38.275,-88.775,-1.0
28489,62874.0,Orient,Illinois,IL,Franklin,37.9182,-88.9767,-1.0
28490,62875.0,Patoka,Illinois,IL,Marion,38.7549,-89.0942,-1.0
28491,62876.0,Radom,Illinois,IL,Washington,38.2607,-89.1989,-1.0
28492,62877.0,Richview,Illinois,IL,Washington,38.4082,-89.1756,-1.0
28493,62878.0,Rinard,Illinois,IL,Wayne,38.5806,-88.4641,-1.0
28494,62879.0,Sailor Springs,Illinois,IL,Clay,38.7573,-88.4736,-1.0
28495,62880.0,Saint Peter,Illinois,IL,Fayette,38.8697,-88.856,-1.0
28496,62881.0,Salem,Illinois,IL,Marion,38.6264,-88.9481,-1.0
28497,62882.0,Sandoval,Illinois,IL,Marion,38.6131,-89.114,-1.0
28498,62883.0,Scheller,Illinois,IL,Jefferson,38.1731,-89.0927,-1.0
28499,62884.0,Sesser,Illinois,IL,Franklin,38.0894,-89.0574,-1.0
28500,62885.0,Shobonier,Illinois,IL,Fayette,38.8446,-89.079,-1.0
28501,62886.0,Sims,Illinois,IL,Wayne,38.3923,-88.5306,-1.0
28502,62887.0,Springerton,Illinois,IL,White,38.1699,-88.3726,-1.0
28503,62888.0,Tamaroa,Illinois,IL,Perry,38.138,-89.2231,-1.0
28504,62889.0,Texico,Illinois,IL,Jefferson,38.425,-88.8702,-1.0
28505,62890.0,Thompsonville,Illinois,IL,Franklin,37.8804,-88.7684,-1.0
28506,62891.0,Valier,Illinois,IL,Franklin,38.0222,-89.0351,-1.0
28507,62892.0,Vernon,Illinois,IL,Marion,38.8033,-89.083,-1.0
28508,62893.0,Walnut Hill,Illinois,IL,Marion,38.467,-89.0328,-1.0
28509,62894.0,Waltonville,Illinois,IL,Jefferson,38.2465,-89.0067,-1.0
28510,62895.0,Wayne City,Illinois,IL,Wayne,38.3328,-88.5833,-1.0
28511,62896.0,West Frankfort,Illinois,IL,Franklin,37.8979,-88.9307,-1.0
28512,62897.0,Whittington,Illinois,IL,Franklin,38.0872,-88.9014,-1.0
28513,62898.0,Woodlawn,Illinois,IL,Jefferson,38.3844,-89.0745,-1.0
28514,62899.0,Xenia,Illinois,IL,Clay,38.6697,-88.6379,-1.0
28518,62905.0,Alto Pass,Illinois,IL,Union,37.5681,-89.3172,-1.0
28519,62906.0,Anna,Illinois,IL,Union,37.4668,-89.2207,-1.0
28520,62907.0,Ava,Illinois,IL,Jackson,37.8793,-89.4654,-1.0
28521,62908.0,Belknap,Illinois,IL,Johnson,37.3266,-88.9507,-1.0
28522,62909.0,Boles,Illinois,IL,Johnson,37.4472,-88.8768,-1.0
28523,62910.0,Brookport,Illinois,IL,Massac,37.1542,-88.5334,-1.0
28524,62912.0,Buncombe,Illinois,IL,Johnson,37.4637,-88.9806,-1.0
28525,62913.0,Cache,Illinois,IL,Alexander,37.1528,-89.3256,-1.0
28526,62914.0,Cairo,Illinois,IL,Alexander,37.0123,-89.1811,-1.0
28527,62915.0,Cambria,Illinois,IL,Williamson,37.7847,-89.1181,-1.0
28528,62916.0,Campbell Hill,Illinois,IL,Jackson,37.9228,-89.5799,-1.0
28529,62917.0,Carrier Mills,Illinois,IL,Saline,37.6803,-88.6199,-1.0
28531,62919.0,Cave In Rock,Illinois,IL,Hardin,37.5008,-88.2383,-1.0
28532,62920.0,Cobden,Illinois,IL,Union,37.5424,-89.2457,-1.0
28533,62921.0,Colp,Illinois,IL,Williamson,37.8057,-89.076,-1.0
28534,62922.0,Creal Springs,Illinois,IL,Williamson,37.6284,-88.8807,-1.0
28535,62923.0,Cypress,Illinois,IL,Johnson,37.365,-88.9747,-1.0
28536,62924.0,De Soto,Illinois,IL,Jackson,37.8147,-89.2218,-1.0
28537,62926.0,Dongola,Illinois,IL,Union,37.3712,-89.1349,-1.0
28538,62927.0,Dowell,Illinois,IL,Jackson,37.9392,-89.2318,-1.0
28539,62928.0,Eddyville,Illinois,IL,Pope,37.4829,-88.5791,-1.0
28540,62929.0,Elco,Illinois,IL,-1,37.3004,-89.2657,-1.0
28541,62930.0,Eldorado,Illinois,IL,Saline,37.8139,-88.4434,-1.0
28542,62931.0,Elizabethtown,Illinois,IL,Hardin,37.4665,-88.2867,-1.0
28543,62932.0,Elkville,Illinois,IL,Jackson,37.9155,-89.2336,-1.0
28544,62933.0,Energy,Illinois,IL,Williamson,37.7726,-89.025,-1.0
28545,62934.0,Equality,Illinois,IL,Gallatin,37.7278,-88.3445,-1.0
28546,62935.0,Galatia,Illinois,IL,Saline,37.8274,-88.6235,-1.0
28547,62938.0,Golconda,Illinois,IL,Pope,37.3602,-88.4886,-1.0
28548,62939.0,Goreville,Illinois,IL,Johnson,37.575,-88.9655,-1.0
28549,62940.0,Gorham,Illinois,IL,Jackson,37.7406,-89.444,-1.0
28550,62941.0,Grand Chain,Illinois,IL,Pulaski,37.251,-89.0083,-1.0
28551,62942.0,Grand Tower,Illinois,IL,Jackson,37.6322,-89.4999,-1.0
28552,62943.0,Grantsburg,Illinois,IL,Johnson,37.3794,-88.7583,-1.0
28553,62944.0,Hamletsburg,Illinois,IL,Pope,37.3336,-88.5614,-1.0
28555,62947.0,Herod,Illinois,IL,Pope,37.5634,-88.44,-1.0
28556,62948.0,Herrin,Illinois,IL,Williamson,37.8019,-89.0232,-1.0
28557,62949.0,Hurst,Illinois,IL,Williamson,37.8366,-89.1424,-1.0
28558,62950.0,Jacob,Illinois,IL,Jackson,37.7437,-89.5444,-1.0
28559,62951.0,Johnston City,Illinois,IL,Williamson,37.8245,-88.9209,-1.0
28561,62953.0,Joppa,Illinois,IL,Massac,37.2092,-88.8442,-1.0
28562,62954.0,Junction,Illinois,IL,Gallatin,37.6952,-88.2491,-1.0
28563,62955.0,Karbers Ridge,Illinois,IL,Hardin,37.5008,-88.2383,-1.0
28564,62956.0,Karnak,Illinois,IL,Pulaski,37.2911,-88.9739,-1.0
28565,62957.0,Mc Clure,Illinois,IL,Alexander,37.302,-89.4531,-1.0
28566,62958.0,Makanda,Illinois,IL,Jackson,37.6871,-89.2509,-1.0
28567,62959.0,Marion,Illinois,IL,Williamson,37.7257,-88.9294,-1.0
28568,62960.0,Metropolis,Illinois,IL,Massac,37.1753,-88.7252,-1.0
28569,62961.0,Millcreek,Illinois,IL,Union,37.3409,-89.2542,-1.0
28570,62962.0,Miller City,Illinois,IL,Alexander,37.1034,-89.3494,-1.0
28571,62963.0,Mound City,Illinois,IL,Pulaski,37.0865,-89.1637,-1.0
28572,62964.0,Mounds,Illinois,IL,Pulaski,37.1188,-89.2001,-1.0
28573,62965.0,Muddy,Illinois,IL,Saline,37.802,-88.5487,-1.0
28575,62967.0,New Burnside,Illinois,IL,Johnson,37.578,-88.7454,-1.0
28576,62969.0,Olive Branch,Illinois,IL,Alexander,37.1674,-89.3537,-1.0
28577,62970.0,Olmsted,Illinois,IL,Pulaski,37.1935,-89.0933,-1.0
28578,62971.0,Oraville,Illinois,IL,Jackson,37.7586,-89.4158,-1.0
28579,62972.0,Ozark,Illinois,IL,Johnson,37.5367,-88.7688,-1.0
28580,62973.0,Perks,Illinois,IL,Pulaski,37.3113,-89.0831,-1.0
28581,62974.0,Pittsburg,Illinois,IL,Williamson,37.8047,-88.8081,-1.0
28582,62975.0,Pomona,Illinois,IL,Jackson,37.6501,-89.3693,-1.0
28583,62976.0,Pulaski,Illinois,IL,Pulaski,37.2146,-89.1968,-1.0
28584,62977.0,Raleigh,Illinois,IL,Saline,37.8256,-88.5324,-1.0
28585,62979.0,Ridgway,Illinois,IL,Gallatin,37.8042,-88.2612,-1.0
28586,62982.0,Rosiclare,Illinois,IL,Hardin,37.424,-88.3462,-1.0
28587,62983.0,Royalton,Illinois,IL,Franklin,37.879,-89.1141,-1.0
28588,62984.0,Shawneetown,Illinois,IL,Gallatin,37.7132,-88.1785,-1.0
28589,62985.0,Simpson,Illinois,IL,Johnson,37.4519,-88.8014,-1.0
28590,62987.0,Stonefort,Illinois,IL,Saline,37.6432,-88.6228,-1.0
28591,62988.0,Tamms,Illinois,IL,Alexander,37.2345,-89.2763,-1.0
28592,62990.0,Thebes,Illinois,IL,Alexander,37.221,-89.4599,-1.0
28593,62991.0,Tunnel Hill,Illinois,IL,Johnson,37.5737,-88.8835,-1.0
28594,62992.0,Ullin,Illinois,IL,Pulaski,37.2704,-89.1911,-1.0
28595,62993.0,Unity,Illinois,IL,Alexander,37.1528,-89.3256,-1.0
28596,62994.0,Vergennes,Illinois,IL,Jackson,37.9051,-89.3269,-1.0
28597,62995.0,Vienna,Illinois,IL,Johnson,37.4205,-88.8879,-1.0
28598,62996.0,Villa Ridge,Illinois,IL,Pulaski,37.1578,-89.1825,-1.0
28599,62997.0,Willisville,Illinois,IL,Perry,37.9848,-89.5899,-1.0
28600,62998.0,Wolf Lake,Illinois,IL,Union,37.512,-89.4408,-1.0
28601,62999.0,Zeigler,Illinois,IL,Franklin,37.8991,-89.0523,-1.0
